{
  "type": "FeatureCollection",
  "features": [
    {
      "type": "Feature",
      "properties": {
        "room": "S202",
        "building": "SE12",
        "floor": "2",
        "type": "stairs",
        "source": "traced",
        "uv": [
          [
            0.376798,
            0.264208
          ],
          [
            0.376574,
            0.226907
          ],
          [
            0.3889,
            0.207566
          ],
          [
            0.435065,
            0.207566
          ],
          [
            0.434392,
            0.241068
          ],
          [
            0.419826,
            0.263172
          ]
        ],
        "name": "East Stairs"
      },
      "geometry": {
        "type": "Polygon",
        "coordinates": [
          [
            [
              -123.00141940154298,
              49.250117380757516
            ],
            [
              -123.00137798772823,
              49.25011763095256
            ],
            [
              -123.00135651418623,
              49.25010386352368
            ],
            [
              -123.00135651418623,
              49.250052299889546
            ],
            [
              -123.00139371012256,
              49.250053051591614
            ],
            [
              -123.00141825131342,
              49.250069320970894
            ],
            [
              -123.00141940154298,
              49.250117380757516
            ]
          ]
        ]
      }
    },
    {
      "type": "Feature",
      "properties": {
        "room": "S228",
        "building": "SE12",
        "floor": "2",
        "type": "stairs",
        "source": "traced",
        "uv": [
          [
            0.787124,
            0.602098
          ],
          [
            0.788371,
            0.56239
          ],
          [
            0.834084,
            0.56303
          ],
          [
            0.834084,
            0.56303
          ],
          [
            0.833668,
            0.570716
          ],
          [
            0.844057,
            0.588008
          ],
          [
            0.845304,
            0.620031
          ],
          [
            0.800007,
            0.619391
          ]
        ],
        "name": "SW Stairs"
      },
      "geometry": {
        "type": "Polygon",
        "coordinates": [
          [
            [
              -123.00179454735297,
              49.24965907035488
            ],
            [
              -123.00175046114201,
              49.24965767752803
            ],
            [
              -123.00175117170852,
              49.24960661875175
            ],
            [
              -123.00175117170852,
              49.24960661875175
            ],
            [
              -123.00175970516821,
              49.24960708339968
            ],
            [
              -123.00177890378713,
              49.24959547948773
            ],
            [
              -123.00181445764866,
              49.24959408666088
            ],
            [
              -123.00181374708215,
              49.249644680789224
            ],
            [
              -123.00179454735297,
              49.24965907035488
            ]
          ]
        ]
      }
    },
    {
      "type": "Feature",
      "properties": {
        "room": "S200",
        "building": "SE12",
        "floor": "2",
        "type": "stairs",
        "source": "traced",
        "uv": [
          [
            0.030061,
            0.520447
          ],
          [
            0.030061,
            0.449299
          ],
          [
            0.042162,
            0.430993
          ],
          [
            0.065469,
            0.430993
          ],
          [
            0.065469,
            0.455515
          ],
          [
            0.060763,
            0.456552
          ],
          [
            0.060987,
            0.501797
          ],
          [
            0.05023,
            0.520447
          ]
        ],
        "name": "North Stairs"
      },
      "geometry": {
        "type": "Polygon",
        "coordinates": [
          [
            [
              -123.00170389349955,
              49.25050466592609
            ],
            [
              -123.00162490070873,
              49.25050466592609
            ],
            [
              -123.001604576286,
              49.250491149809186
            ],
            [
              -123.001604576286,
              49.25046511723861
            ],
            [
              -123.00163180208597,
              49.25046511723861
            ],
            [
              -123.00163295342577,
              49.25047037356835
            ],
            [
              -123.00168318714732,
              49.250470123373304
            ],
            [
              -123.00170389349955,
              49.25048213831996
            ],
            [
              -123.00170389349955,
              49.25050466592609
            ]
          ]
        ]
      }
    },
    {
      "type": "Feature",
      "properties": {
        "room": "201R",
        "building": "SE12",
        "floor": "2",
        "type": "room",
        "source": "traced",
        "uv": [
          [
            0.084629,
            0.358931
          ],
          [
            0.084298,
            0.322951
          ],
          [
            0.124366,
            0.323206
          ],
          [
            0.124366,
            0.350765
          ],
          [
            0.093735,
            0.350255
          ],
          [
            0.094232,
            0.359186
          ]
        ],
        "name": "Men's Washroom",
        "amenity": "washroom"
      },
      "geometry": {
        "type": "Polygon",
        "coordinates": [
          [
            [
              -123.00152456871737,
              49.25044371662711
            ],
            [
              -123.00148462155634,
              49.25044408633496
            ],
            [
              -123.00148490467268,
              49.25039933269709
            ],
            [
              -123.00151550233281,
              49.25039933269709
            ],
            [
              -123.00151493610011,
              49.25043354575194
            ],
            [
              -123.00152485183372,
              49.250432990631694
            ],
            [
              -123.00152456871737,
              49.25044371662711
            ]
          ]
        ]
      }
    },
    {
      "type": "Feature",
      "properties": {
        "room": "201Q",
        "building": "SE12",
        "floor": "2",
        "type": "room",
        "source": "traced",
        "uv": [
          [
            0.100828,
            0.388857
          ],
          [
            0.100828,
            0.359448
          ],
          [
            0.138097,
            0.358989
          ],
          [
            0.138693,
            0.389546
          ]
        ],
        "name": "Women's Washroom",
        "amenity": "washroom"
      },
      "geometry": {
        "type": "Polygon",
        "coordinates": [
          [
            [
              -123.00155779436332,
              49.2504256232813
            ],
            [
              -123.00152514272189,
              49.2504256232813
            ],
            [
              -123.00152463311247,
              49.2503839959645
            ],
            [
              -123.0015585593326,
              49.25038333026698
            ],
            [
              -123.00155779436332,
              49.2504256232813
            ]
          ]
        ]
      }
    },
    {
      "type": "Feature",
      "properties": {
        "room": "201P",
        "building": "SE12",
        "floor": "2",
        "type": "room",
        "source": "traced",
        "uv": [
          [
            0.100679,
            0.415049
          ],
          [
            0.100828,
            0.388857
          ],
          [
            0.116928,
            0.389546
          ],
          [
            0.116928,
            0.415509
          ]
        ],
        "name": "Washroom",
        "amenity": "washroom"
      },
      "geometry": {
        "type": "Polygon",
        "coordinates": [
          [
            [
              -123.00158687429779,
              49.25042578970568
            ],
            [
              -123.00155779436332,
              49.2504256232813
            ],
            [
              -123.0015585593326,
              49.25040764051277
            ],
            [
              -123.00158738501747,
              49.25040764051277
            ],
            [
              -123.00158687429779,
              49.25042578970568
            ]
          ]
        ]
      }
    },
    {
      "type": "Feature",
      "properties": {
        "room": "201G",
        "building": "SE12",
        "floor": "2",
        "type": "service",
        "source": "traced",
        "uv": [
          [
            0.10053,
            0.440782
          ],
          [
            0.100679,
            0.415049
          ],
          [
            0.116928,
            0.415509
          ],
          [
            0.117077,
            0.440092
          ]
        ],
        "name": "Storage"
      },
      "geometry": {
        "type": "Polygon",
        "coordinates": [
          [
            [
              -123.00161544462283,
              49.250425956130066
            ],
            [
              -123.00158687429779,
              49.25042578970568
            ],
            [
              -123.00158738501747,
              49.25040764051277
            ],
            [
              -123.00161467854332,
              49.250407474088384
            ],
            [
              -123.00161544462283,
              49.250425956130066
            ]
          ]
        ]
      }
    },
    {
      "type": "Feature",
      "properties": {
        "room": "201E",
        "building": "SE12",
        "floor": "2",
        "type": "room",
        "source": "traced",
        "uv": [
          [
            0.117077,
            0.440092
          ],
          [
            0.143859,
            0.447413
          ],
          [
            0.154313,
            0.455085
          ],
          [
            0.182189,
            0.453934
          ],
          [
            0.18667,
            0.446262
          ],
          [
            0.186172,
            0.42363
          ],
          [
            0.185425,
            0.291672
          ],
          [
            0.084123,
            0.293206
          ],
          [
            0.084298,
            0.322951
          ],
          [
            0.124366,
            0.323206
          ],
          [
            0.124366,
            0.350765
          ],
          [
            0.139628,
            0.350362
          ],
          [
            0.138693,
            0.389546
          ],
          [
            0.116928,
            0.389546
          ]
        ],
        "name": "Tim Hortons"
      },
      "geometry": {
        "type": "Polygon",
        "coordinates": [
          [
            [
              -123.00161467854332,
              49.250407474088384
            ],
            [
              -123.00162280675805,
              49.25037756014385
            ],
            [
              -123.0016313246741,
              49.25036588363067
            ],
            [
              -123.00163004676463,
              49.25033474775143
            ],
            [
              -123.00162152884859,
              49.25032974273368
            ],
            [
              -123.00159640144034,
              49.25033029897087
            ],
            [
              -123.00144989372838,
              49.250331133326654
            ],
            [
              -123.00145159686748,
              49.25044428179984
            ],
            [
              -123.00148462155634,
              49.25044408633496
            ],
            [
              -123.00148490467268,
              49.25039933269709
            ],
            [
              -123.00151550233281,
              49.25039933269709
            ],
            [
              -123.00151505489795,
              49.25038228592607
            ],
            [
              -123.0015585593326,
              49.25038333026698
            ],
            [
              -123.0015585593326,
              49.25040764051277
            ],
            [
              -123.00161467854332,
              49.250407474088384
            ]
          ]
        ]
      }
    },
    {
      "type": "Feature",
      "properties": {
        "room": "201",
        "building": "SE12",
        "floor": "2",
        "type": "hallway",
        "source": "traced",
        "uv": [
          [
            0.084629,
            0.358931
          ],
          [
            0.08487,
            0.558274
          ],
          [
            0.282496,
            0.55789
          ],
          [
            0.282496,
            0.292439
          ],
          [
            0.185425,
            0.291672
          ],
          [
            0.18667,
            0.446262
          ],
          [
            0.182189,
            0.453934
          ],
          [
            0.154313,
            0.455085
          ],
          [
            0.143859,
            0.447413
          ],
          [
            0.117077,
            0.440092
          ],
          [
            0.10053,
            0.440782
          ],
          [
            0.100828,
            0.359448
          ]
        ],
        "name": "SE12 Dining Area"
      },
      "geometry": {
        "type": "Polygon",
        "coordinates": [
          [
            [
              -123.00152456871737,
              49.25044371662711
            ],
            [
              -123.00174589131113,
              49.250443447444056
            ],
            [
              -123.00174546497122,
              49.25022271063568
            ],
            [
              -123.00145074529793,
              49.25022271063568
            ],
            [
              -123.00144989372838,
              49.250331133326654
            ],
            [
              -123.00162152884859,
              49.25032974273368
            ],
            [
              -123.00163004676463,
              49.25033474775143
            ],
            [
              -123.0016313246741,
              49.25036588363067
            ],
            [
              -123.00162280675805,
              49.25037756014385
            ],
            [
              -123.00161467854332,
              49.250407474088384
            ],
            [
              -123.00161544462283,
              49.250425956130066
            ],
            [
              -123.00152514272189,
              49.2504256232813
            ],
            [
              -123.00152456871737,
              49.25044371662711
            ]
          ]
        ]
      }
    },
    {
      "type": "Feature",
      "properties": {
        "room": "202",
        "building": "SE12",
        "floor": "2",
        "type": "room",
        "source": "traced",
        "uv": [
          [
            0.351057,
            0.501521
          ],
          [
            0.351057,
            0.442115
          ],
          [
            0.373243,
            0.442115
          ],
          [
            0.373243,
            0.393416
          ],
          [
            0.428596,
            0.393762
          ],
          [
            0.428596,
            0.41483
          ],
          [
            0.434422,
            0.41483
          ],
          [
            0.435319,
            0.535714
          ],
          [
            0.371898,
            0.535023
          ]
        ],
        "name": "The Stand (SE12)"
      },
      "geometry": {
        "type": "Polygon",
        "coordinates": [
          [
            [
              -123.0016828807155,
              49.25014613196527
            ],
            [
              -123.00161692459965,
              49.25014613196527
            ],
            [
              -123.00161692459965,
              49.25012135148684
            ],
            [
              -123.00156285603946,
              49.25012135148684
            ],
            [
              -123.00156324018948,
              49.25005952538828
            ],
            [
              -123.00158663115081,
              49.25005952538828
            ],
            [
              -123.00158663115081,
              49.25005301808335
            ],
            [
              -123.00172084384162,
              49.250052016186245
            ],
            [
              -123.00172007665184,
              49.25012285377403
            ],
            [
              -123.0016828807155,
              49.25014613196527
            ]
          ]
        ]
      }
    },
    {
      "type": "Feature",
      "properties": {
        "room": "202A",
        "building": "SE12",
        "floor": "2",
        "type": "service",
        "source": "traced",
        "uv": [
          [
            0.351057,
            0.442115
          ],
          [
            0.351281,
            0.393416
          ],
          [
            0.373243,
            0.393416
          ],
          [
            0.373243,
            0.442115
          ]
        ],
        "name": "Storage"
      },
      "geometry": {
        "type": "Polygon",
        "coordinates": [
          [
            [
              -123.00161692459965,
              49.25014613196527
            ],
            [
              -123.00156285603946,
              49.25014588177023
            ],
            [
              -123.00156285603946,
              49.25012135148684
            ],
            [
              -123.00161692459965,
              49.25012135148684
            ],
            [
              -123.00161692459965,
              49.25014613196527
            ]
          ]
        ]
      }
    },
    {
      "type": "Feature",
      "properties": {
        "room": "203C",
        "building": "SE12",
        "floor": "2",
        "type": "room",
        "source": "traced",
        "uv": [
          [
            0.351281,
            0.393416
          ],
          [
            0.351268,
            0.320491
          ],
          [
            0.368972,
            0.320146
          ],
          [
            0.379729,
            0.337415
          ],
          [
            0.379505,
            0.352612
          ],
          [
            0.389365,
            0.352267
          ],
          [
            0.389589,
            0.393022
          ]
        ],
        "name": "Office"
      },
      "geometry": {
        "type": "Polygon",
        "coordinates": [
          [
            [
              -123.00156285603946,
              49.25014588177023
            ],
            [
              -123.00148189031631,
              49.25014589629048
            ],
            [
              -123.00148150727655,
              49.25012612194674
            ],
            [
              -123.00150068035948,
              49.25011410700009
            ],
            [
              -123.00151755298334,
              49.25011435719513
            ],
            [
              -123.00151716994358,
              49.25010334414558
            ],
            [
              -123.00156241859695,
              49.250103093950536
            ],
            [
              -123.00156285603946,
              49.25014588177023
            ]
          ]
        ]
      }
    },
    {
      "type": "Feature",
      "properties": {
        "room": "203B",
        "building": "SE12",
        "floor": "2",
        "type": "room",
        "source": "traced",
        "uv": [
          [
            0.351268,
            0.320491
          ],
          [
            0.351268,
            0.288716
          ],
          [
            0.434858,
            0.289752
          ],
          [
            0.435082,
            0.393367
          ],
          [
            0.389589,
            0.393022
          ],
          [
            0.389365,
            0.352267
          ],
          [
            0.379505,
            0.352612
          ],
          [
            0.379729,
            0.337415
          ],
          [
            0.368972,
            0.320146
          ]
        ],
        "name": "Office"
      },
      "geometry": {
        "type": "Polygon",
        "coordinates": [
          [
            [
              -123.00148189031631,
              49.25014589629048
            ],
            [
              -123.0014466117993,
              49.25014589629048
            ],
            [
              -123.00144776202885,
              49.25005253109657
            ],
            [
              -123.00156280163671,
              49.25005228090153
            ],
            [
              -123.00156241859695,
              49.250103093950536
            ],
            [
              -123.00151716994358,
              49.25010334414558
            ],
            [
              -123.00151755298334,
              49.25011435719513
            ],
            [
              -123.00150068035948,
              49.25011410700009
            ],
            [
              -123.00148150727655,
              49.25012612194674
            ],
            [
              -123.00148189031631,
              49.25014589629048
            ]
          ]
        ]
      }
    },
    {
      "type": "Feature",
      "properties": {
        "room": "203F",
        "building": "SE12",
        "floor": "2",
        "type": "room",
        "source": "traced",
        "uv": [
          [
            0.435319,
            0.535714
          ],
          [
            0.436361,
            0.440339
          ],
          [
            0.471321,
            0.439993
          ],
          [
            0.480061,
            0.427214
          ],
          [
            0.479613,
            0.386459
          ],
          [
            0.491939,
            0.386114
          ],
          [
            0.492145,
            0.41402
          ],
          [
            0.570506,
            0.413839
          ],
          [
            0.570102,
            0.537916
          ]
        ],
        "name": "Office"
      },
      "geometry": {
        "type": "Polygon",
        "coordinates": [
          [
            [
              -123.00172084384162,
              49.250052016186245
            ],
            [
              -123.00161495277757,
              49.25005085233253
            ],
            [
              -123.00161456862756,
              49.25001180403513
            ],
            [
              -123.0016003806128,
              49.250002041960784
            ],
            [
              -123.00155513195944,
              49.25000254235086
            ],
            [
              -123.00155474891967,
              49.24998877492199
            ],
            [
              -123.00158573184007,
              49.2499885448319
            ],
            [
              -123.00158553088298,
              49.24990102012847
            ],
            [
              -123.00172328863452,
              49.2499014713731
            ],
            [
              -123.00172084384162,
              49.250052016186245
            ]
          ]
        ]
      }
    },
    {
      "type": "Feature",
      "properties": {
        "room": "203E",
        "building": "SE12",
        "floor": "2",
        "type": "room",
        "source": "traced",
        "uv": [
          [
            0.436361,
            0.440339
          ],
          [
            0.435578,
            0.386905
          ],
          [
            0.479613,
            0.386459
          ],
          [
            0.480061,
            0.427214
          ],
          [
            0.471321,
            0.439993
          ]
        ],
        "name": "Office"
      },
      "geometry": {
        "type": "Polygon",
        "coordinates": [
          [
            [
              -123.00161495277757,
              49.25005085233253
            ],
            [
              -123.00155562713547,
              49.25005172689823
            ],
            [
              -123.00155513195944,
              49.25000254235086
            ],
            [
              -123.0016003806128,
              49.250002041960784
            ],
            [
              -123.00161456862756,
              49.25001180403513
            ],
            [
              -123.00161495277757,
              49.25005085233253
            ]
          ]
        ]
      }
    },
    {
      "type": "Feature",
      "properties": {
        "room": "203A",
        "building": "SE12",
        "floor": "2",
        "type": "room",
        "source": "traced",
        "uv": [
          [
            0.435326,
            0.33839
          ],
          [
            0.46682,
            0.33839
          ],
          [
            0.47589,
            0.3248
          ],
          [
            0.475638,
            0.289076
          ],
          [
            0.434858,
            0.289752
          ]
        ],
        "name": "Office"
      },
      "geometry": {
        "type": "Polygon",
        "coordinates": [
          [
            [
              -123.00150176286316,
              49.250052008367646
            ],
            [
              -123.00150176286316,
              49.250016831391726
            ],
            [
              -123.0014866744274,
              49.25000670072647
            ],
            [
              -123.00144701149296,
              49.25000698219589
            ],
            [
              -123.00144776202885,
              49.25005253109657
            ],
            [
              -123.00150176286316,
              49.250052008367646
            ]
          ]
        ]
      }
    },
    {
      "type": "Feature",
      "properties": {
        "room": "203",
        "building": "SE12",
        "floor": "2",
        "type": "room",
        "source": "traced",
        "uv": [
          [
            0.434965,
            0.358341
          ],
          [
            0.458047,
            0.358341
          ],
          [
            0.458233,
            0.386456
          ],
          [
            0.491939,
            0.386114
          ],
          [
            0.499931,
            0.373833
          ],
          [
            0.499372,
            0.290062
          ],
          [
            0.475638,
            0.289076
          ],
          [
            0.47589,
            0.3248
          ],
          [
            0.46682,
            0.33839
          ],
          [
            0.435326,
            0.33839
          ]
        ],
        "name": "Office"
      },
      "geometry": {
        "type": "Polygon",
        "coordinates": [
          [
            [
              -123.00152391366387,
              49.25005241158376
            ],
            [
              -123.00152391366387,
              49.250026630325166
            ],
            [
              -123.00155512862865,
              49.25002642257393
            ],
            [
              -123.00155474891967,
              49.24998877492199
            ],
            [
              -123.00154111381448,
              49.249979848320365
            ],
            [
              -123.0014481062095,
              49.24998047269102
            ],
            [
              -123.00144701149296,
              49.25000698219589
            ],
            [
              -123.0014866744274,
              49.25000670072647
            ],
            [
              -123.00150176286316,
              49.250016831391726
            ],
            [
              -123.00150176286316,
              49.250052008367646
            ],
            [
              -123.00152391366387,
              49.25005241158376
            ]
          ]
        ]
      }
    },
    {
      "type": "Feature",
      "properties": {
        "room": "203D",
        "building": "SE12",
        "floor": "2",
        "type": "service",
        "source": "traced",
        "uv": [
          [
            0.435578,
            0.386905
          ],
          [
            0.434965,
            0.358341
          ],
          [
            0.458047,
            0.358341
          ],
          [
            0.458233,
            0.386456
          ]
        ],
        "name": "Communications"
      },
      "geometry": {
        "type": "Polygon",
        "coordinates": [
          [
            [
              -123.00155562713547,
              49.25005172689823
            ],
            [
              -123.00152391366387,
              49.25005241158376
            ],
            [
              -123.00152391366387,
              49.250026630325166
            ],
            [
              -123.00155512862865,
              49.25002642257393
            ],
            [
              -123.00155562713547,
              49.25005172689823
            ]
          ]
        ]
      }
    },
    {
      "type": "Feature",
      "properties": {
        "room": "203G",
        "building": "SE12",
        "floor": "2",
        "type": "room",
        "source": "traced",
        "uv": [
          [
            0.492145,
            0.41402
          ],
          [
            0.491939,
            0.386114
          ],
          [
            0.499931,
            0.373833
          ],
          [
            0.50015,
            0.368192
          ],
          [
            0.527635,
            0.369468
          ],
          [
            0.528298,
            0.414124
          ]
        ],
        "name": "Office"
      },
      "geometry": {
        "type": "Polygon",
        "coordinates": [
          [
            [
              -123.00158573184007,
              49.2499885448319
            ],
            [
              -123.00155474891967,
              49.24998877492199
            ],
            [
              -123.00154111381448,
              49.249979848320365
            ],
            [
              -123.00153485083685,
              49.24997960371003
            ],
            [
              -123.00153626752882,
              49.249948904555175
            ],
            [
              -123.00158584730713,
              49.249948164022534
            ],
            [
              -123.00158573184007,
              49.2499885448319
            ]
          ]
        ]
      }
    },
    {
      "type": "Feature",
      "properties": {
        "room": "205A",
        "building": "SE12",
        "floor": "2",
        "type": "room",
        "source": "traced",
        "uv": [
          [
            0.528298,
            0.414124
          ],
          [
            0.527635,
            0.369468
          ],
          [
            0.548829,
            0.369213
          ],
          [
            0.548829,
            0.413869
          ]
        ],
        "name": "Office"
      },
      "geometry": {
        "type": "Polygon",
        "coordinates": [
          [
            [
              -123.00158584730713,
              49.249948164022534
            ],
            [
              -123.00153626752882,
              49.249948904555175
            ],
            [
              -123.00153598441248,
              49.24992523208335
            ],
            [
              -123.00158556419079,
              49.24992523208335
            ],
            [
              -123.00158584730713,
              49.249948164022534
            ]
          ]
        ]
      }
    },
    {
      "type": "Feature",
      "properties": {
        "room": "205B",
        "building": "SE12",
        "floor": "2",
        "type": "room",
        "source": "traced",
        "uv": [
          [
            0.548829,
            0.413869
          ],
          [
            0.548829,
            0.369213
          ],
          [
            0.570022,
            0.368958
          ],
          [
            0.570506,
            0.413839
          ]
        ],
        "name": "Office"
      },
      "geometry": {
        "type": "Polygon",
        "coordinates": [
          [
            [
              -123.00158556419079,
              49.24992523208335
            ],
            [
              -123.00153598441248,
              49.24992523208335
            ],
            [
              -123.00153570129613,
              49.24990156072847
            ],
            [
              -123.00158553088298,
              49.24990102012847
            ],
            [
              -123.00158556419079,
              49.24992523208335
            ]
          ]
        ]
      }
    },
    {
      "type": "Feature",
      "properties": {
        "room": "205",
        "building": "SE12",
        "floor": "2",
        "type": "room",
        "source": "traced",
        "uv": [
          [
            0.528298,
            0.35084
          ],
          [
            0.528463,
            0.289342
          ],
          [
            0.578798,
            0.289597
          ],
          [
            0.579129,
            0.350585
          ]
        ],
        "name": "Office"
      },
      "geometry": {
        "type": "Polygon",
        "coordinates": [
          [
            [
              -123.00151558560232,
              49.249948164022534
            ],
            [
              -123.00144730682217,
              49.249947979727075
            ],
            [
              -123.00144758993851,
              49.24989175844421
            ],
            [
              -123.00151530248597,
              49.24989138873635
            ],
            [
              -123.00151558560232,
              49.249948164022534
            ]
          ]
        ]
      }
    },
    {
      "type": "Feature",
      "properties": {
        "room": "205D",
        "building": "SE12",
        "floor": "2",
        "type": "room",
        "source": "traced",
        "uv": [
          [
            0.579129,
            0.350585
          ],
          [
            0.578798,
            0.289597
          ],
          [
            0.610774,
            0.289821
          ],
          [
            0.610774,
            0.350858
          ]
        ],
        "name": "Office"
      },
      "geometry": {
        "type": "Polygon",
        "coordinates": [
          [
            [
              -123.00151530248597,
              49.24989138873635
            ],
            [
              -123.00144758993851,
              49.24989175844421
            ],
            [
              -123.00144783863679,
              49.24985604310217
            ],
            [
              -123.001515605587,
              49.24985604310217
            ],
            [
              -123.00151530248597,
              49.24989138873635
            ]
          ]
        ]
      }
    },
    {
      "type": "Feature",
      "properties": {
        "room": "205C",
        "building": "SE12",
        "floor": "2",
        "type": "room",
        "source": "traced",
        "uv": [
          [
            0.570506,
            0.413839
          ],
          [
            0.570022,
            0.368958
          ],
          [
            0.610592,
            0.369058
          ],
          [
            0.610592,
            0.413576
          ]
        ],
        "name": "Meeting Room"
      },
      "geometry": {
        "type": "Polygon",
        "coordinates": [
          [
            [
              -123.00158553088298,
              49.24990102012847
            ],
            [
              -123.00153570129613,
              49.24990156072847
            ],
            [
              -123.00153581232216,
              49.24985624638564
            ],
            [
              -123.00158523888456,
              49.24985624638564
            ],
            [
              -123.00158553088298,
              49.24990102012847
            ]
          ]
        ]
      }
    },
    {
      "type": "Feature",
      "properties": {
        "room": "203H",
        "building": "SE12",
        "floor": "2",
        "type": "room",
        "source": "traced",
        "uv": [
          [
            0.570624,
            0.454734
          ],
          [
            0.570506,
            0.413839
          ],
          [
            0.610592,
            0.413576
          ],
          [
            0.610774,
            0.455014
          ]
        ],
        "name": "Office"
      },
      "geometry": {
        "type": "Polygon",
        "coordinates": [
          [
            [
              -123.00163093497277,
              49.2499008883293
            ],
            [
              -123.00158553088298,
              49.24990102012847
            ],
            [
              -123.00158523888456,
              49.24985624638564
            ],
            [
              -123.00163124584562,
              49.24985604310217
            ],
            [
              -123.00163093497277,
              49.2499008883293
            ]
          ]
        ]
      }
    },
    {
      "type": "Feature",
      "properties": {
        "room": "203J",
        "building": "SE12",
        "floor": "2",
        "type": "room",
        "source": "traced",
        "uv": [
          [
            0.570624,
            0.495892
          ],
          [
            0.570624,
            0.454734
          ],
          [
            0.610774,
            0.455014
          ],
          [
            0.610592,
            0.495612
          ]
        ],
        "name": "Office"
      },
      "geometry": {
        "type": "Polygon",
        "coordinates": [
          [
            [
              -123.00167663106099,
              49.2499008883293
            ],
            [
              -123.00163093497277,
              49.2499008883293
            ],
            [
              -123.00163124584562,
              49.24985604310217
            ],
            [
              -123.00167632018814,
              49.24985624638564
            ],
            [
              -123.00167663106099,
              49.2499008883293
            ]
          ]
        ]
      }
    },
    {
      "type": "Feature",
      "properties": {
        "room": "203K",
        "building": "SE12",
        "floor": "2",
        "type": "room",
        "source": "traced",
        "uv": [
          [
            0.570102,
            0.537916
          ],
          [
            0.570624,
            0.495892
          ],
          [
            0.610592,
            0.495612
          ],
          [
            0.610229,
            0.537331
          ]
        ],
        "name": "Office"
      },
      "geometry": {
        "type": "Polygon",
        "coordinates": [
          [
            [
              -123.00172328863452,
              49.2499014713731
            ],
            [
              -123.00167663106099,
              49.2499008883293
            ],
            [
              -123.00167632018814,
              49.24985624638564
            ],
            [
              -123.00172263913232,
              49.24985665183564
            ],
            [
              -123.00172328863452,
              49.2499014713731
            ]
          ]
        ]
      }
    },
    {
      "type": "Feature",
      "properties": {
        "room": "205E",
        "building": "SE12",
        "floor": "2",
        "type": "room",
        "source": "traced",
        "uv": [
          [
            0.610774,
            0.350858
          ],
          [
            0.610774,
            0.289821
          ],
          [
            0.647524,
            0.289647
          ],
          [
            0.648242,
            0.351053
          ]
        ],
        "name": "Office"
      },
      "geometry": {
        "type": "Polygon",
        "coordinates": [
          [
            [
              -123.001515605587,
              49.24985604310217
            ],
            [
              -123.00144783863679,
              49.24985604310217
            ],
            [
              -123.00144764545152,
              49.24981499547834
            ],
            [
              -123.00151582208773,
              49.24981419351388
            ],
            [
              -123.001515605587,
              49.24985604310217
            ]
          ]
        ]
      }
    },
    {
      "type": "Feature",
      "properties": {
        "room": "205G",
        "building": "SE12",
        "floor": "2",
        "type": "room",
        "source": "traced",
        "uv": [
          [
            0.610911,
            0.400011
          ],
          [
            0.610592,
            0.369058
          ],
          [
            0.640704,
            0.368479
          ],
          [
            0.640884,
            0.400565
          ]
        ],
        "name": "Office"
      },
      "geometry": {
        "type": "Polygon",
        "coordinates": [
          [
            [
              -123.0015701782053,
              49.2498558900811
            ],
            [
              -123.00153581232216,
              49.24985624638564
            ],
            [
              -123.00153516948151,
              49.24982261302377
            ],
            [
              -123.00157079328943,
              49.24982241197418
            ],
            [
              -123.0015701782053,
              49.2498558900811
            ]
          ]
        ]
      }
    },
    {
      "type": "Feature",
      "properties": {
        "room": "205H",
        "building": "SE12",
        "floor": "2",
        "type": "room",
        "source": "traced",
        "uv": [
          [
            0.610774,
            0.455014
          ],
          [
            0.610911,
            0.400011
          ],
          [
            0.640884,
            0.400565
          ],
          [
            0.640525,
            0.454502
          ]
        ],
        "name": "Office"
      },
      "geometry": {
        "type": "Polygon",
        "coordinates": [
          [
            [
              -123.00163124584562,
              49.24985604310217
            ],
            [
              -123.0015701782053,
              49.2498558900811
            ],
            [
              -123.00157079328943,
              49.24982241197418
            ],
            [
              -123.00163067739241,
              49.24982281295641
            ],
            [
              -123.00163124584562,
              49.24985604310217
            ]
          ]
        ]
      }
    },
    {
      "type": "Feature",
      "properties": {
        "room": "205J",
        "building": "SE12",
        "floor": "2",
        "type": "room",
        "source": "traced",
        "uv": [
          [
            0.610732,
            0.486311
          ],
          [
            0.610774,
            0.455014
          ],
          [
            0.640525,
            0.454502
          ],
          [
            0.641063,
            0.486311
          ]
        ],
        "name": "Office"
      },
      "geometry": {
        "type": "Polygon",
        "coordinates": [
          [
            [
              -123.00166599365826,
              49.24985609001374
            ],
            [
              -123.00163124584562,
              49.24985604310217
            ],
            [
              -123.00163067739241,
              49.24982281295641
            ],
            [
              -123.00166599365826,
              49.249822212041536
            ],
            [
              -123.00166599365826,
              49.24985609001374
            ]
          ]
        ]
      }
    },
    {
      "type": "Feature",
      "properties": {
        "room": "205K",
        "building": "SE12",
        "floor": "2",
        "type": "room",
        "source": "traced",
        "uv": [
          [
            0.610229,
            0.537331
          ],
          [
            0.610732,
            0.486311
          ],
          [
            0.641063,
            0.486311
          ],
          [
            0.641243,
            0.537206
          ]
        ],
        "name": "Office"
      },
      "geometry": {
        "type": "Polygon",
        "coordinates": [
          [
            [
              -123.00172263913232,
              49.24985665183564
            ],
            [
              -123.00166599365826,
              49.24985609001374
            ],
            [
              -123.00166599365826,
              49.249822212041536
            ],
            [
              -123.0017225003498,
              49.24982201099195
            ],
            [
              -123.00172263913232,
              49.24985665183564
            ]
          ]
        ]
      }
    },
    {
      "type": "Feature",
      "properties": {
        "room": "S203",
        "building": "SE12",
        "floor": "2",
        "type": "stairs",
        "source": "traced",
        "uv": [
          [
            0.518086,
            0.490628
          ],
          [
            0.518279,
            0.442349
          ],
          [
            0.527504,
            0.442052
          ],
          [
            0.527504,
            0.490628
          ]
        ],
        "name": "Center Stairs"
      },
      "geometry": {
        "type": "Polygon",
        "coordinates": [
          [
            [
              -123.00167078665145,
              49.24995957023572
            ],
            [
              -123.00161718440053,
              49.24995935466588
            ],
            [
              -123.00161685465325,
              49.2499490508746
            ],
            [
              -123.00167078665145,
              49.2499490508746
            ],
            [
              -123.00167078665145,
              49.24995957023572
            ]
          ]
        ]
      }
    },
    {
      "type": "Feature",
      "properties": {
        "room": "205M",
        "building": "SE12",
        "floor": "2",
        "type": "room",
        "source": "traced",
        "uv": [
          [
            0.652477,
            0.4864
          ],
          [
            0.652939,
            0.411916
          ],
          [
            0.678335,
            0.411916
          ],
          [
            0.678643,
            0.4864
          ]
        ],
        "name": "Office"
      },
      "geometry": {
        "type": "Polygon",
        "coordinates": [
          [
            [
              -123.00166609247142,
              49.249809463263894
            ],
            [
              -123.00158339585266,
              49.24980894723662
            ],
            [
              -123.00158339585266,
              49.249780581373905
            ],
            [
              -123.00166609247142,
              49.24978023735572
            ],
            [
              -123.00166609247142,
              49.249809463263894
            ]
          ]
        ]
      }
    },
    {
      "type": "Feature",
      "properties": {
        "room": "205N",
        "building": "SE12",
        "floor": "2",
        "type": "room",
        "source": "traced",
        "uv": [
          [
            0.652939,
            0.411916
          ],
          [
            0.652785,
            0.367795
          ],
          [
            0.678489,
            0.367795
          ],
          [
            0.678335,
            0.411916
          ]
        ],
        "name": "Meeting Room"
      },
      "geometry": {
        "type": "Polygon",
        "coordinates": [
          [
            [
              -123.00158339585266,
              49.24980894723662
            ],
            [
              -123.00153441006356,
              49.24980911924571
            ],
            [
              -123.00153441006356,
              49.24978040936482
            ],
            [
              -123.00158339585266,
              49.249780581373905
            ],
            [
              -123.00158339585266,
              49.24980894723662
            ]
          ]
        ]
      }
    },
    {
      "type": "Feature",
      "properties": {
        "room": "205F",
        "building": "SE12",
        "floor": "2",
        "type": "room",
        "source": "traced",
        "uv": [
          [
            0.648242,
            0.351053
          ],
          [
            0.647524,
            0.289647
          ],
          [
            0.674487,
            0.289041
          ],
          [
            0.674795,
            0.350953
          ]
        ],
        "name": "Office"
      },
      "geometry": {
        "type": "Polygon",
        "coordinates": [
          [
            [
              -123.00151582208773,
              49.24981419351388
            ],
            [
              -123.00144764545152,
              49.24981499547834
            ],
            [
              -123.00144697263386,
              49.24978487936728
            ],
            [
              -123.00151571106171,
              49.2497845353491
            ],
            [
              -123.00151582208773,
              49.24981419351388
            ]
          ]
        ]
      }
    },
    {
      "type": "Feature",
      "properties": {
        "room": "206A",
        "building": "SE12",
        "floor": "2",
        "type": "room",
        "source": "traced",
        "uv": [
          [
            0.674795,
            0.350953
          ],
          [
            0.674487,
            0.289041
          ],
          [
            0.705503,
            0.289596
          ],
          [
            0.705041,
            0.351034
          ]
        ],
        "name": "Office"
      },
      "geometry": {
        "type": "Polygon",
        "coordinates": [
          [
            [
              -123.00151571106171,
              49.2497845353491
            ],
            [
              -123.00144697263386,
              49.24978487936728
            ],
            [
              -123.00144758882826,
              49.24975023628971
            ],
            [
              -123.00151580099279,
              49.24975075231698
            ],
            [
              -123.00151571106171,
              49.2497845353491
            ]
          ]
        ]
      }
    },
    {
      "type": "Feature",
      "properties": {
        "room": "206D",
        "building": "SE12",
        "floor": "2",
        "type": "room",
        "source": "traced",
        "uv": [
          [
            0.67826,
            0.407964
          ],
          [
            0.678489,
            0.367795
          ],
          [
            0.698884,
            0.367876
          ],
          [
            0.699038,
            0.408201
          ]
        ],
        "name": "Office"
      },
      "geometry": {
        "type": "Polygon",
        "coordinates": [
          [
            [
              -123.00157900810446,
              49.24978066514456
            ],
            [
              -123.00153441006356,
              49.24978040936482
            ],
            [
              -123.00153449999463,
              49.249757629329764
            ],
            [
              -123.00157927123612,
              49.249757457320676
            ],
            [
              -123.00157900810446,
              49.24978066514456
            ]
          ]
        ]
      }
    },
    {
      "type": "Feature",
      "properties": {
        "room": "206E",
        "building": "SE12",
        "floor": "2",
        "type": "room",
        "source": "traced",
        "uv": [
          [
            0.678413,
            0.447104
          ],
          [
            0.67826,
            0.407964
          ],
          [
            0.699038,
            0.408201
          ],
          [
            0.699192,
            0.446867
          ]
        ],
        "name": "Office"
      },
      "geometry": {
        "type": "Polygon",
        "coordinates": [
          [
            [
              -123.00162246368765,
              49.24978049425242
            ],
            [
              -123.00157900810446,
              49.24978066514456
            ],
            [
              -123.00157927123612,
              49.249757457320676
            ],
            [
              -123.00162220055599,
              49.24975728531159
            ],
            [
              -123.00162246368765,
              49.24978049425242
            ]
          ]
        ]
      }
    },
    {
      "type": "Feature",
      "properties": {
        "room": "206F",
        "building": "SE12",
        "floor": "2",
        "type": "room",
        "source": "traced",
        "uv": [
          [
            0.678643,
            0.4864
          ],
          [
            0.678413,
            0.447104
          ],
          [
            0.699192,
            0.446867
          ],
          [
            0.699192,
            0.486481
          ]
        ],
        "name": "Office"
      },
      "geometry": {
        "type": "Polygon",
        "coordinates": [
          [
            [
              -123.00166609247142,
              49.24978023735572
            ],
            [
              -123.00162246368765,
              49.24978049425242
            ],
            [
              -123.00162220055599,
              49.24975728531159
            ],
            [
              -123.0016661824025,
              49.24975728531159
            ],
            [
              -123.00166609247142,
              49.24978023735572
            ]
          ]
        ]
      }
    },
    {
      "type": "Feature",
      "properties": {
        "room": "206B",
        "building": "SE12",
        "floor": "2",
        "type": "room",
        "source": "traced",
        "uv": [
          [
            0.70615,
            0.324372
          ],
          [
            0.715693,
            0.323898
          ],
          [
            0.715693,
            0.35094
          ],
          [
            0.734163,
            0.351177
          ],
          [
            0.734163,
            0.288553
          ],
          [
            0.705503,
            0.289596
          ]
        ],
        "name": "Office"
      },
      "geometry": {
        "type": "Polygon",
        "coordinates": [
          [
            [
              -123.00148619923604,
              49.24974951362814
            ],
            [
              -123.00148567297272,
              49.24973885464925
            ],
            [
              -123.00151569662833,
              49.24973885464925
            ],
            [
              -123.00151595976,
              49.24971822472783
            ],
            [
              -123.00144643082689,
              49.24971822472783
            ],
            [
              -123.00144758882826,
              49.24975023628971
            ],
            [
              -123.00148619923604,
              49.24974951362814
            ]
          ]
        ]
      }
    },
    {
      "type": "Feature",
      "properties": {
        "room": "206H",
        "building": "SE12",
        "floor": "2",
        "type": "room",
        "source": "traced",
        "uv": [
          [
            0.708767,
            0.411902
          ],
          [
            0.708459,
            0.368019
          ],
          [
            0.732162,
            0.36873
          ],
          [
            0.73247,
            0.411665
          ]
        ],
        "name": "Office"
      },
      "geometry": {
        "type": "Polygon",
        "coordinates": [
          [
            [
              -123.00158338030903,
              49.24974659059055
            ],
            [
              -123.00153465876183,
              49.24974693460872
            ],
            [
              -123.00153544815682,
              49.24972045972906
            ],
            [
              -123.00158311717736,
              49.24972011571088
            ],
            [
              -123.00158338030903,
              49.24974659059055
            ]
          ]
        ]
      }
    },
    {
      "type": "Feature",
      "properties": {
        "room": "206J",
        "building": "SE12",
        "floor": "2",
        "type": "room",
        "source": "traced",
        "uv": [
          [
            0.73247,
            0.411665
          ],
          [
            0.732162,
            0.36873
          ],
          [
            0.744937,
            0.36873
          ],
          [
            0.744783,
            0.411902
          ]
        ],
        "name": "Office"
      },
      "geometry": {
        "type": "Polygon",
        "coordinates": [
          [
            [
              -123.00158311717736,
              49.24972011571088
            ],
            [
              -123.00153544815682,
              49.24972045972906
            ],
            [
              -123.00153544815682,
              49.249706190793155
            ],
            [
              -123.00158338030903,
              49.24970636280225
            ],
            [
              -123.00158311717736,
              49.24972011571088
            ]
          ]
        ]
      }
    },
    {
      "type": "Feature",
      "properties": {
        "room": "209",
        "building": "SE12",
        "floor": "2",
        "type": "room",
        "source": "traced",
        "uv": [
          [
            0.78368,
            0.324967
          ],
          [
            0.791072,
            0.324756
          ],
          [
            0.790936,
            0.331086
          ],
          [
            0.828174,
            0.331086
          ],
          [
            0.827626,
            0.28952
          ],
          [
            0.783543,
            0.28952
          ]
        ],
        "name": "Staff Room"
      },
      "geometry": {
        "type": "Polygon",
        "coordinates": [
          [
            [
              -123.00148685984085,
              49.24966291710363
            ],
            [
              -123.00148662557595,
              49.24965466066729
            ],
            [
              -123.00149365352284,
              49.24965481257142
            ],
            [
              -123.00149365352284,
              49.249613219879826
            ],
            [
              -123.00144750444848,
              49.24961383196412
            ],
            [
              -123.00144750444848,
              49.249663070124704
            ],
            [
              -123.00148685984085,
              49.24966291710363
            ]
          ]
        ]
      }
    },
    {
      "type": "Feature",
      "properties": {
        "room": "211",
        "building": "SE12",
        "floor": "2",
        "type": "room",
        "source": "traced",
        "uv": [
          [
            0.7819,
            0.35535
          ],
          [
            0.791757,
            0.355772
          ],
          [
            0.792031,
            0.362946
          ],
          [
            0.8279,
            0.362946
          ],
          [
            0.828174,
            0.331086
          ],
          [
            0.790936,
            0.331086
          ],
          [
            0.790662,
            0.340158
          ],
          [
            0.781352,
            0.340369
          ]
        ],
        "name": "Women's Washroom",
        "amenity": "washroom"
      },
      "geometry": {
        "type": "Polygon",
        "coordinates": [
          [
            [
              -123.00152059287569,
              49.249664905260644
            ],
            [
              -123.00152106140548,
              49.24965389556192
            ],
            [
              -123.00152902641197,
              49.249653589519774
            ],
            [
              -123.00152902641197,
              49.24961352592197
            ],
            [
              -123.00149365352284,
              49.249613219879826
            ],
            [
              -123.00149365352284,
              49.24965481257142
            ],
            [
              -123.00150372580315,
              49.249655118613575
            ],
            [
              -123.00150396006804,
              49.249665517344944
            ],
            [
              -123.00152059287569,
              49.249664905260644
            ]
          ]
        ]
      }
    },
    {
      "type": "Feature",
      "properties": {
        "room": "212",
        "building": "SE12",
        "floor": "2",
        "type": "room",
        "source": "traced",
        "uv": [
          [
            0.781626,
            0.376027
          ],
          [
            0.781763,
            0.392907
          ],
          [
            0.827489,
            0.393329
          ],
          [
            0.8279,
            0.362946
          ],
          [
            0.792031,
            0.362946
          ],
          [
            0.792305,
            0.375605
          ]
        ],
        "name": "Men's Washroom",
        "amenity": "washroom"
      },
      "geometry": {
        "type": "Polygon",
        "coordinates": [
          [
            [
              -123.0015435497253,
              49.2496652113028
            ],
            [
              -123.00156229091704,
              49.24966505828172
            ],
            [
              -123.00156275944683,
              49.249613984985196
            ],
            [
              -123.00152902641197,
              49.24961352592197
            ],
            [
              -123.00152902641197,
              49.249653589519774
            ],
            [
              -123.0015430811955,
              49.24965328347763
            ],
            [
              -123.0015435497253,
              49.2496652113028
            ]
          ]
        ]
      }
    },
    {
      "type": "Feature",
      "properties": {
        "room": "206K",
        "building": "SE12",
        "floor": "2",
        "type": "service",
        "source": "traced",
        "uv": [
          [
            0.744937,
            0.36873
          ],
          [
            0.744662,
            0.324334
          ],
          [
            0.766156,
            0.324334
          ],
          [
            0.765882,
            0.368009
          ]
        ],
        "name": "Storage"
      },
      "geometry": {
        "type": "Polygon",
        "coordinates": [
          [
            [
              -123.00153544815682,
              49.249706190793155
            ],
            [
              -123.00148615704616,
              49.249706497952246
            ],
            [
              -123.00148615704616,
              49.24968249039778
            ],
            [
              -123.00153464765923,
              49.24968279643993
            ],
            [
              -123.00153544815682,
              49.249706190793155
            ]
          ]
        ]
      }
    },
    {
      "type": "Feature",
      "properties": {
        "room": "210",
        "building": "SE12",
        "floor": "2",
        "type": "service",
        "source": "traced",
        "uv": [
          [
            0.781352,
            0.340369
          ],
          [
            0.781215,
            0.324967
          ],
          [
            0.791072,
            0.324756
          ],
          [
            0.790662,
            0.340158
          ]
        ],
        "name": "Janitor"
      },
      "geometry": {
        "type": "Polygon",
        "coordinates": [
          [
            [
              -123.00150396006804,
              49.249665517344944
            ],
            [
              -123.00148685984085,
              49.249665670366014
            ],
            [
              -123.00148662557595,
              49.24965466066729
            ],
            [
              -123.00150372580315,
              49.249655118613575
            ],
            [
              -123.00150396006804,
              49.249665517344944
            ]
          ]
        ]
      }
    },
    {
      "type": "Feature",
      "properties": {
        "room": "214",
        "building": "SE12",
        "floor": "2",
        "type": "room",
        "source": "traced",
        "uv": [
          [
            0.827489,
            0.393329
          ],
          [
            0.843676,
            0.416158
          ],
          [
            0.869677,
            0.415689
          ],
          [
            0.869981,
            0.289614
          ],
          [
            0.827626,
            0.28952
          ]
        ],
        "name": "Office"
      },
      "geometry": {
        "type": "Polygon",
        "coordinates": [
          [
            [
              -123.00156275944683,
              49.249613984985196
            ],
            [
              -123.00158810557632,
              49.24959590504269
            ],
            [
              -123.0015875848643,
              49.249566863429976
            ],
            [
              -123.00144760881294,
              49.249566523879565
            ],
            [
              -123.00144750444848,
              49.24961383196412
            ],
            [
              -123.00156275944683,
              49.249613984985196
            ]
          ]
        ]
      }
    },
    {
      "type": "Feature",
      "properties": {
        "room": "213",
        "building": "SE12",
        "floor": "2",
        "type": "room",
        "source": "traced",
        "uv": [
          [
            0.888216,
            0.387682
          ],
          [
            0.869694,
            0.388316
          ],
          [
            0.869677,
            0.415689
          ],
          [
            0.843676,
            0.416158
          ],
          [
            0.827489,
            0.393329
          ],
          [
            0.766381,
            0.392756
          ],
          [
            0.765558,
            0.494253
          ],
          [
            0.783257,
            0.49457
          ],
          [
            0.783668,
            0.53612
          ],
          [
            0.961729,
            0.535969
          ],
          [
            0.96223,
            0.415374
          ],
          [
            0.888245,
            0.415374
          ]
        ],
        "name": "Office"
      },
      "geometry": {
        "type": "Polygon",
        "coordinates": [
          [
            [
              -123.00155648980763,
              49.24954615643955
            ],
            [
              -123.00155719371257,
              49.24956684444196
            ],
            [
              -123.0015875848643,
              49.249566863429976
            ],
            [
              -123.00158810557632,
              49.24959590504269
            ],
            [
              -123.00156275944683,
              49.249613984985196
            ],
            [
              -123.00156212326775,
              49.2496822390858
            ],
            [
              -123.00167481134457,
              49.249683158329184
            ],
            [
              -123.00167516329704,
              49.24966338957016
            ],
            [
              -123.00172129460725,
              49.249662930506936
            ],
            [
              -123.00172112695796,
              49.24946404667163
            ],
            [
              -123.00158723513235,
              49.24946348708362
            ],
            [
              -123.00158723513235,
              49.24954612404822
            ],
            [
              -123.00155648980763,
              49.24954615643955
            ]
          ]
        ]
      }
    },
    {
      "type": "Feature",
      "properties": {
        "room": "215",
        "building": "SE12",
        "floor": "2",
        "type": "room",
        "source": "traced",
        "uv": [
          [
            0.869694,
            0.388316
          ],
          [
            0.869981,
            0.289614
          ],
          [
            0.963052,
            0.290045
          ],
          [
            0.96223,
            0.415374
          ],
          [
            0.888245,
            0.415374
          ],
          [
            0.888216,
            0.387682
          ]
        ],
        "name": "Machinery Room"
      },
      "geometry": {
        "type": "Polygon",
        "coordinates": [
          [
            [
              -123.00155719371257,
              49.24956684444196
            ],
            [
              -123.00144760881294,
              49.249566523879565
            ],
            [
              -123.00144808733506,
              49.24946256895718
            ],
            [
              -123.00158723513235,
              49.24946348708362
            ],
            [
              -123.00158723513235,
              49.24954612404822
            ],
            [
              -123.00155648980763,
              49.24954615643955
            ],
            [
              -123.00155719371257,
              49.24956684444196
            ]
          ]
        ]
      }
    },
    {
      "type": "Feature",
      "properties": {
        "room": "206G",
        "building": "SE12",
        "floor": "2",
        "type": "room",
        "source": "traced",
        "uv": [
          [
            0.675148,
            0.486985
          ],
          [
            0.675331,
            0.53551
          ],
          [
            0.731163,
            0.535792
          ],
          [
            0.731346,
            0.494602
          ],
          [
            0.743794,
            0.49432
          ],
          [
            0.744783,
            0.411902
          ],
          [
            0.699128,
            0.412505
          ],
          [
            0.699192,
            0.486481
          ]
        ],
        "name": "Office"
      },
      "geometry": {
        "type": "Polygon",
        "coordinates": [
          [
            [
              -123.00166674197362,
              49.249784141068524
            ],
            [
              -123.00172061734854,
              49.24978393666811
            ],
            [
              -123.0017209304419,
              49.24972157555426
            ],
            [
              -123.00167519882537,
              49.24972137115385
            ],
            [
              -123.001674885732,
              49.24970746745803
            ],
            [
              -123.00158338030903,
              49.24970636280225
            ],
            [
              -123.00158404979591,
              49.24975735679588
            ],
            [
              -123.0016661824025,
              49.24975728531159
            ],
            [
              -123.00166674197362,
              49.249784141068524
            ]
          ]
        ]
      }
    },
    {
      "type": "Feature",
      "properties": {
        "room": "205L",
        "building": "SE12",
        "floor": "2",
        "type": "room",
        "source": "traced",
        "uv": [
          [
            0.641243,
            0.537206
          ],
          [
            0.675331,
            0.53551
          ],
          [
            0.675148,
            0.486985
          ],
          [
            0.641063,
            0.486311
          ]
        ],
        "name": "Office"
      },
      "geometry": {
        "type": "Polygon",
        "coordinates": [
          [
            [
              -123.0017225003498,
              49.24982201099195
            ],
            [
              -123.00172061734854,
              49.24978393666811
            ],
            [
              -123.00166674197362,
              49.249784141068524
            ],
            [
              -123.00166599365826,
              49.249822212041536
            ],
            [
              -123.0017225003498,
              49.24982201099195
            ]
          ]
        ]
      }
    },
    {
      "type": "Feature",
      "properties": {
        "room": null,
        "building": "SE12",
        "floor": "2",
        "type": "hallway",
        "source": "traced",
        "uv": [
          [
            0.641063,
            0.486311
          ],
          [
            0.652477,
            0.4864
          ],
          [
            0.652785,
            0.367795
          ],
          [
            0.698884,
            0.367876
          ],
          [
            0.699128,
            0.412505
          ],
          [
            0.708767,
            0.411902
          ],
          [
            0.708459,
            0.368019
          ],
          [
            0.744937,
            0.36873
          ],
          [
            0.744662,
            0.324334
          ],
          [
            0.766156,
            0.324334
          ],
          [
            0.766381,
            0.392756
          ],
          [
            0.781763,
            0.392907
          ],
          [
            0.781626,
            0.376027
          ],
          [
            0.792305,
            0.375605
          ],
          [
            0.791757,
            0.355772
          ],
          [
            0.7819,
            0.35535
          ],
          [
            0.781215,
            0.324967
          ],
          [
            0.78368,
            0.324967
          ],
          [
            0.783543,
            0.28952
          ],
          [
            0.734163,
            0.288553
          ],
          [
            0.734163,
            0.351177
          ],
          [
            0.715693,
            0.35094
          ],
          [
            0.715693,
            0.323898
          ],
          [
            0.70615,
            0.324372
          ],
          [
            0.705041,
            0.351034
          ],
          [
            0.528298,
            0.35084
          ],
          [
            0.528463,
            0.289342
          ],
          [
            0.518837,
            0.290216
          ],
          [
            0.519087,
            0.30529
          ],
          [
            0.519087,
            0.30529
          ],
          [
            0.518837,
            0.290216
          ],
          [
            0.499372,
            0.290062
          ],
          [
            0.50015,
            0.368192
          ],
          [
            0.640704,
            0.368479
          ]
        ]
      },
      "geometry": {
        "type": "Polygon",
        "coordinates": [
          [
            [
              -123.00166599365826,
              49.249822212041536
            ],
            [
              -123.00166609247142,
              49.249809463263894
            ],
            [
              -123.00153441006356,
              49.24980911924571
            ],
            [
              -123.00153449999463,
              49.249757629329764
            ],
            [
              -123.00158404979591,
              49.24975735679588
            ],
            [
              -123.00158338030903,
              49.24974659059055
            ],
            [
              -123.00153465876183,
              49.24974693460872
            ],
            [
              -123.00153544815682,
              49.249706190793155
            ],
            [
              -123.00148615704616,
              49.249706497952246
            ],
            [
              -123.00148615704616,
              49.24968249039778
            ],
            [
              -123.00156212326775,
              49.2496822390858
            ],
            [
              -123.00156229091704,
              49.24966505828172
            ],
            [
              -123.0015435497253,
              49.2496652113028
            ],
            [
              -123.0015430811955,
              49.24965328347763
            ],
            [
              -123.00152106140548,
              49.24965389556192
            ],
            [
              -123.00152059287569,
              49.249664905260644
            ],
            [
              -123.00148685984085,
              49.249665670366014
            ],
            [
              -123.00148685984085,
              49.24966291710363
            ],
            [
              -123.00144750444848,
              49.249663070124704
            ],
            [
              -123.00144643082689,
              49.24971822472783
            ],
            [
              -123.00151595976,
              49.24971822472783
            ],
            [
              -123.00151569662833,
              49.24973885464925
            ],
            [
              -123.00148567297272,
              49.24973885464925
            ],
            [
              -123.00148619923604,
              49.24974951362814
            ],
            [
              -123.00151580099279,
              49.24975075231698
            ],
            [
              -123.00151558560232,
              49.249948164022534
            ],
            [
              -123.00144730682217,
              49.249947979727075
            ],
            [
              -123.00144827718955,
              49.249958731412164
            ],
            [
              -123.00146501325142,
              49.24995845217663
            ],
            [
              -123.00146501325142,
              49.24995845217663
            ],
            [
              -123.00144827718955,
              49.249958731412164
            ],
            [
              -123.0014481062095,
              49.24998047269102
            ],
            [
              -123.00153485083685,
              49.24997960371003
            ],
            [
              -123.00153516948151,
              49.24982261302377
            ],
            [
              -123.00166599365826,
              49.249822212041536
            ]
          ]
        ]
      }
    },
    {
      "type": "Feature",
      "properties": {
        "room": null,
        "building": "SE12",
        "floor": "2",
        "type": "hallway",
        "source": "traced",
        "uv": [
          [
            0.743794,
            0.49432
          ],
          [
            0.765558,
            0.494253
          ],
          [
            0.764592,
            0.41137
          ],
          [
            0.744783,
            0.411902
          ]
        ]
      },
      "geometry": {
        "type": "Polygon",
        "coordinates": [
          [
            [
              -123.001674885732,
              49.24970746745803
            ],
            [
              -123.00167481134457,
              49.249683158329184
            ],
            [
              -123.00158278965061,
              49.24968423729529
            ],
            [
              -123.00158338030903,
              49.24970636280225
            ],
            [
              -123.001674885732,
              49.24970746745803
            ]
          ]
        ]
      }
    },
    {
      "type": "Feature",
      "properties": {
        "room": "S209",
        "building": "SE12",
        "floor": "2",
        "type": "stairs",
        "source": "traced",
        "uv": [
          [
            0.744783,
            0.411902
          ],
          [
            0.744937,
            0.36873
          ],
          [
            0.765882,
            0.368009
          ],
          [
            0.764592,
            0.41137
          ]
        ],
        "name": "South Stairs"
      },
      "geometry": {
        "type": "Polygon",
        "coordinates": [
          [
            [
              -123.00158338030903,
              49.24970636280225
            ],
            [
              -123.00153544815682,
              49.249706190793155
            ],
            [
              -123.00153464765923,
              49.24968279643993
            ],
            [
              -123.00158278965061,
              49.24968423729529
            ],
            [
              -123.00158338030903,
              49.24970636280225
            ]
          ]
        ]
      }
    }
  ]
}