{
  "type": "FeatureCollection",
  "features": [
    {
      "type": "Feature",
      "properties": {
        "room": "302",
        "building": "SE12",
        "floor": "3",
        "type": "room",
        "source": "traced",
        "uv": [
          [
            0.069675,
            0.511481
          ],
          [
            0.069339,
            0.429426
          ],
          [
            0.132419,
            0.4289
          ],
          [
            0.13309,
            0.512533
          ]
        ],
        "name": "Classroom"
      },
      "geometry": {
        "type": "Polygon",
        "coordinates": [
          [
            [
              -123.00171812224256,
              49.25043803937207
            ],
            [
              -123.00163122163998,
              49.25043840350289
            ],
            [
              -123.00163066457804,
              49.25037004227682
            ],
            [
              -123.00171923636643,
              49.25036931509891
            ],
            [
              -123.00171812224256,
              49.25043803937207
            ]
          ]
        ]
      }
    },
    {
      "type": "Feature",
      "properties": {
        "room": "303",
        "building": "SE12",
        "floor": "3",
        "type": "room",
        "source": "traced",
        "uv": [
          [
            0.069339,
            0.429426
          ],
          [
            0.069004,
            0.341058
          ],
          [
            0.132084,
            0.341584
          ],
          [
            0.132419,
            0.4289
          ]
        ],
        "name": "Computer Lab"
      },
      "geometry": {
        "type": "Polygon",
        "coordinates": [
          [
            [
              -123.00163122163998,
              49.25043840350289
            ],
            [
              -123.00153763523515,
              49.25043876654998
            ],
            [
              -123.00153819229708,
              49.25037040532391
            ],
            [
              -123.00163066457804,
              49.25037004227682
            ],
            [
              -123.00163122163998,
              49.25043840350289
            ]
          ]
        ]
      }
    },
    {
      "type": "Feature",
      "properties": {
        "room": "301",
        "building": "SE12",
        "floor": "3",
        "type": "room",
        "source": "traced",
        "uv": [
          [
            0.069004,
            0.341058
          ],
          [
            0.068668,
            0.257424
          ],
          [
            0.132084,
            0.258476
          ],
          [
            0.132084,
            0.341584
          ]
        ],
        "name": "Classroom"
      },
      "geometry": {
        "type": "Polygon",
        "coordinates": [
          [
            [
              -123.00153763523515,
              49.25043876654998
            ],
            [
              -123.00144906238772,
              49.2504391306808
            ],
            [
              -123.00145017651158,
              49.25037040532391
            ],
            [
              -123.00153819229708,
              49.25037040532391
            ],
            [
              -123.00153763523515,
              49.25043876654998
            ]
          ]
        ]
      }
    },
    {
      "type": "Feature",
      "properties": {
        "room": "306",
        "building": "SE12",
        "floor": "3",
        "type": "room",
        "source": "traced",
        "uv": [
          [
            0.13309,
            0.512533
          ],
          [
            0.132419,
            0.384716
          ],
          [
            0.191809,
            0.384716
          ],
          [
            0.191809,
            0.512007
          ]
        ],
        "name": "Computer Lab"
      },
      "geometry": {
        "type": "Polygon",
        "coordinates": [
          [
            [
              -123.00171923636643,
              49.25036931509891
            ],
            [
              -123.00158387137563,
              49.25037004227682
            ],
            [
              -123.00158387137563,
              49.250305679987406
            ],
            [
              -123.00171867930449,
              49.250305679987406
            ],
            [
              -123.00171923636643,
              49.25036931509891
            ]
          ]
        ]
      }
    },
    {
      "type": "Feature",
      "properties": {
        "room": "307",
        "building": "SE12",
        "floor": "3",
        "type": "room",
        "source": "traced",
        "uv": [
          [
            0.132419,
            0.384716
          ],
          [
            0.13309,
            0.291088
          ],
          [
            0.191809,
            0.290562
          ],
          [
            0.191809,
            0.384716
          ]
        ],
        "name": "Classroom"
      },
      "geometry": {
        "type": "Polygon",
        "coordinates": [
          [
            [
              -123.00158387137563,
              49.25037004227682
            ],
            [
              -123.00148471435146,
              49.25036931509891
            ],
            [
              -123.00148415728953,
              49.250305679987406
            ],
            [
              -123.00158387137563,
              49.250305679987406
            ],
            [
              -123.00158387137563,
              49.25037004227682
            ]
          ]
        ]
      }
    },
    {
      "type": "Feature",
      "properties": {
        "room": "308",
        "building": "SE12",
        "floor": "3",
        "type": "room",
        "source": "traced",
        "uv": [
          [
            0.191809,
            0.512007
          ],
          [
            0.191809,
            0.384716
          ],
          [
            0.251198,
            0.384716
          ],
          [
            0.251198,
            0.512008
          ]
        ],
        "name": "Computer Lab"
      },
      "geometry": {
        "type": "Polygon",
        "coordinates": [
          [
            [
              -123.00171867930449,
              49.250305679987406
            ],
            [
              -123.00158387137563,
              49.250305679987406
            ],
            [
              -123.00158387137563,
              49.25024131878172
            ],
            [
              -123.00171868036355,
              49.25024131878172
            ],
            [
              -123.00171867930449,
              49.250305679987406
            ]
          ]
        ]
      }
    },
    {
      "type": "Feature",
      "properties": {
        "room": "309",
        "building": "SE12",
        "floor": "3",
        "type": "room",
        "source": "traced",
        "uv": [
          [
            0.191809,
            0.384716
          ],
          [
            0.191809,
            0.290562
          ],
          [
            0.250862,
            0.291088
          ],
          [
            0.251198,
            0.384716
          ]
        ],
        "name": "Classroom"
      },
      "geometry": {
        "type": "Polygon",
        "coordinates": [
          [
            [
              -123.00158387137563,
              49.250305679987406
            ],
            [
              -123.00148415728953,
              49.250305679987406
            ],
            [
              -123.00148471435146,
              49.25024168291254
            ],
            [
              -123.00158387137563,
              49.25024131878172
            ],
            [
              -123.00158387137563,
              49.250305679987406
            ]
          ]
        ]
      }
    },
    {
      "type": "Feature",
      "properties": {
        "room": "310",
        "building": "SE12",
        "floor": "3",
        "type": "room",
        "source": "traced",
        "uv": [
          [
            0.251198,
            0.512008
          ],
          [
            0.251198,
            0.384716
          ],
          [
            0.333739,
            0.384716
          ],
          [
            0.333739,
            0.512008
          ]
        ],
        "name": "Computer Lab"
      },
      "geometry": {
        "type": "Polygon",
        "coordinates": [
          [
            [
              -123.00171868036355,
              49.25024131878172
            ],
            [
              -123.00158387137563,
              49.25024131878172
            ],
            [
              -123.00158387137563,
              49.25015186722875
            ],
            [
              -123.00171868036355,
              49.25015186722875
            ],
            [
              -123.00171868036355,
              49.25024131878172
            ]
          ]
        ]
      }
    },
    {
      "type": "Feature",
      "properties": {
        "room": "311",
        "building": "SE12",
        "floor": "3",
        "type": "room",
        "source": "traced",
        "uv": [
          [
            0.251198,
            0.384716
          ],
          [
            0.250862,
            0.258477
          ],
          [
            0.333739,
            0.257425
          ],
          [
            0.333739,
            0.384716
          ]
        ],
        "name": "Computer Lab"
      },
      "geometry": {
        "type": "Polygon",
        "coordinates": [
          [
            [
              -123.00158387137563,
              49.25024131878172
            ],
            [
              -123.00145017757063,
              49.25024168291254
            ],
            [
              -123.00144906344677,
              49.25015186722875
            ],
            [
              -123.00158387137563,
              49.25015186722875
            ],
            [
              -123.00158387137563,
              49.25024131878172
            ]
          ]
        ]
      }
    },
    {
      "type": "Feature",
      "properties": {
        "room": "312",
        "building": "SE12",
        "floor": "3",
        "type": "room",
        "source": "traced",
        "uv": [
          [
            0.333739,
            0.512008
          ],
          [
            0.333739,
            0.384716
          ],
          [
            0.391451,
            0.384716
          ],
          [
            0.391115,
            0.512008
          ]
        ],
        "name": "Classroom"
      },
      "geometry": {
        "type": "Polygon",
        "coordinates": [
          [
            [
              -123.00171868036355,
              49.25015186722875
            ],
            [
              -123.00158387137563,
              49.25015186722875
            ],
            [
              -123.00158387137563,
              49.25008932342598
            ],
            [
              -123.00171868036355,
              49.2500896875568
            ],
            [
              -123.00171868036355,
              49.25015186722875
            ]
          ]
        ]
      }
    },
    {
      "type": "Feature",
      "properties": {
        "room": "313",
        "building": "SE12",
        "floor": "3",
        "type": "room",
        "source": "traced",
        "uv": [
          [
            0.333739,
            0.384716
          ],
          [
            0.333739,
            0.257425
          ],
          [
            0.391115,
            0.258477
          ],
          [
            0.391451,
            0.384716
          ]
        ],
        "name": "Classroom"
      },
      "geometry": {
        "type": "Polygon",
        "coordinates": [
          [
            [
              -123.00158387137563,
              49.25015186722875
            ],
            [
              -123.00144906344677,
              49.25015186722875
            ],
            [
              -123.00145017757063,
              49.2500896875568
            ],
            [
              -123.00158387137563,
              49.25008932342598
            ],
            [
              -123.00158387137563,
              49.25015186722875
            ]
          ]
        ]
      }
    },
    {
      "type": "Feature",
      "properties": {
        "room": "315",
        "building": "SE12",
        "floor": "3",
        "type": "room",
        "source": "traced",
        "uv": [
          [
            0.391288,
            0.362684
          ],
          [
            0.391115,
            0.258477
          ],
          [
            0.425177,
            0.258536
          ],
          [
            0.425177,
            0.362158
          ]
        ],
        "name": "Men's Washroom",
        "amenity": "washroom"
      },
      "geometry": {
        "type": "Polygon",
        "coordinates": [
          [
            [
              -123.0015605383176,
              49.250089500072775
            ],
            [
              -123.00145017757063,
              49.2500896875568
            ],
            [
              -123.00145024005477,
              49.25005277379519
            ],
            [
              -123.00155998125568,
              49.25005277379519
            ],
            [
              -123.0015605383176,
              49.250089500072775
            ]
          ]
        ]
      }
    },
    {
      "type": "Feature",
      "properties": {
        "room": "314",
        "building": "SE12",
        "floor": "3",
        "type": "room",
        "source": "traced",
        "uv": [
          [
            0.391115,
            0.512008
          ],
          [
            0.391624,
            0.398978
          ],
          [
            0.425177,
            0.398452
          ],
          [
            0.425177,
            0.511542
          ]
        ],
        "name": "Women's Washroom",
        "amenity": "washroom"
      },
      "geometry": {
        "type": "Polygon",
        "coordinates": [
          [
            [
              -123.00171868036355,
              49.2500896875568
            ],
            [
              -123.00159897559102,
              49.25008913594196
            ],
            [
              -123.00159841852908,
              49.25005277379519
            ],
            [
              -123.0017181868448,
              49.25005277379519
            ],
            [
              -123.00171868036355,
              49.2500896875568
            ]
          ]
        ]
      }
    },
    {
      "type": "Feature",
      "properties": {
        "room": "317",
        "building": "SE12",
        "floor": "3",
        "type": "service",
        "source": "traced",
        "uv": [
          [
            0.391624,
            0.398978
          ],
          [
            0.391288,
            0.362684
          ],
          [
            0.425177,
            0.362158
          ],
          [
            0.425177,
            0.398452
          ]
        ],
        "name": "Janitor"
      },
      "geometry": {
        "type": "Polygon",
        "coordinates": [
          [
            [
              -123.00159897559102,
              49.25008913594196
            ],
            [
              -123.0015605383176,
              49.250089500072775
            ],
            [
              -123.00155998125568,
              49.25005277379519
            ],
            [
              -123.00159841852908,
              49.25005277379519
            ],
            [
              -123.00159897559102,
              49.25008913594196
            ]
          ]
        ]
      }
    },
    {
      "type": "Feature",
      "properties": {
        "room": "305",
        "building": "SE12",
        "floor": "3",
        "type": "service",
        "source": "traced",
        "uv": [
          [
            0.13309,
            0.291088
          ],
          [
            0.132084,
            0.258476
          ],
          [
            0.181545,
            0.258876
          ],
          [
            0.182216,
            0.291488
          ]
        ],
        "name": "Communications"
      },
      "geometry": {
        "type": "Polygon",
        "coordinates": [
          [
            [
              -123.00148471435146,
              49.25036931509891
            ],
            [
              -123.00145017651158,
              49.25037040532391
            ],
            [
              -123.00145060013283,
              49.2503168033169
            ],
            [
              -123.00148513797271,
              49.250316076138986
            ],
            [
              -123.00148471435146,
              49.25036931509891
            ]
          ]
        ]
      }
    },
    {
      "type": "Feature",
      "properties": {
        "room": "309A",
        "building": "SE12",
        "floor": "3",
        "type": "room",
        "source": "traced",
        "uv": [
          [
            0.203355,
            0.291488
          ],
          [
            0.203019,
            0.258876
          ],
          [
            0.250862,
            0.258477
          ],
          [
            0.250862,
            0.291088
          ]
        ],
        "name": "Office"
      },
      "geometry": {
        "type": "Polygon",
        "coordinates": [
          [
            [
              -123.00148513797271,
              49.25029316732545
            ],
            [
              -123.00145060013283,
              49.25029353145627
            ],
            [
              -123.00145017757063,
              49.25024168291254
            ],
            [
              -123.00148471435146,
              49.25024168291254
            ],
            [
              -123.00148513797271,
              49.25029316732545
            ]
          ]
        ]
      }
    },
    {
      "type": "Feature",
      "properties": {
        "room": "318",
        "building": "SE12",
        "floor": "3",
        "type": "room",
        "source": "traced",
        "uv": [
          [
            0.457725,
            0.512389
          ],
          [
            0.457725,
            0.426302
          ],
          [
            0.548155,
            0.42677
          ],
          [
            0.547857,
            0.511922
          ]
        ],
        "name": "Computer Lab"
      },
      "geometry": {
        "type": "Polygon",
        "coordinates": [
          [
            [
              -123.00171908386278,
              49.2500175007897
            ],
            [
              -123.00162791315807,
              49.2500175007897
            ],
            [
              -123.00162840879493,
              49.24991949974859
            ],
            [
              -123.00171858928498,
              49.24991982269795
            ],
            [
              -123.00171908386278,
              49.2500175007897
            ]
          ]
        ]
      }
    },
    {
      "type": "Feature",
      "properties": {
        "room": "319",
        "building": "SE12",
        "floor": "3",
        "type": "room",
        "source": "traced",
        "uv": [
          [
            0.457725,
            0.426302
          ],
          [
            0.457725,
            0.343958
          ],
          [
            0.547857,
            0.343491
          ],
          [
            0.548155,
            0.42677
          ]
        ],
        "name": "Computer Lab"
      },
      "geometry": {
        "type": "Polygon",
        "coordinates": [
          [
            [
              -123.00162791315807,
              49.2500175007897
            ],
            [
              -123.00154070648915,
              49.2500175007897
            ],
            [
              -123.00154021191136,
              49.24991982269795
            ],
            [
              -123.00162840879493,
              49.24991949974859
            ],
            [
              -123.00162791315807,
              49.2500175007897
            ]
          ]
        ]
      }
    },
    {
      "type": "Feature",
      "properties": {
        "room": "321",
        "building": "SE12",
        "floor": "3",
        "type": "room",
        "source": "traced",
        "uv": [
          [
            0.457725,
            0.343958
          ],
          [
            0.457725,
            0.258807
          ],
          [
            0.547857,
            0.258339
          ],
          [
            0.547857,
            0.343491
          ]
        ],
        "name": "Computer Lab"
      },
      "geometry": {
        "type": "Polygon",
        "coordinates": [
          [
            [
              -123.00154070648915,
              49.2500175007897
            ],
            [
              -123.00145052705817,
              49.2500175007897
            ],
            [
              -123.00145003142131,
              49.24991982269795
            ],
            [
              -123.00154021191136,
              49.24991982269795
            ],
            [
              -123.00154070648915,
              49.2500175007897
            ]
          ]
        ]
      }
    },
    {
      "type": "Feature",
      "properties": {
        "room": "320",
        "building": "SE12",
        "floor": "3",
        "type": "room",
        "source": "traced",
        "uv": [
          [
            0.547857,
            0.511922
          ],
          [
            0.548454,
            0.38513
          ],
          [
            0.60307,
            0.384663
          ],
          [
            0.60307,
            0.511922
          ]
        ],
        "name": "Computer Lab"
      },
      "geometry": {
        "type": "Polygon",
        "coordinates": [
          [
            [
              -123.00171858928498,
              49.24991982269795
            ],
            [
              -123.00158430982361,
              49.24991917571551
            ],
            [
              -123.00158381524582,
              49.24985998711813
            ],
            [
              -123.00171858928498,
              49.24985998711813
            ],
            [
              -123.00171858928498,
              49.24991982269795
            ]
          ]
        ]
      }
    },
    {
      "type": "Feature",
      "properties": {
        "room": "323",
        "building": "SE12",
        "floor": "3",
        "type": "room",
        "source": "traced",
        "uv": [
          [
            0.548454,
            0.38513
          ],
          [
            0.547857,
            0.258339
          ],
          [
            0.60307,
            0.257871
          ],
          [
            0.60307,
            0.384663
          ]
        ],
        "name": "Computer Lab"
      },
      "geometry": {
        "type": "Polygon",
        "coordinates": [
          [
            [
              -123.00158430982361,
              49.24991917571551
            ],
            [
              -123.00145003142131,
              49.24991982269795
            ],
            [
              -123.00144953578446,
              49.24985998711813
            ],
            [
              -123.00158381524582,
              49.24985998711813
            ],
            [
              -123.00158430982361,
              49.24991917571551
            ]
          ]
        ]
      }
    },
    {
      "type": "Feature",
      "properties": {
        "room": "322",
        "building": "SE12",
        "floor": "3",
        "type": "room",
        "source": "traced",
        "uv": [
          [
            0.60307,
            0.511922
          ],
          [
            0.60307,
            0.384663
          ],
          [
            0.666766,
            0.38521
          ],
          [
            0.666398,
            0.512181
          ]
        ],
        "name": "Computer Lab"
      },
      "geometry": {
        "type": "Polygon",
        "coordinates": [
          [
            [
              -123.00171858928498,
              49.24985998711813
            ],
            [
              -123.00158381524582,
              49.24985998711813
            ],
            [
              -123.00158439454786,
              49.2497909583189
            ],
            [
              -123.00171886357974,
              49.24979135712884
            ],
            [
              -123.00171858928498,
              49.24985998711813
            ]
          ]
        ]
      }
    },
    {
      "type": "Feature",
      "properties": {
        "room": "325",
        "building": "SE12",
        "floor": "3",
        "type": "room",
        "source": "traced",
        "uv": [
          [
            0.60307,
            0.384663
          ],
          [
            0.60307,
            0.257871
          ],
          [
            0.666398,
            0.25824
          ],
          [
            0.666766,
            0.38521
          ]
        ],
        "name": "Computer Lab"
      },
      "geometry": {
        "type": "Polygon",
        "coordinates": [
          [
            [
              -123.00158381524582,
              49.24985998711813
            ],
            [
              -123.00144953578446,
              49.24985998711813
            ],
            [
              -123.00144992657505,
              49.24979135712884
            ],
            [
              -123.00158439454786,
              49.2497909583189
            ],
            [
              -123.00158381524582,
              49.24985998711813
            ]
          ]
        ]
      }
    },
    {
      "type": "Feature",
      "properties": {
        "room": "324",
        "building": "SE12",
        "floor": "3",
        "type": "room",
        "source": "traced",
        "uv": [
          [
            0.666398,
            0.512181
          ],
          [
            0.666766,
            0.38521
          ],
          [
            0.725671,
            0.38521
          ],
          [
            0.725671,
            0.511603
          ]
        ],
        "name": "Computer Lab"
      },
      "geometry": {
        "type": "Polygon",
        "coordinates": [
          [
            [
              -123.00171886357974,
              49.24979135712884
            ],
            [
              -123.00158439454786,
              49.2497909583189
            ],
            [
              -123.00158439454786,
              49.24972712163498
            ],
            [
              -123.00171825144704,
              49.24972712163498
            ],
            [
              -123.00171886357974,
              49.24979135712884
            ]
          ]
        ]
      }
    },
    {
      "type": "Feature",
      "properties": {
        "room": "327",
        "building": "SE12",
        "floor": "3",
        "type": "room",
        "source": "traced",
        "uv": [
          [
            0.666766,
            0.38521
          ],
          [
            0.666398,
            0.25824
          ],
          [
            0.72604,
            0.259395
          ],
          [
            0.725671,
            0.38521
          ]
        ],
        "name": "Computer Lab"
      },
      "geometry": {
        "type": "Polygon",
        "coordinates": [
          [
            [
              -123.00158439454786,
              49.2497909583189
            ],
            [
              -123.00144992657505,
              49.24979135712884
            ],
            [
              -123.00145114978139,
              49.24972672174132
            ],
            [
              -123.00158439454786,
              49.24972712163498
            ],
            [
              -123.00158439454786,
              49.2497909583189
            ]
          ]
        ]
      }
    },
    {
      "type": "Feature",
      "properties": {
        "room": "340",
        "building": "SE12",
        "floor": "3",
        "type": "room",
        "source": "traced",
        "uv": [
          [
            0.777133,
            0.514976
          ],
          [
            0.776864,
            0.455158
          ],
          [
            0.801855,
            0.454737
          ],
          [
            0.801586,
            0.514555
          ]
        ],
        "name": "Office"
      },
      "geometry": {
        "type": "Polygon",
        "coordinates": [
          [
            [
              -123.00172182363316,
              49.249671351098904
            ],
            [
              -123.0016584731945,
              49.2496716426203
            ],
            [
              -123.00165802733314,
              49.249644559307036
            ],
            [
              -123.0017213777718,
              49.24964485082843
            ],
            [
              -123.00172182363316,
              49.249671351098904
            ]
          ]
        ]
      }
    },
    {
      "type": "Feature",
      "properties": {
        "room": "338",
        "building": "SE12",
        "floor": "3",
        "type": "room",
        "source": "traced",
        "uv": [
          [
            0.776864,
            0.455158
          ],
          [
            0.776864,
            0.415982
          ],
          [
            0.795137,
            0.416403
          ],
          [
            0.795137,
            0.454737
          ]
        ],
        "name": "Office"
      },
      "geometry": {
        "type": "Polygon",
        "coordinates": [
          [
            [
              -123.0016584731945,
              49.2496716426203
            ],
            [
              -123.00161698373003,
              49.2496716426203
            ],
            [
              -123.00161742959139,
              49.249651839755934
            ],
            [
              -123.00165802733314,
              49.249651839755934
            ],
            [
              -123.0016584731945,
              49.2496716426203
            ]
          ]
        ]
      }
    },
    {
      "type": "Feature",
      "properties": {
        "room": "339",
        "building": "SE12",
        "floor": "3",
        "type": "room",
        "source": "traced",
        "uv": [
          [
            0.795137,
            0.454737
          ],
          [
            0.795137,
            0.416403
          ],
          [
            0.82174,
            0.416825
          ],
          [
            0.821202,
            0.45558
          ]
        ],
        "name": "Office"
      },
      "geometry": {
        "type": "Polygon",
        "coordinates": [
          [
            [
              -123.00165802733314,
              49.249651839755934
            ],
            [
              -123.00161742959139,
              49.249651839755934
            ],
            [
              -123.0016178765118,
              49.24962300948173
            ],
            [
              -123.0016589201149,
              49.24962359252452
            ],
            [
              -123.00165802733314,
              49.249651839755934
            ]
          ]
        ]
      }
    },
    {
      "type": "Feature",
      "properties": {
        "room": "335",
        "building": "SE12",
        "floor": "3",
        "type": "room",
        "source": "traced",
        "uv": [
          [
            0.777133,
            0.402081
          ],
          [
            0.776864,
            0.372593
          ],
          [
            0.797018,
            0.372172
          ],
          [
            0.797555,
            0.400817
          ]
        ],
        "name": "Office"
      },
      "geometry": {
        "type": "Polygon",
        "coordinates": [
          [
            [
              -123.00160226183282,
              49.249671351098904
            ],
            [
              -123.00157103247483,
              49.2496716426203
            ],
            [
              -123.00157058661348,
              49.24964980127359
            ],
            [
              -123.00160092318968,
              49.24964921931452
            ],
            [
              -123.00160226183282,
              49.249671351098904
            ]
          ]
        ]
      }
    },
    {
      "type": "Feature",
      "properties": {
        "room": "336",
        "building": "SE12",
        "floor": "3",
        "type": "room",
        "source": "traced",
        "uv": [
          [
            0.797555,
            0.400817
          ],
          [
            0.797018,
            0.372172
          ],
          [
            0.817172,
            0.373015
          ],
          [
            0.816903,
            0.400817
          ]
        ],
        "name": "Office"
      },
      "geometry": {
        "type": "Polygon",
        "coordinates": [
          [
            [
              -123.00160092318968,
              49.24964921931452
            ],
            [
              -123.00157058661348,
              49.24964980127359
            ],
            [
              -123.00157147939524,
              49.24962795992689
            ],
            [
              -123.00160092318968,
              49.249628251448286
            ],
            [
              -123.00160092318968,
              49.24964921931452
            ]
          ]
        ]
      }
    },
    {
      "type": "Feature",
      "properties": {
        "room": "334",
        "building": "SE12",
        "floor": "3",
        "type": "room",
        "source": "traced",
        "uv": [
          [
            0.776864,
            0.372593
          ],
          [
            0.777133,
            0.339736
          ],
          [
            0.821202,
            0.339736
          ],
          [
            0.821202,
            0.372593
          ]
        ],
        "name": "Meeting Room"
      },
      "geometry": {
        "type": "Polygon",
        "coordinates": [
          [
            [
              -123.00157103247483,
              49.2496716426203
            ],
            [
              -123.00153623516694,
              49.249671351098904
            ],
            [
              -123.00153623516694,
              49.24962359252452
            ],
            [
              -123.00157103247483,
              49.24962359252452
            ],
            [
              -123.00157103247483,
              49.2496716426203
            ]
          ]
        ]
      }
    },
    {
      "type": "Feature",
      "properties": {
        "room": "332",
        "building": "SE12",
        "floor": "3",
        "type": "room",
        "source": "traced",
        "uv": [
          [
            0.777133,
            0.339736
          ],
          [
            0.776595,
            0.312355
          ],
          [
            0.79648,
            0.312776
          ],
          [
            0.797018,
            0.339736
          ]
        ],
        "name": "Office"
      },
      "geometry": {
        "type": "Polygon",
        "coordinates": [
          [
            [
              -123.00153623516694,
              49.249671351098904
            ],
            [
              -123.00150723723387,
              49.249671934141695
            ],
            [
              -123.00150768309521,
              49.24965038431639
            ],
            [
              -123.00153623516694,
              49.24964980127359
            ],
            [
              -123.00153623516694,
              49.249671351098904
            ]
          ]
        ]
      }
    },
    {
      "type": "Feature",
      "properties": {
        "room": "333",
        "building": "SE12",
        "floor": "3",
        "type": "room",
        "source": "traced",
        "uv": [
          [
            0.797018,
            0.339736
          ],
          [
            0.79648,
            0.312776
          ],
          [
            0.817172,
            0.312355
          ],
          [
            0.81744,
            0.339315
          ]
        ],
        "name": "Office"
      },
      "geometry": {
        "type": "Polygon",
        "coordinates": [
          [
            [
              -123.00153623516694,
              49.24964980127359
            ],
            [
              -123.00150768309521,
              49.24965038431639
            ],
            [
              -123.00150723723387,
              49.24962795992689
            ],
            [
              -123.00153578930559,
              49.249627669489215
            ],
            [
              -123.00153623516694,
              49.24964980127359
            ]
          ]
        ]
      }
    },
    {
      "type": "Feature",
      "properties": {
        "room": "329",
        "building": "SE12",
        "floor": "3",
        "type": "room",
        "source": "traced",
        "uv": [
          [
            0.776864,
            0.298453
          ],
          [
            0.776864,
            0.258435
          ],
          [
            0.794868,
            0.258435
          ],
          [
            0.795674,
            0.298032
          ]
        ],
        "name": "Office"
      },
      "geometry": {
        "type": "Polygon",
        "coordinates": [
          [
            [
              -123.00149251427759,
              49.2496716426203
            ],
            [
              -123.0014501330904,
              49.2496716426203
            ],
            [
              -123.0014501330904,
              49.24965213127734
            ],
            [
              -123.00149206841623,
              49.24965125779686
            ],
            [
              -123.00149251427759,
              49.2496716426203
            ]
          ]
        ]
      }
    },
    {
      "type": "Feature",
      "properties": {
        "room": "330",
        "building": "SE12",
        "floor": "3",
        "type": "room",
        "source": "traced",
        "uv": [
          [
            0.795674,
            0.298032
          ],
          [
            0.794868,
            0.258435
          ],
          [
            0.820934,
            0.25675
          ],
          [
            0.821471,
            0.296768
          ]
        ],
        "name": "Office"
      },
      "geometry": {
        "type": "Polygon",
        "coordinates": [
          [
            [
              -123.00149206841623,
              49.24965125779686
            ],
            [
              -123.0014501330904,
              49.24965213127734
            ],
            [
              -123.00144834858592,
              49.249623882962204
            ],
            [
              -123.00149072977311,
              49.249623301003126
            ],
            [
              -123.00149206841623,
              49.24965125779686
            ]
          ]
        ]
      }
    },
    {
      "type": "Feature",
      "properties": {
        "room": "341",
        "building": "SE12",
        "floor": "3",
        "type": "room",
        "source": "traced",
        "uv": [
          [
            0.808573,
            0.516661
          ],
          [
            0.808573,
            0.470323
          ],
          [
            0.85318,
            0.470745
          ],
          [
            0.852642,
            0.518346
          ]
        ],
        "name": "Office"
      },
      "geometry": {
        "type": "Polygon",
        "coordinates": [
          [
            [
              -123.00172360813765,
              49.24963727885813
            ],
            [
              -123.00167453373484,
              49.24963727885813
            ],
            [
              -123.00167498065525,
              49.24958893724096
            ],
            [
              -123.00172539264213,
              49.249589520283756
            ],
            [
              -123.00172360813765,
              49.24963727885813
            ]
          ]
        ]
      }
    },
    {
      "type": "Feature",
      "properties": {
        "room": "328A",
        "building": "SE12",
        "floor": "3",
        "type": "room",
        "source": "traced",
        "uv": [
          [
            0.835713,
            0.456422
          ],
          [
            0.835982,
            0.417667
          ],
          [
            0.921166,
            0.41851
          ],
          [
            0.919553,
            0.515818
          ],
          [
            0.860704,
            0.517503
          ],
          [
            0.86151,
            0.456422
          ]
        ],
        "name": "Office"
      },
      "geometry": {
        "type": "Polygon",
        "coordinates": [
          [
            [
              -123.00165981183763,
              49.24960786662485
            ],
            [
              -123.00161876823451,
              49.249607575103454
            ],
            [
              -123.00161966101628,
              49.24951525927147
            ],
            [
              -123.00172271535588,
              49.249517007316136
            ],
            [
              -123.00172449986036,
              49.249580783311586
            ],
            [
              -123.00165981183763,
              49.24957990983111
            ],
            [
              -123.00165981183763,
              49.24960786662485
            ]
          ]
        ]
      }
    },
    {
      "type": "Feature",
      "properties": {
        "room": "328B",
        "building": "SE12",
        "floor": "3",
        "type": "room",
        "source": "traced",
        "uv": [
          [
            0.835713,
            0.349846
          ],
          [
            0.834907,
            0.255907
          ],
          [
            0.92224,
            0.25675
          ],
          [
            0.921434,
            0.350267
          ]
        ],
        "name": "Office"
      },
      "geometry": {
        "type": "Polygon",
        "coordinates": [
          [
            [
              -123.00154694219384,
              49.24960786662485
            ],
            [
              -123.00144745580415,
              49.24960874010532
            ],
            [
              -123.00144834858592,
              49.24951409535332
            ],
            [
              -123.0015473880552,
              49.24951496883379
            ],
            [
              -123.00154694219384,
              49.24960786662485
            ]
          ]
        ]
      }
    },
    {
      "type": "Feature",
      "properties": {
        "room": "342",
        "building": "SE12",
        "floor": "3",
        "type": "service",
        "source": "traced",
        "uv": [
          [
            0.836358,
            0.407561
          ],
          [
            0.836143,
            0.363367
          ],
          [
            0.921579,
            0.36303
          ],
          [
            0.921579,
            0.407899
          ]
        ],
        "name": "Resources"
      },
      "geometry": {
        "type": "Polygon",
        "coordinates": [
          [
            [
              -123.00160806544383,
              49.24960716762373
            ],
            [
              -123.00156126165088,
              49.2496074006241
            ],
            [
              -123.00156090474998,
              49.249514811694006
            ],
            [
              -123.00160842340378,
              49.249514811694006
            ],
            [
              -123.00160806544383,
              49.24960716762373
            ]
          ]
        ]
      }
    },
    {
      "type": "Feature",
      "properties": {
        "room": "350",
        "building": "SE12",
        "floor": "3",
        "type": "room",
        "source": "traced",
        "uv": [
          [
            0.933895,
            0.515383
          ],
          [
            0.93411,
            0.470851
          ],
          [
            0.959289,
            0.471188
          ],
          [
            0.959719,
            0.515383
          ]
        ],
        "name": "Office"
      },
      "geometry": {
        "type": "Polygon",
        "coordinates": [
          [
            [
              -123.00172225466778,
              49.2495014645656
            ],
            [
              -123.00167509291488,
              49.24950123156522
            ],
            [
              -123.00167544981578,
              49.2494739445121
            ],
            [
              -123.00172225466778,
              49.24947347851135
            ],
            [
              -123.00172225466778,
              49.2495014645656
            ]
          ]
        ]
      }
    },
    {
      "type": "Feature",
      "properties": {
        "room": "349",
        "building": "SE12",
        "floor": "3",
        "type": "room",
        "source": "traced",
        "uv": [
          [
            0.93411,
            0.470851
          ],
          [
            0.93411,
            0.423958
          ],
          [
            0.959719,
            0.423958
          ],
          [
            0.959289,
            0.471188
          ]
        ],
        "name": "Office"
      },
      "geometry": {
        "type": "Polygon",
        "coordinates": [
          [
            [
              -123.00167509291488,
              49.24950123156522
            ],
            [
              -123.0016254307376,
              49.24950123156522
            ],
            [
              -123.0016254307376,
              49.24947347851135
            ],
            [
              -123.00167544981578,
              49.2494739445121
            ],
            [
              -123.00167509291488,
              49.24950123156522
            ]
          ]
        ]
      }
    },
    {
      "type": "Feature",
      "properties": {
        "room": "348",
        "building": "SE12",
        "floor": "3",
        "type": "room",
        "source": "traced",
        "uv": [
          [
            0.93411,
            0.423958
          ],
          [
            0.934325,
            0.385161
          ],
          [
            0.959074,
            0.385161
          ],
          [
            0.959719,
            0.423958
          ]
        ],
        "name": "Office"
      },
      "geometry": {
        "type": "Polygon",
        "coordinates": [
          [
            [
              -123.0016254307376,
              49.24950123156522
            ],
            [
              -123.00158434265427,
              49.24950099856485
            ],
            [
              -123.00158434265427,
              49.24947417751247
            ],
            [
              -123.0016254307376,
              49.24947347851135
            ],
            [
              -123.0016254307376,
              49.24950123156522
            ]
          ]
        ]
      }
    },
    {
      "type": "Feature",
      "properties": {
        "room": "347",
        "building": "SE12",
        "floor": "3",
        "type": "room",
        "source": "traced",
        "uv": [
          [
            0.934325,
            0.385161
          ],
          [
            0.934325,
            0.338268
          ],
          [
            0.959289,
            0.338605
          ],
          [
            0.959074,
            0.385161
          ]
        ],
        "name": "Office"
      },
      "geometry": {
        "type": "Polygon",
        "coordinates": [
          [
            [
              -123.00158434265427,
              49.24950099856485
            ],
            [
              -123.00153468047698,
              49.24950099856485
            ],
            [
              -123.00153503737788,
              49.2494739445121
            ],
            [
              -123.00158434265427,
              49.24947417751247
            ],
            [
              -123.00158434265427,
              49.24950099856485
            ]
          ]
        ]
      }
    },
    {
      "type": "Feature",
      "properties": {
        "room": "345",
        "building": "SE12",
        "floor": "3",
        "type": "room",
        "source": "traced",
        "uv": [
          [
            0.934325,
            0.338268
          ],
          [
            0.93411,
            0.297447
          ],
          [
            0.959719,
            0.297447
          ],
          [
            0.959289,
            0.338605
          ]
        ],
        "name": "Office"
      },
      "geometry": {
        "type": "Polygon",
        "coordinates": [
          [
            [
              -123.00153468047698,
              49.24950099856485
            ],
            [
              -123.00149144887017,
              49.24950123156522
            ],
            [
              -123.00149144887017,
              49.24947347851135
            ],
            [
              -123.00153503737788,
              49.2494739445121
            ],
            [
              -123.00153468047698,
              49.24950099856485
            ]
          ]
        ]
      }
    },
    {
      "type": "Feature",
      "properties": {
        "room": "344",
        "building": "SE12",
        "floor": "3",
        "type": "room",
        "source": "traced",
        "uv": [
          [
            0.93411,
            0.297447
          ],
          [
            0.93411,
            0.255277
          ],
          [
            0.959289,
            0.254602
          ],
          [
            0.959719,
            0.297447
          ]
        ],
        "name": "Office"
      },
      "geometry": {
        "type": "Polygon",
        "coordinates": [
          [
            [
              -123.00149144887017,
              49.24950123156522
            ],
            [
              -123.0014467886007,
              49.24950123156522
            ],
            [
              -123.00144607373986,
              49.2494739445121
            ],
            [
              -123.00149144887017,
              49.24947347851135
            ],
            [
              -123.00149144887017,
              49.24950123156522
            ]
          ]
        ]
      }
    },
    {
      "type": "Feature",
      "properties": {
        "room": "343",
        "building": "SE12",
        "floor": "3",
        "type": "room",
        "source": "traced",
        "uv": [
          [
            0.959935,
            0.311616
          ],
          [
            0.959289,
            0.254602
          ],
          [
            0.979088,
            0.25494
          ],
          [
            0.979733,
            0.311279
          ]
        ],
        "name": "Staff Room"
      },
      "geometry": {
        "type": "Polygon",
        "coordinates": [
          [
            [
              -123.00150645459361,
              49.24947324442725
            ],
            [
              -123.00144607373986,
              49.2494739445121
            ],
            [
              -123.0014464316998,
              49.24945248788694
            ],
            [
              -123.00150609769273,
              49.249451788885814
            ],
            [
              -123.00150645459361,
              49.24947324442725
            ]
          ]
        ]
      }
    },
    {
      "type": "Feature",
      "properties": {
        "room": "346",
        "building": "SE12",
        "floor": "3",
        "type": "room",
        "source": "traced",
        "uv": [
          [
            0.959935,
            0.311616
          ],
          [
            0.979733,
            0.311279
          ],
          [
            0.979733,
            0.348726
          ],
          [
            0.960795,
            0.348726
          ]
        ],
        "name": "Kitchen"
      },
      "geometry": {
        "type": "Polygon",
        "coordinates": [
          [
            [
              -123.00150645459361,
              49.24947324442725
            ],
            [
              -123.00150609769273,
              49.249451788885814
            ],
            [
              -123.00154575605437,
              49.249451788885814
            ],
            [
              -123.00154575605437,
              49.24947231242575
            ],
            [
              -123.00150645459361,
              49.24947324442725
            ]
          ]
        ]
      }
    },
    {
      "type": "Feature",
      "properties": {
        "room": "351",
        "building": "SE12",
        "floor": "3",
        "type": "room",
        "source": "traced",
        "uv": [
          [
            0.959238,
            0.356417
          ],
          [
            0.981219,
            0.35587
          ],
          [
            0.981394,
            0.429985
          ],
          [
            0.959412,
            0.429438
          ]
        ],
        "name": "Women's Washroom",
        "amenity": "washroom"
      },
      "geometry": {
        "type": "Polygon",
        "coordinates": [
          [
            [
              -123.0015539012318,
              49.249473999781955
            ],
            [
              -123.00155332192975,
              49.24945017847393
            ],
            [
              -123.00163181365068,
              49.24944998882246
            ],
            [
              -123.00163123434862,
              49.24947381121421
            ],
            [
              -123.0015539012318,
              49.249473999781955
            ]
          ]
        ]
      }
    },
    {
      "type": "Feature",
      "properties": {
        "room": null,
        "building": "SE12",
        "floor": "3",
        "type": "hallway",
        "source": "traced",
        "uv": [
          [
            0.443374,
            0.565852
          ],
          [
            0.443374,
            0.534477
          ],
          [
            0.980551,
            0.535317
          ],
          [
            0.981394,
            0.429985
          ],
          [
            0.966589,
            0.429795
          ],
          [
            0.965813,
            0.473231
          ],
          [
            0.959289,
            0.471188
          ],
          [
            0.959719,
            0.515383
          ],
          [
            0.852642,
            0.518346
          ],
          [
            0.808573,
            0.516661
          ],
          [
            0.801586,
            0.514555
          ],
          [
            0.777133,
            0.514976
          ],
          [
            0.725671,
            0.511603
          ],
          [
            0.457725,
            0.512389
          ],
          [
            0.425177,
            0.511542
          ],
          [
            0.04898,
            0.514797
          ],
          [
            0.049174,
            0.536059
          ],
          [
            0.424867,
            0.534929
          ],
          [
            0.424479,
            0.565912
          ]
        ]
      },
      "geometry": {
        "type": "Polygon",
        "coordinates": [
          [
            [
              -123.00177570401897,
              49.250033053293755
            ],
            [
              -123.00174247622778,
              49.250033053293755
            ],
            [
              -123.00174336583238,
              49.24945090240067
            ],
            [
              -123.00163181365068,
              49.24944998882246
            ],
            [
              -123.00163161243057,
              49.2494660333366
            ],
            [
              -123.00167761346127,
              49.24946687430539
            ],
            [
              -123.00167544981578,
              49.2494739445121
            ],
            [
              -123.00172225466778,
              49.24947347851135
            ],
            [
              -123.00172539264213,
              49.249589520283756
            ],
            [
              -123.00172360813765,
              49.24963727885813
            ],
            [
              -123.0017213777718,
              49.24964485082843
            ],
            [
              -123.00172182363316,
              49.249671351098904
            ],
            [
              -123.00171825144704,
              49.24972712163498
            ],
            [
              -123.00171908386278,
              49.2500175007897
            ],
            [
              -123.0017181868448,
              49.25005277379519
            ],
            [
              -123.00172163406266,
              49.25046046701274
            ],
            [
              -123.00174415164979,
              49.250460256770545
            ],
            [
              -123.00174295491978,
              49.25005310974922
            ],
            [
              -123.00177576756215,
              49.250053530233615
            ],
            [
              -123.00177570401897,
              49.250033053293755
            ]
          ]
        ]
      }
    },
    {
      "type": "Feature",
      "properties": {
        "room": null,
        "building": "SE12",
        "floor": "3",
        "type": "hallway",
        "source": "traced",
        "uv": [
          [
            0.457725,
            0.512389
          ],
          [
            0.457725,
            0.258807
          ],
          [
            0.425177,
            0.258536
          ],
          [
            0.425177,
            0.511542
          ]
        ]
      },
      "geometry": {
        "type": "Polygon",
        "coordinates": [
          [
            [
              -123.00171908386278,
              49.2500175007897
            ],
            [
              -123.00145052705817,
              49.2500175007897
            ],
            [
              -123.00145024005477,
              49.25005277379519
            ],
            [
              -123.0017181868448,
              49.25005277379519
            ],
            [
              -123.00171908386278,
              49.2500175007897
            ]
          ]
        ]
      }
    },
    {
      "type": "Feature",
      "properties": {
        "room": null,
        "building": "SE12",
        "floor": "3",
        "type": "hallway",
        "source": "traced",
        "uv": [
          [
            0.049113,
            0.256343
          ],
          [
            0.048848,
            0.234287
          ],
          [
            0.978728,
            0.234784
          ],
          [
            0.979088,
            0.25494
          ],
          [
            0.93411,
            0.255277
          ],
          [
            0.92224,
            0.25675
          ],
          [
            0.834907,
            0.255907
          ],
          [
            0.820934,
            0.25675
          ],
          [
            0.776864,
            0.258435
          ],
          [
            0.72604,
            0.259395
          ],
          [
            0.203019,
            0.258876
          ],
          [
            0.203355,
            0.291488
          ],
          [
            0.182216,
            0.291488
          ],
          [
            0.181545,
            0.258876
          ],
          [
            0.049113,
            0.256343
          ],
          [
            0.049113,
            0.256343
          ],
          [
            0.068668,
            0.257424
          ],
          [
            0.049113,
            0.256343
          ]
        ]
      },
      "geometry": {
        "type": "Polygon",
        "coordinates": [
          [
            [
              -123.00144791755132,
              49.25046032287763
            ],
            [
              -123.00142455907601,
              49.25046061006414
            ],
            [
              -123.00142508542541,
              49.2494528780271
            ],
            [
              -123.0014464316998,
              49.24945248788694
            ],
            [
              -123.0014467886007,
              49.24950123156522
            ],
            [
              -123.00144834858592,
              49.24951409535332
            ],
            [
              -123.00144745580415,
              49.24960874010532
            ],
            [
              -123.00144834858592,
              49.249623882962204
            ],
            [
              -123.0014501330904,
              49.2496716426203
            ],
            [
              -123.00145114978139,
              49.24972672174132
            ],
            [
              -123.00145060013283,
              49.25029353145627
            ],
            [
              -123.00148513797271,
              49.25029316732545
            ],
            [
              -123.00148513797271,
              49.250316076138986
            ],
            [
              -123.00145060013283,
              49.2503168033169
            ],
            [
              -123.00144791755132,
              49.25046032287763
            ],
            [
              -123.00144791755132,
              49.25046032287763
            ],
            [
              -123.00144906238772,
              49.2504391306808
            ],
            [
              -123.00144791755132,
              49.25046032287763
            ],
            [
              -123.00144791755132,
              49.25046032287763
            ]
          ]
        ]
      }
    },
    {
      "type": "Feature",
      "properties": {
        "room": null,
        "building": "SE12",
        "floor": "3",
        "type": "hallway",
        "source": "traced",
        "uv": [
          [
            0.04898,
            0.514797
          ],
          [
            0.049113,
            0.256343
          ],
          [
            0.068668,
            0.257424
          ],
          [
            0.069675,
            0.511481
          ],
          [
            0.069675,
            0.511481
          ]
        ]
      },
      "geometry": {
        "type": "Polygon",
        "coordinates": [
          [
            [
              -123.00172163406266,
              49.25046046701274
            ],
            [
              -123.00144791755132,
              49.25046032287763
            ],
            [
              -123.00144906238772,
              49.2504391306808
            ],
            [
              -123.00171812224256,
              49.25043803937207
            ],
            [
              -123.00171812224256,
              49.25043803937207
            ],
            [
              -123.00172163406266,
              49.25046046701274
            ]
          ]
        ]
      }
    },
    {
      "type": "Feature",
      "properties": {
        "room": null,
        "building": "SE12",
        "floor": "3",
        "type": "hallway",
        "source": "traced",
        "uv": [
          [
            0.725671,
            0.511603
          ],
          [
            0.72604,
            0.259395
          ],
          [
            0.776864,
            0.258435
          ],
          [
            0.777133,
            0.514976
          ]
        ]
      },
      "geometry": {
        "type": "Polygon",
        "coordinates": [
          [
            [
              -123.00171825144704,
              49.24972712163498
            ],
            [
              -123.00145114978139,
              49.24972672174132
            ],
            [
              -123.0014501330904,
              49.2496716426203
            ],
            [
              -123.00172182363316,
              49.249671351098904
            ],
            [
              -123.00171825144704,
              49.24972712163498
            ]
          ]
        ]
      }
    },
    {
      "type": "Feature",
      "properties": {
        "room": null,
        "building": "SE12",
        "floor": "3",
        "type": "hallway",
        "source": "traced",
        "uv": [
          [
            0.801586,
            0.514555
          ],
          [
            0.801855,
            0.454737
          ],
          [
            0.821202,
            0.45558
          ],
          [
            0.82174,
            0.416825
          ],
          [
            0.776864,
            0.415982
          ],
          [
            0.777133,
            0.402081
          ],
          [
            0.816903,
            0.400817
          ],
          [
            0.817172,
            0.373015
          ],
          [
            0.821202,
            0.372593
          ],
          [
            0.821202,
            0.339736
          ],
          [
            0.81744,
            0.339315
          ],
          [
            0.817172,
            0.312355
          ],
          [
            0.776595,
            0.312355
          ],
          [
            0.776864,
            0.298453
          ],
          [
            0.821471,
            0.296768
          ],
          [
            0.820934,
            0.25675
          ],
          [
            0.834907,
            0.255907
          ],
          [
            0.835713,
            0.349846
          ],
          [
            0.921434,
            0.350267
          ],
          [
            0.921579,
            0.36303
          ],
          [
            0.836143,
            0.363367
          ],
          [
            0.836358,
            0.407561
          ],
          [
            0.921579,
            0.407899
          ],
          [
            0.921166,
            0.41851
          ],
          [
            0.835982,
            0.417667
          ],
          [
            0.835713,
            0.456422
          ],
          [
            0.86151,
            0.456422
          ],
          [
            0.860704,
            0.517503
          ],
          [
            0.852642,
            0.518346
          ],
          [
            0.85318,
            0.470745
          ],
          [
            0.808573,
            0.470323
          ],
          [
            0.808573,
            0.516661
          ]
        ]
      },
      "geometry": {
        "type": "Polygon",
        "coordinates": [
          [
            [
              -123.0017213777718,
              49.24964485082843
            ],
            [
              -123.00165802733314,
              49.249644559307036
            ],
            [
              -123.0016589201149,
              49.24962359252452
            ],
            [
              -123.0016178765118,
              49.24962300948173
            ],
            [
              -123.00161698373003,
              49.2496716426203
            ],
            [
              -123.00160226183282,
              49.249671351098904
            ],
            [
              -123.00160092318968,
              49.249628251448286
            ],
            [
              -123.00157147939524,
              49.24962795992689
            ],
            [
              -123.00157103247483,
              49.24962359252452
            ],
            [
              -123.00153623516694,
              49.24962359252452
            ],
            [
              -123.00153578930559,
              49.249627669489215
            ],
            [
              -123.00150723723387,
              49.24962795992689
            ],
            [
              -123.00150723723387,
              49.249671934141695
            ],
            [
              -123.00149251427759,
              49.2496716426203
            ],
            [
              -123.00149072977311,
              49.249623301003126
            ],
            [
              -123.00144834858592,
              49.249623882962204
            ],
            [
              -123.00144745580415,
              49.24960874010532
            ],
            [
              -123.00154694219384,
              49.24960786662485
            ],
            [
              -123.0015473880552,
              49.24951496883379
            ],
            [
              -123.00156090474998,
              49.249514811694006
            ],
            [
              -123.00156126165088,
              49.2496074006241
            ],
            [
              -123.00160806544383,
              49.24960716762373
            ],
            [
              -123.00160842340378,
              49.249514811694006
            ],
            [
              -123.00161966101628,
              49.24951525927147
            ],
            [
              -123.00161876823451,
              49.249607575103454
            ],
            [
              -123.00165981183763,
              49.24960786662485
            ],
            [
              -123.00165981183763,
              49.24957990983111
            ],
            [
              -123.00172449986036,
              49.249580783311586
            ],
            [
              -123.00172539264213,
              49.249589520283756
            ],
            [
              -123.00167498065525,
              49.24958893724096
            ],
            [
              -123.00167453373484,
              49.24963727885813
            ],
            [
              -123.00172360813765,
              49.24963727885813
            ],
            [
              -123.0017213777718,
              49.24964485082843
            ]
          ]
        ]
      }
    },
    {
      "type": "Feature",
      "properties": {
        "room": null,
        "building": "SE12",
        "floor": "3",
        "type": "hallway",
        "source": "traced",
        "uv": [
          [
            0.919553,
            0.515818
          ],
          [
            0.92224,
            0.25675
          ],
          [
            0.93411,
            0.255277
          ],
          [
            0.933895,
            0.515383
          ]
        ]
      },
      "geometry": {
        "type": "Polygon",
        "coordinates": [
          [
            [
              -123.00172271535588,
              49.249517007316136
            ],
            [
              -123.00144834858592,
              49.24951409535332
            ],
            [
              -123.0014467886007,
              49.24950123156522
            ],
            [
              -123.00172225466778,
              49.2495014645656
            ],
            [
              -123.00172271535588,
              49.249517007316136
            ]
          ]
        ]
      }
    },
    {
      "type": "Feature",
      "properties": {
        "room": "358",
        "building": "SE12",
        "floor": "3",
        "type": "service",
        "source": "traced",
        "uv": [
          [
            0.958795,
            0.456291
          ],
          [
            0.959412,
            0.429438
          ],
          [
            0.966589,
            0.429795
          ],
          [
            0.966228,
            0.454626
          ]
        ],
        "name": "Communications"
      },
      "geometry": {
        "type": "Polygon",
        "coordinates": [
          [
            [
              -123.00165967310167,
              49.2494744798711
            ],
            [
              -123.00163123434862,
              49.24947381121421
            ],
            [
              -123.00163161243057,
              49.2494660333366
            ],
            [
              -123.00165790977825,
              49.24946642456048
            ],
            [
              -123.00165967310167,
              49.2494744798711
            ]
          ]
        ]
      }
    }
  ]
}