{
  "type": "FeatureCollection",
  "features": [
    {
      "type": "Feature",
      "properties": {
        "room": "402",
        "building": "SE12",
        "floor": "4",
        "type": "room",
        "source": "traced",
        "uv": [
          [
            0.074905,
            0.564194
          ],
          [
            0.074905,
            0.440606
          ],
          [
            0.180306,
            0.440606
          ],
          [
            0.180306,
            0.563367
          ]
        ],
        "name": "Life Sciences Lab"
      },
      "geometry": {
        "type": "Polygon",
        "coordinates": [
          [
            [
              -123.00172669589426,
              49.25045171748482
            ],
            [
              -123.00158875010266,
              49.25045171748482
            ],
            [
              -123.00158875010266,
              49.250333364358966
            ],
            [
              -123.00172577317991,
              49.250333364358966
            ],
            [
              -123.00172669589426,
              49.25045171748482
            ]
          ]
        ]
      }
    },
    {
      "type": "Feature",
      "properties": {
        "room": "401",
        "building": "SE12",
        "floor": "4",
        "type": "room",
        "source": "traced",
        "uv": [
          [
            0.074905,
            0.440606
          ],
          [
            0.074905,
            0.317018
          ],
          [
            0.18862,
            0.317845
          ],
          [
            0.18862,
            0.440606
          ]
        ],
        "name": "Life Sciences Lab"
      },
      "geometry": {
        "type": "Polygon",
        "coordinates": [
          [
            [
              -123.00158875010266,
              49.25045171748482
            ],
            [
              -123.00145080431105,
              49.25045171748482
            ],
            [
              -123.0014517270254,
              49.250324028604126
            ],
            [
              -123.00158875010266,
              49.250324028604126
            ],
            [
              -123.00158875010266,
              49.25045171748482
            ]
          ]
        ]
      }
    },
    {
      "type": "Feature",
      "properties": {
        "room": "403",
        "building": "SE12",
        "floor": "4",
        "type": "room",
        "source": "traced",
        "uv": [
          [
            0.18862,
            0.440606
          ],
          [
            0.18862,
            0.317845
          ],
          [
            0.265055,
            0.317431
          ],
          [
            0.265055,
            0.440606
          ]
        ],
        "name": "Life Sciences Lab"
      },
      "geometry": {
        "type": "Polygon",
        "coordinates": [
          [
            [
              -123.00158875010266,
              49.250324028604126
            ],
            [
              -123.0014517270254,
              49.250324028604126
            ],
            [
              -123.00145126566822,
              49.250238199807086
            ],
            [
              -123.00158875010266,
              49.250238199807086
            ],
            [
              -123.00158875010266,
              49.250324028604126
            ]
          ]
        ]
      }
    },
    {
      "type": "Feature",
      "properties": {
        "room": "404A",
        "building": "SE12",
        "floor": "4",
        "type": "room",
        "source": "traced",
        "uv": [
          [
            0.180842,
            0.516659
          ],
          [
            0.180306,
            0.440606
          ],
          [
            0.206588,
            0.440605
          ],
          [
            0.206052,
            0.517486
          ]
        ],
        "name": "Life Sciences Lab"
      },
      "geometry": {
        "type": "Polygon",
        "coordinates": [
          [
            [
              -123.00167363933664,
              49.250332762322586
            ],
            [
              -123.00158875010266,
              49.250333364358966
            ],
            [
              -123.00158874961852,
              49.250303851592065
            ],
            [
              -123.001674562051,
              49.250304453899105
            ],
            [
              -123.00167363933664,
              49.250332762322586
            ]
          ]
        ]
      }
    },
    {
      "type": "Feature",
      "properties": {
        "room": "404B",
        "building": "SE12",
        "floor": "4",
        "type": "service",
        "source": "traced",
        "uv": [
          [
            0.180306,
            0.563367
          ],
          [
            0.180842,
            0.516659
          ],
          [
            0.206052,
            0.517486
          ],
          [
            0.20632,
            0.56378
          ]
        ],
        "name": "Supply Closet"
      },
      "geometry": {
        "type": "Polygon",
        "coordinates": [
          [
            [
              -123.00172577317991,
              49.250333364358966
            ],
            [
              -123.00167363933664,
              49.250332762322586
            ],
            [
              -123.001674562051,
              49.250304453899105
            ],
            [
              -123.00172623405334,
              49.25030415274537
            ],
            [
              -123.00172577317991,
              49.250333364358966
            ]
          ]
        ]
      }
    },
    {
      "type": "Feature",
      "properties": {
        "room": "404E",
        "building": "SE12",
        "floor": "4",
        "type": "room",
        "source": "traced",
        "uv": [
          [
            0.305552,
            0.564606
          ],
          [
            0.30564,
            0.532039
          ],
          [
            0.335969,
            0.532589
          ],
          [
            0.336326,
            0.563935
          ]
        ],
        "name": "Office"
      },
      "geometry": {
        "type": "Polygon",
        "coordinates": [
          [
            [
              -123.00172715676732,
              49.25019272581301
            ],
            [
              -123.00169080584863,
              49.250192627255586
            ],
            [
              -123.00169141965921,
              49.250158570355666
            ],
            [
              -123.00172640686202,
              49.25015816968579
            ],
            [
              -123.00172715676732,
              49.25019272581301
            ]
          ]
        ]
      }
    },
    {
      "type": "Feature",
      "properties": {
        "room": "404G",
        "building": "SE12",
        "floor": "4",
        "type": "room",
        "source": "traced",
        "uv": [
          [
            0.206795,
            0.491699
          ],
          [
            0.225885,
            0.491699
          ],
          [
            0.225885,
            0.440831
          ],
          [
            0.206588,
            0.440605
          ]
        ],
        "name": "Washup Room"
      },
      "geometry": {
        "type": "Polygon",
        "coordinates": [
          [
            [
              -123.00164577932037,
              49.25030361900215
            ],
            [
              -123.00164577932037,
              49.25028218323948
            ],
            [
              -123.00158900184242,
              49.25028218323948
            ],
            [
              -123.00158874961852,
              49.250303851592065
            ],
            [
              -123.00164577932037,
              49.25030361900215
            ]
          ]
        ]
      }
    },
    {
      "type": "Feature",
      "properties": {
        "room": "404",
        "building": "SE12",
        "floor": "4",
        "type": "room",
        "source": "traced",
        "uv": [
          [
            0.20632,
            0.56378
          ],
          [
            0.206795,
            0.491699
          ],
          [
            0.225885,
            0.491699
          ],
          [
            0.225885,
            0.440831
          ],
          [
            0.305277,
            0.440281
          ],
          [
            0.305552,
            0.564606
          ]
        ],
        "name": "Lab Sciences Lab"
      },
      "geometry": {
        "type": "Polygon",
        "coordinates": [
          [
            [
              -123.00172623405334,
              49.25030415274537
            ],
            [
              -123.00164577932037,
              49.25030361900215
            ],
            [
              -123.00164577932037,
              49.25028218323948
            ],
            [
              -123.00158900184242,
              49.25028218323948
            ],
            [
              -123.00158838803183,
              49.250193034406976
            ],
            [
              -123.00172715676732,
              49.25019272581301
            ],
            [
              -123.00172623405334,
              49.25030415274537
            ]
          ]
        ]
      }
    },
    {
      "type": "Feature",
      "properties": {
        "room": "405",
        "building": "SE12",
        "floor": "4",
        "type": "room",
        "source": "traced",
        "uv": [
          [
            0.265055,
            0.440606
          ],
          [
            0.265055,
            0.317431
          ],
          [
            0.313463,
            0.317768
          ],
          [
            0.313463,
            0.356292
          ],
          [
            0.294369,
            0.356024
          ],
          [
            0.294195,
            0.404179
          ],
          [
            0.31329,
            0.404446
          ],
          [
            0.313463,
            0.440295
          ]
        ],
        "name": "Washup Room"
      },
      "geometry": {
        "type": "Polygon",
        "coordinates": [
          [
            [
              -123.00158875010266,
              49.250238199807086
            ],
            [
              -123.00145126566822,
              49.250238199807086
            ],
            [
              -123.00145164125789,
              49.250183842328795
            ],
            [
              -123.00149464063549,
              49.250183842328795
            ],
            [
              -123.00149434202869,
              49.250205283278746
            ],
            [
              -123.00154809125067,
              49.25020547819625
            ],
            [
              -123.00154838985748,
              49.250184037246385
            ],
            [
              -123.00158840316712,
              49.250183842328795
            ],
            [
              -123.00158875010266,
              49.250238199807086
            ]
          ]
        ]
      }
    },
    {
      "type": "Feature",
      "properties": {
        "room": "405B",
        "building": "SE12",
        "floor": "4",
        "type": "service",
        "source": "traced",
        "uv": [
          [
            0.294195,
            0.404179
          ],
          [
            0.29489,
            0.379299
          ],
          [
            0.31381,
            0.379031
          ],
          [
            0.31329,
            0.404446
          ]
        ],
        "name": "Supply Closet"
      },
      "geometry": {
        "type": "Polygon",
        "coordinates": [
          [
            [
              -123.00154809125067,
              49.25020547819625
            ],
            [
              -123.00152032081918,
              49.25020469852552
            ],
            [
              -123.00152002221239,
              49.250183452492934
            ],
            [
              -123.00154838985748,
              49.250184037246385
            ],
            [
              -123.00154809125067,
              49.25020547819625
            ]
          ]
        ]
      }
    },
    {
      "type": "Feature",
      "properties": {
        "room": "405A",
        "building": "SE12",
        "floor": "4",
        "type": "room",
        "source": "traced",
        "uv": [
          [
            0.29489,
            0.379299
          ],
          [
            0.294369,
            0.356024
          ],
          [
            0.313463,
            0.356292
          ],
          [
            0.31381,
            0.379031
          ]
        ],
        "name": "Supply Closet"
      },
      "geometry": {
        "type": "Polygon",
        "coordinates": [
          [
            [
              -123.00152032081918,
              49.25020469852552
            ],
            [
              -123.00149434202869,
              49.250205283278746
            ],
            [
              -123.00149464063549,
              49.250183842328795
            ],
            [
              -123.00152002221239,
              49.250183452492934
            ],
            [
              -123.00152032081918,
              49.25020469852552
            ]
          ]
        ]
      }
    },
    {
      "type": "Feature",
      "properties": {
        "room": "404C",
        "building": "SE12",
        "floor": "4",
        "type": "service",
        "source": "traced",
        "uv": [
          [
            0.305478,
            0.514132
          ],
          [
            0.305478,
            0.478016
          ],
          [
            0.336029,
            0.478551
          ],
          [
            0.336203,
            0.514132
          ]
        ],
        "name": "Storage Room"
      },
      "geometry": {
        "type": "Polygon",
        "coordinates": [
          [
            [
              -123.00167081864052,
              49.250192808545165
            ],
            [
              -123.00163050672408,
              49.250192808545165
            ],
            [
              -123.00163110393768,
              49.250158503012244
            ],
            [
              -123.00167081864052,
              49.25015830809451
            ],
            [
              -123.00167081864052,
              49.250192808545165
            ]
          ]
        ]
      }
    },
    {
      "type": "Feature",
      "properties": {
        "room": "404D",
        "building": "SE12",
        "floor": "4",
        "type": "service",
        "source": "traced",
        "uv": [
          [
            0.305478,
            0.478016
          ],
          [
            0.305277,
            0.440281
          ],
          [
            0.336203,
            0.440562
          ],
          [
            0.336029,
            0.478551
          ]
        ],
        "name": "Supply Closet"
      },
      "geometry": {
        "type": "Polygon",
        "coordinates": [
          [
            [
              -123.00163050672408,
              49.250192808545165
            ],
            [
              -123.00158838803183,
              49.250193034406976
            ],
            [
              -123.0015887017739,
              49.25015830809451
            ],
            [
              -123.00163110393768,
              49.250158503012244
            ],
            [
              -123.00163050672408,
              49.250192808545165
            ]
          ]
        ]
      }
    },
    {
      "type": "Feature",
      "properties": {
        "room": "406",
        "building": "SE12",
        "floor": "4",
        "type": "room",
        "source": "traced",
        "uv": [
          [
            0.336326,
            0.563935
          ],
          [
            0.336203,
            0.440562
          ],
          [
            0.39366,
            0.441097
          ],
          [
            0.393313,
            0.56416
          ]
        ],
        "name": "Life Sciences Lab"
      },
      "geometry": {
        "type": "Polygon",
        "coordinates": [
          [
            [
              -123.00172640686202,
              49.25015816968579
            ],
            [
              -123.0015887017739,
              49.25015830809451
            ],
            [
              -123.00158929898646,
              49.250093790237145
            ],
            [
              -123.00172665810902,
              49.25009418007309
            ],
            [
              -123.00172640686202,
              49.25015816968579
            ]
          ]
        ]
      }
    },
    {
      "type": "Feature",
      "properties": {
        "room": "404F",
        "building": "SE12",
        "floor": "4",
        "type": "hallway",
        "source": "traced",
        "uv": [
          [
            0.30564,
            0.532039
          ],
          [
            0.305478,
            0.514132
          ],
          [
            0.336203,
            0.514132
          ],
          [
            0.335969,
            0.532589
          ]
        ]
      },
      "geometry": {
        "type": "Polygon",
        "coordinates": [
          [
            [
              -123.00169080584863,
              49.250192627255586
            ],
            [
              -123.00167081864052,
              49.250192808545165
            ],
            [
              -123.00167081864052,
              49.25015830809451
            ],
            [
              -123.00169141965921,
              49.250158570355666
            ],
            [
              -123.00169080584863,
              49.250192627255586
            ]
          ]
        ]
      }
    },
    {
      "type": "Feature",
      "properties": {
        "room": "407",
        "building": "SE12",
        "floor": "4",
        "type": "room",
        "source": "traced",
        "uv": [
          [
            0.313463,
            0.440295
          ],
          [
            0.313463,
            0.317768
          ],
          [
            0.39366,
            0.317768
          ],
          [
            0.39366,
            0.441097
          ]
        ],
        "name": "Life Sciences Lab"
      },
      "geometry": {
        "type": "Polygon",
        "coordinates": [
          [
            [
              -123.00158840316712,
              49.250183842328795
            ],
            [
              -123.00145164125789,
              49.250183842328795
            ],
            [
              -123.00145164125684,
              49.250093790237145
            ],
            [
              -123.00158929898646,
              49.250093790237145
            ],
            [
              -123.00158840316712,
              49.250183842328795
            ]
          ]
        ]
      }
    },
    {
      "type": "Feature",
      "properties": {
        "room": "408",
        "building": "SE12",
        "floor": "4",
        "type": "room",
        "source": "traced",
        "uv": [
          [
            0.393313,
            0.56416
          ],
          [
            0.394007,
            0.472933
          ],
          [
            0.426815,
            0.473201
          ],
          [
            0.426815,
            0.563357
          ]
        ],
        "name": "Women's Washroom",
        "amenity": "washroom"
      },
      "geometry": {
        "type": "Polygon",
        "coordinates": [
          [
            [
              -123.00172665810902,
              49.25009418007309
            ],
            [
              -123.0016248335038,
              49.25009340035936
            ],
            [
              -123.0016251321106,
              49.25005656082001
            ],
            [
              -123.00172576259828,
              49.25005656082001
            ],
            [
              -123.00172665810902,
              49.25009418007309
            ]
          ]
        ]
      }
    },
    {
      "type": "Feature",
      "properties": {
        "room": "411",
        "building": "SE12",
        "floor": "4",
        "type": "room",
        "source": "traced",
        "uv": [
          [
            0.39366,
            0.441097
          ],
          [
            0.393833,
            0.376624
          ],
          [
            0.426641,
            0.377159
          ],
          [
            0.426815,
            0.44083
          ]
        ],
        "name": "Men's Washroom",
        "amenity": "washroom"
      },
      "geometry": {
        "type": "Polygon",
        "coordinates": [
          [
            [
              -123.00158929898646,
              49.250093790237145
            ],
            [
              -123.00151733505982,
              49.25009359527732
            ],
            [
              -123.0015179322734,
              49.250056755738115
            ],
            [
              -123.00158900068905,
              49.25005656082001
            ],
            [
              -123.00158929898646,
              49.250093790237145
            ]
          ]
        ]
      }
    },
    {
      "type": "Feature",
      "properties": {
        "room": "410",
        "building": "SE12",
        "floor": "4",
        "type": "service",
        "source": "traced",
        "uv": [
          [
            0.394007,
            0.472933
          ],
          [
            0.39366,
            0.441097
          ],
          [
            0.426815,
            0.44083
          ],
          [
            0.426815,
            0.473201
          ]
        ],
        "name": "Janitor"
      },
      "geometry": {
        "type": "Polygon",
        "coordinates": [
          [
            [
              -123.0016248335038,
              49.25009340035936
            ],
            [
              -123.00158929898646,
              49.250093790237145
            ],
            [
              -123.00158900068905,
              49.25005656082001
            ],
            [
              -123.0016251321106,
              49.25005656082001
            ],
            [
              -123.0016248335038,
              49.25009340035936
            ]
          ]
        ]
      }
    },
    {
      "type": "Feature",
      "properties": {
        "room": "407A",
        "building": "SE12",
        "floor": "4",
        "type": "service",
        "source": "traced",
        "uv": [
          [
            0.393833,
            0.376624
          ],
          [
            0.39366,
            0.317768
          ],
          [
            0.426641,
            0.316698
          ],
          [
            0.426641,
            0.377159
          ]
        ],
        "name": "Storage Room"
      },
      "geometry": {
        "type": "Polygon",
        "coordinates": [
          [
            [
              -123.00151733505982,
              49.25009359527732
            ],
            [
              -123.00145164125684,
              49.250093790237145
            ],
            [
              -123.00145044713929,
              49.250056755738115
            ],
            [
              -123.0015179322734,
              49.250056755738115
            ],
            [
              -123.00151733505982,
              49.25009359527732
            ]
          ]
        ]
      }
    },
    {
      "type": "Feature",
      "properties": {
        "room": "412A",
        "building": "SE12",
        "floor": "4",
        "type": "room",
        "source": "traced",
        "uv": [
          [
            0.459027,
            0.563921
          ],
          [
            0.459027,
            0.440592
          ],
          [
            0.514922,
            0.440324
          ],
          [
            0.515095,
            0.538774
          ],
          [
            0.502423,
            0.538774
          ],
          [
            0.502597,
            0.564189
          ]
        ],
        "name": "Life Sciences Lab"
      },
      "geometry": {
        "type": "Polygon",
        "coordinates": [
          [
            [
              -123.0017263922515,
              49.25002038976993
            ],
            [
              -123.00158873452213,
              49.25002038976993
            ],
            [
              -123.00158843591532,
              49.24995762600116
            ],
            [
              -123.00169832321343,
              49.24995743108269
            ],
            [
              -123.00169832321343,
              49.24997166014245
            ],
            [
              -123.00172669085828,
              49.24997146522401
            ],
            [
              -123.0017263922515,
              49.25002038976993
            ]
          ]
        ]
      }
    },
    {
      "type": "Feature",
      "properties": {
        "room": "412B",
        "building": "SE12",
        "floor": "4",
        "type": "room",
        "source": "traced",
        "uv": [
          [
            0.526552,
            0.563921
          ],
          [
            0.526552,
            0.539042
          ],
          [
            0.515095,
            0.538774
          ],
          [
            0.514922,
            0.440324
          ],
          [
            0.565782,
            0.440592
          ],
          [
            0.565956,
            0.533156
          ],
          [
            0.55745,
            0.533156
          ],
          [
            0.557277,
            0.563921
          ]
        ],
        "name": "Life Sciences Lab"
      },
      "geometry": {
        "type": "Polygon",
        "coordinates": [
          [
            [
              -123.0017263922515,
              49.24994456644936
            ],
            [
              -123.00169862182022,
              49.24994456644936
            ],
            [
              -123.00169832321343,
              49.24995743108269
            ],
            [
              -123.00158843591532,
              49.24995762600116
            ],
            [
              -123.00158873452213,
              49.24990051480063
            ],
            [
              -123.00169205247097,
              49.2499003198819
            ],
            [
              -123.00169205247097,
              49.24990987090652
            ],
            [
              -123.0017263922515,
              49.24991006582522
            ],
            [
              -123.0017263922515,
              49.24994456644936
            ]
          ]
        ]
      }
    },
    {
      "type": "Feature",
      "properties": {
        "room": "413A",
        "building": "SE12",
        "floor": "4",
        "type": "room",
        "source": "traced",
        "uv": [
          [
            0.459027,
            0.440592
          ],
          [
            0.459201,
            0.317262
          ],
          [
            0.501555,
            0.317797
          ],
          [
            0.50225,
            0.331173
          ],
          [
            0.509367,
            0.342142
          ],
          [
            0.514227,
            0.34241
          ],
          [
            0.514922,
            0.440324
          ]
        ],
        "name": "Life Sciences Lab"
      },
      "geometry": {
        "type": "Polygon",
        "coordinates": [
          [
            [
              -123.00158873452213,
              49.25002038976993
            ],
            [
              -123.00145107679275,
              49.25002019485163
            ],
            [
              -123.00145167400612,
              49.24997263473597
            ],
            [
              -123.00146660434564,
              49.24997185506152
            ],
            [
              -123.001478847224,
              49.24996386339808
            ],
            [
              -123.00147914583081,
              49.24995840567584
            ],
            [
              -123.00158843591532,
              49.24995762600116
            ],
            [
              -123.00158873452213,
              49.25002038976993
            ]
          ]
        ]
      }
    },
    {
      "type": "Feature",
      "properties": {
        "room": "413B",
        "building": "SE12",
        "floor": "4",
        "type": "room",
        "source": "traced",
        "uv": [
          [
            0.514922,
            0.440324
          ],
          [
            0.514227,
            0.34241
          ],
          [
            0.519608,
            0.342142
          ],
          [
            0.526725,
            0.331173
          ],
          [
            0.527941,
            0.317262
          ],
          [
            0.565782,
            0.317262
          ],
          [
            0.565782,
            0.440592
          ]
        ],
        "name": "Life Sciences Lab"
      },
      "geometry": {
        "type": "Polygon",
        "coordinates": [
          [
            [
              -123.00158843591532,
              49.24995762600116
            ],
            [
              -123.00147914583081,
              49.24995840567584
            ],
            [
              -123.001478847224,
              49.24995236319677
            ],
            [
              -123.00146660434564,
              49.24994437153015
            ],
            [
              -123.00145107679275,
              49.2499430070996
            ],
            [
              -123.00145107679275,
              49.24990051480063
            ],
            [
              -123.00158873452213,
              49.24990051480063
            ],
            [
              -123.00158843591532,
              49.24995762600116
            ]
          ]
        ]
      }
    },
    {
      "type": "Feature",
      "properties": {
        "room": "412C",
        "building": "SE12",
        "floor": "4",
        "type": "service",
        "source": "traced",
        "uv": [
          [
            0.502597,
            0.564189
          ],
          [
            0.502423,
            0.538774
          ],
          [
            0.526552,
            0.539042
          ],
          [
            0.526552,
            0.563921
          ]
        ],
        "name": "Storage"
      },
      "geometry": {
        "type": "Polygon",
        "coordinates": [
          [
            [
              -123.00172669085828,
              49.24997146522401
            ],
            [
              -123.00169832321343,
              49.24997166014245
            ],
            [
              -123.00169862182022,
              49.24994456644936
            ],
            [
              -123.0017263922515,
              49.24994456644936
            ],
            [
              -123.00172669085828,
              49.24997146522401
            ]
          ]
        ]
      }
    },
    {
      "type": "Feature",
      "properties": {
        "room": "413C",
        "building": "SE12",
        "floor": "4",
        "type": "service",
        "source": "traced",
        "uv": [
          [
            0.501555,
            0.317797
          ],
          [
            0.527941,
            0.317262
          ],
          [
            0.526725,
            0.331173
          ],
          [
            0.519608,
            0.342142
          ],
          [
            0.509367,
            0.342142
          ],
          [
            0.50225,
            0.331173
          ]
        ],
        "name": "Supply Closet"
      },
      "geometry": {
        "type": "Polygon",
        "coordinates": [
          [
            [
              -123.00145167400612,
              49.24997263473597
            ],
            [
              -123.00145107679275,
              49.2499430070996
            ],
            [
              -123.00146660434564,
              49.24994437153015
            ],
            [
              -123.001478847224,
              49.24995236319677
            ],
            [
              -123.001478847224,
              49.24996386339808
            ],
            [
              -123.00146660434564,
              49.24997185506152
            ],
            [
              -123.00145167400612,
              49.24997263473597
            ]
          ]
        ]
      }
    },
    {
      "type": "Feature",
      "properties": {
        "room": "414",
        "building": "SE12",
        "floor": "4",
        "type": "service",
        "source": "traced",
        "uv": [
          [
            0.557277,
            0.563921
          ],
          [
            0.55745,
            0.533156
          ],
          [
            0.565956,
            0.533156
          ],
          [
            0.565782,
            0.440592
          ],
          [
            0.602402,
            0.440892
          ],
          [
            0.602402,
            0.564489
          ]
        ],
        "name": "Storage"
      },
      "geometry": {
        "type": "Polygon",
        "coordinates": [
          [
            [
              -123.0017263922515,
              49.24991006582522
            ],
            [
              -123.00169205247097,
              49.24990987090652
            ],
            [
              -123.00169205247097,
              49.2499003198819
            ],
            [
              -123.00158873452213,
              49.24990051480063
            ],
            [
              -123.00158906924895,
              49.24985939448342
            ],
            [
              -123.00172702558513,
              49.24985939448342
            ],
            [
              -123.0017263922515,
              49.24991006582522
            ]
          ]
        ]
      }
    },
    {
      "type": "Feature",
      "properties": {
        "room": "415",
        "building": "SE12",
        "floor": "4",
        "type": "service",
        "source": "traced",
        "uv": [
          [
            0.565782,
            0.440592
          ],
          [
            0.565782,
            0.317262
          ],
          [
            0.602576,
            0.317562
          ],
          [
            0.602402,
            0.440892
          ]
        ],
        "name": "Storage"
      },
      "geometry": {
        "type": "Polygon",
        "coordinates": [
          [
            [
              -123.00158873452213,
              49.24990051480063
            ],
            [
              -123.00145107679275,
              49.24990051480063
            ],
            [
              -123.00145141151935,
              49.249859199564526
            ],
            [
              -123.00158906924895,
              49.24985939448342
            ],
            [
              -123.00158873452213,
              49.24990051480063
            ]
          ]
        ]
      }
    },
    {
      "type": "Feature",
      "properties": {
        "room": "416A",
        "building": "SE12",
        "floor": "4",
        "type": "room",
        "source": "traced",
        "uv": [
          [
            0.602402,
            0.564489
          ],
          [
            0.602402,
            0.440892
          ],
          [
            0.660937,
            0.440571
          ],
          [
            0.660725,
            0.564458
          ]
        ],
        "name": "Life Sciences Lab"
      },
      "geometry": {
        "type": "Polygon",
        "coordinates": [
          [
            [
              -123.00172702558513,
              49.24985939448342
            ],
            [
              -123.00158906924895,
              49.24985939448342
            ],
            [
              -123.00158871162313,
              49.24979366616529
            ],
            [
              -123.00172699085246,
              49.249793903700976
            ],
            [
              -123.00172702558513,
              49.24985939448342
            ]
          ]
        ]
      }
    },
    {
      "type": "Feature",
      "properties": {
        "room": "416B",
        "building": "SE12",
        "floor": "4",
        "type": "room",
        "source": "traced",
        "uv": [
          [
            0.660725,
            0.564458
          ],
          [
            0.660937,
            0.440571
          ],
          [
            0.723552,
            0.440245
          ],
          [
            0.723764,
            0.56348
          ]
        ],
        "name": "Life Sciences Lab"
      },
      "geometry": {
        "type": "Polygon",
        "coordinates": [
          [
            [
              -123.00172699085246,
              49.249793903700976
            ],
            [
              -123.00158871162313,
              49.24979366616529
            ],
            [
              -123.0015883477304,
              49.24972335560497
            ],
            [
              -123.00172589917432,
              49.24972311806931
            ],
            [
              -123.00172699085246,
              49.249793903700976
            ]
          ]
        ]
      }
    },
    {
      "type": "Feature",
      "properties": {
        "room": "417A",
        "building": "SE12",
        "floor": "4",
        "type": "room",
        "source": "traced",
        "uv": [
          [
            0.602402,
            0.440892
          ],
          [
            0.602576,
            0.317562
          ],
          [
            0.651744,
            0.317387
          ],
          [
            0.651744,
            0.331731
          ],
          [
            0.658936,
            0.342164
          ],
          [
            0.658936,
            0.342164
          ],
          [
            0.661475,
            0.342164
          ],
          [
            0.660937,
            0.440571
          ]
        ],
        "name": "Life Sciences Lab"
      },
      "geometry": {
        "type": "Polygon",
        "coordinates": [
          [
            [
              -123.00158906924895,
              49.24985939448342
            ],
            [
              -123.00145141151935,
              49.249859199564526
            ],
            [
              -123.00145121575578,
              49.249803988772754
            ],
            [
              -123.00146722703505,
              49.249803988772754
            ],
            [
              -123.0014788716017,
              49.249795912566356
            ],
            [
              -123.0014788716017,
              49.249795912566356
            ],
            [
              -123.0014788716017,
              49.24979306214024
            ],
            [
              -123.00158871162313,
              49.24979366616529
            ],
            [
              -123.00158906924895,
              49.24985939448342
            ]
          ]
        ]
      }
    },
    {
      "type": "Feature",
      "properties": {
        "room": "417B",
        "building": "SE12",
        "floor": "4",
        "type": "room",
        "source": "traced",
        "uv": [
          [
            0.660937,
            0.440571
          ],
          [
            0.661475,
            0.342164
          ],
          [
            0.668667,
            0.342164
          ],
          [
            0.675648,
            0.330753
          ],
          [
            0.675648,
            0.318039
          ],
          [
            0.723667,
            0.317387
          ],
          [
            0.723552,
            0.440245
          ]
        ],
        "name": "Life Sciences Lab"
      },
      "geometry": {
        "type": "Polygon",
        "coordinates": [
          [
            [
              -123.00158871162313,
              49.24979366616529
            ],
            [
              -123.0014788716017,
              49.24979306214024
            ],
            [
              -123.0014788716017,
              49.24978498593242
            ],
            [
              -123.00146613535688,
              49.2497771472587
            ],
            [
              -123.00145194354121,
              49.2497771472587
            ],
            [
              -123.00145121575578,
              49.249723226651156
            ],
            [
              -123.0015883477304,
              49.24972335560497
            ],
            [
              -123.00158871162313,
              49.24979366616529
            ]
          ]
        ]
      }
    },
    {
      "type": "Feature",
      "properties": {
        "room": "417C",
        "building": "SE12",
        "floor": "4",
        "type": "service",
        "source": "traced",
        "uv": [
          [
            0.651744,
            0.317387
          ],
          [
            0.675648,
            0.318039
          ],
          [
            0.675648,
            0.330753
          ],
          [
            0.668667,
            0.342164
          ],
          [
            0.658936,
            0.342164
          ],
          [
            0.651744,
            0.331731
          ]
        ],
        "name": "Supply Closet"
      },
      "geometry": {
        "type": "Polygon",
        "coordinates": [
          [
            [
              -123.00145121575578,
              49.249803988772754
            ],
            [
              -123.00145194354121,
              49.2497771472587
            ],
            [
              -123.00146613535688,
              49.2497771472587
            ],
            [
              -123.0014788716017,
              49.24978498593242
            ],
            [
              -123.0014788716017,
              49.249795912566356
            ],
            [
              -123.00146722703505,
              49.249803988772754
            ],
            [
              -123.00145121575578,
              49.249803988772754
            ]
          ]
        ]
      }
    },
    {
      "type": "Feature",
      "properties": {
        "room": "421",
        "building": "SE12",
        "floor": "4",
        "type": "room",
        "source": "traced",
        "uv": [
          [
            0.739296,
            0.563922
          ],
          [
            0.739296,
            0.530342
          ],
          [
            0.773566,
            0.530668
          ],
          [
            0.773143,
            0.564248
          ]
        ],
        "name": "Office"
      },
      "geometry": {
        "type": "Polygon",
        "coordinates": [
          [
            [
              -123.00172639290595,
              49.249705676805576
            ],
            [
              -123.00168891195696,
              49.249705676805576
            ],
            [
              -123.00168927584969,
              49.24966719597006
            ],
            [
              -123.00172675679866,
              49.24966767104229
            ],
            [
              -123.00172639290595,
              49.249705676805576
            ]
          ]
        ]
      }
    },
    {
      "type": "Feature",
      "properties": {
        "room": "420",
        "building": "SE12",
        "floor": "4",
        "type": "room",
        "source": "traced",
        "uv": [
          [
            0.739296,
            0.530342
          ],
          [
            0.739508,
            0.440362
          ],
          [
            0.773566,
            0.440688
          ],
          [
            0.773566,
            0.530668
          ]
        ],
        "name": "Office"
      },
      "geometry": {
        "type": "Polygon",
        "coordinates": [
          [
            [
              -123.00168891195696,
              49.249705676805576
            ],
            [
              -123.00158847756936,
              49.2497054392698
            ],
            [
              -123.00158884146205,
              49.24966719597006
            ],
            [
              -123.00168927584969,
              49.24966719597006
            ],
            [
              -123.00168891195696,
              49.249705676805576
            ]
          ]
        ]
      }
    },
    {
      "type": "Feature",
      "properties": {
        "room": "419",
        "building": "SE12",
        "floor": "4",
        "type": "room",
        "source": "traced",
        "uv": [
          [
            0.759604,
            0.364074
          ],
          [
            0.759393,
            0.317453
          ],
          [
            0.793027,
            0.317779
          ],
          [
            0.793239,
            0.364074
          ]
        ],
        "name": "Office"
      },
      "geometry": {
        "type": "Polygon",
        "coordinates": [
          [
            [
              -123.00150332667556,
              49.24968287335119
            ],
            [
              -123.00145129001817,
              49.24968311088702
            ],
            [
              -123.00145165391088,
              49.24964534264245
            ],
            [
              -123.00150332667556,
              49.249645105106026
            ],
            [
              -123.00150332667556,
              49.24968287335119
            ]
          ]
        ]
      }
    },
    {
      "type": "Feature",
      "properties": {
        "room": "426",
        "building": "SE12",
        "floor": "4",
        "type": "room",
        "source": "traced",
        "uv": [
          [
            0.773143,
            0.564248
          ],
          [
            0.773566,
            0.530668
          ],
          [
            0.786531,
            0.53219
          ],
          [
            0.793301,
            0.541644
          ],
          [
            0.793301,
            0.564465
          ]
        ],
        "name": "Office"
      },
      "geometry": {
        "type": "Polygon",
        "coordinates": [
          [
            [
              -123.00172675679866,
              49.24966767104229
            ],
            [
              -123.00168927584969,
              49.24966719597006
            ],
            [
              -123.00169097399474,
              49.24965263698047
            ],
            [
              -123.00170152688324,
              49.24964503582177
            ],
            [
              -123.00172699937285,
              49.24964503582177
            ],
            [
              -123.00172675679866,
              49.24966767104229
            ]
          ]
        ]
      }
    },
    {
      "type": "Feature",
      "properties": {
        "room": "425",
        "building": "SE12",
        "floor": "4",
        "type": "service",
        "source": "traced",
        "uv": [
          [
            0.773566,
            0.530668
          ],
          [
            0.773839,
            0.496654
          ],
          [
            0.793089,
            0.496654
          ],
          [
            0.793301,
            0.522083
          ],
          [
            0.786531,
            0.53219
          ]
        ],
        "name": "Resources"
      },
      "geometry": {
        "type": "Polygon",
        "coordinates": [
          [
            [
              -123.00168927584969,
              49.24966719597006
            ],
            [
              -123.00165130968942,
              49.249666889149495
            ],
            [
              -123.00165130968942,
              49.24964527335817
            ],
            [
              -123.0016796933208,
              49.24964503582177
            ],
            [
              -123.00169097399474,
              49.24965263698047
            ],
            [
              -123.00168927584969,
              49.24966719597006
            ]
          ]
        ]
      }
    },
    {
      "type": "Feature",
      "properties": {
        "room": "422",
        "building": "SE12",
        "floor": "4",
        "type": "room",
        "source": "traced",
        "uv": [
          [
            0.773839,
            0.496654
          ],
          [
            0.773566,
            0.440688
          ],
          [
            0.821224,
            0.440253
          ],
          [
            0.821224,
            0.496328
          ]
        ],
        "name": "Meeting Room"
      },
      "geometry": {
        "type": "Polygon",
        "coordinates": [
          [
            [
              -123.00165130968942,
              49.249666889149495
            ],
            [
              -123.00158884146205,
              49.24966719597006
            ],
            [
              -123.0015883562508,
              49.24961368103047
            ],
            [
              -123.00165094579671,
              49.24961368103047
            ],
            [
              -123.00165130968942,
              49.249666889149495
            ]
          ]
        ]
      }
    },
    {
      "type": "Feature",
      "properties": {
        "room": "424",
        "building": "SE12",
        "floor": "4",
        "type": "room",
        "source": "traced",
        "uv": [
          [
            0.793301,
            0.522083
          ],
          [
            0.793089,
            0.496654
          ],
          [
            0.809827,
            0.496911
          ],
          [
            0.809947,
            0.532112
          ],
          [
            0.799609,
            0.532112
          ]
        ],
        "name": "Office"
      },
      "geometry": {
        "type": "Polygon",
        "coordinates": [
          [
            [
              -123.0016796933208,
              49.24964503582177
            ],
            [
              -123.00165130968942,
              49.24964527335817
            ],
            [
              -123.00165159664031,
              49.249626478367134
            ],
            [
              -123.00169088695037,
              49.249626343381294
            ],
            [
              -123.00169088695037,
              49.24963795217022
            ],
            [
              -123.0016796933208,
              49.24964503582177
            ]
          ]
        ]
      }
    },
    {
      "type": "Feature",
      "properties": {
        "room": "423",
        "building": "SE12",
        "floor": "4",
        "type": "room",
        "source": "traced",
        "uv": [
          [
            0.809947,
            0.532112
          ],
          [
            0.809827,
            0.496911
          ],
          [
            0.824733,
            0.496355
          ],
          [
            0.824733,
            0.532297
          ]
        ],
        "name": "Office"
      },
      "geometry": {
        "type": "Polygon",
        "coordinates": [
          [
            [
              -123.00169088695037,
              49.249626343381294
            ],
            [
              -123.00165159664031,
              49.249626478367134
            ],
            [
              -123.00165097626713,
              49.249609740108696
            ],
            [
              -123.00169109374164,
              49.249609740108696
            ],
            [
              -123.00169088695037,
              49.249626343381294
            ]
          ]
        ]
      }
    },
    {
      "type": "Feature",
      "properties": {
        "room": "439",
        "building": "SE12",
        "floor": "4",
        "type": "room",
        "source": "traced",
        "uv": [
          [
            0.930952,
            0.567137
          ],
          [
            0.931072,
            0.524711
          ],
          [
            0.954514,
            0.52434
          ],
          [
            0.955115,
            0.566767
          ]
        ],
        "name": "Office"
      },
      "geometry": {
        "type": "Polygon",
        "coordinates": [
          [
            [
              -123.0017299815353,
              49.24949046810448
            ],
            [
              -123.00168262637209,
              49.2494903331183
            ],
            [
              -123.00168221278986,
              49.24946401078199
            ],
            [
              -123.00172956795308,
              49.24946333585021
            ],
            [
              -123.0017299815353,
              49.24949046810448
            ]
          ]
        ]
      }
    },
    {
      "type": "Feature",
      "properties": {
        "room": "438",
        "building": "SE12",
        "floor": "4",
        "type": "room",
        "source": "traced",
        "uv": [
          [
            0.931072,
            0.524711
          ],
          [
            0.931192,
            0.479506
          ],
          [
            0.954033,
            0.47932
          ],
          [
            0.954514,
            0.52434
          ]
        ],
        "name": "Office"
      },
      "geometry": {
        "type": "Polygon",
        "coordinates": [
          [
            [
              -123.00168262637209,
              49.2494903331183
            ],
            [
              -123.00163216934237,
              49.249490198132065
            ],
            [
              -123.0016319625511,
              49.24946455072754
            ],
            [
              -123.00168221278986,
              49.24946401078199
            ],
            [
              -123.00168262637209,
              49.2494903331183
            ]
          ]
        ]
      }
    },
    {
      "type": "Feature",
      "properties": {
        "room": "437",
        "building": "SE12",
        "floor": "4",
        "type": "room",
        "source": "traced",
        "uv": [
          [
            0.931192,
            0.479506
          ],
          [
            0.931192,
            0.441341
          ],
          [
            0.953912,
            0.441341
          ],
          [
            0.954033,
            0.47932
          ]
        ],
        "name": "Office"
      },
      "geometry": {
        "type": "Polygon",
        "coordinates": [
          [
            [
              -123.00163216934237,
              49.249490198132065
            ],
            [
              -123.00158957037453,
              49.249490198132065
            ],
            [
              -123.00158957037453,
              49.249464685713804
            ],
            [
              -123.0016319625511,
              49.24946455072754
            ],
            [
              -123.00163216934237,
              49.249490198132065
            ]
          ]
        ]
      }
    },
    {
      "type": "Feature",
      "properties": {
        "room": "436",
        "building": "SE12",
        "floor": "4",
        "type": "room",
        "source": "traced",
        "uv": [
          [
            0.931192,
            0.441341
          ],
          [
            0.931192,
            0.400026
          ],
          [
            0.954273,
            0.400026
          ],
          [
            0.953912,
            0.441341
          ]
        ],
        "name": "Office"
      },
      "geometry": {
        "type": "Polygon",
        "coordinates": [
          [
            [
              -123.00158957037453,
              49.249490198132065
            ],
            [
              -123.00154345595797,
              49.249490198132065
            ],
            [
              -123.00154345595797,
              49.24946428075455
            ],
            [
              -123.00158957037453,
              49.249464685713804
            ],
            [
              -123.00158957037453,
              49.249490198132065
            ]
          ]
        ]
      }
    },
    {
      "type": "Feature",
      "properties": {
        "room": "435",
        "building": "SE12",
        "floor": "4",
        "type": "room",
        "source": "traced",
        "uv": [
          [
            0.931192,
            0.400026
          ],
          [
            0.931312,
            0.359638
          ],
          [
            0.954273,
            0.359267
          ],
          [
            0.954273,
            0.400026
          ]
        ],
        "name": "Office"
      },
      "geometry": {
        "type": "Polygon",
        "coordinates": [
          [
            [
              -123.00154345595797,
              49.249490198132065
            ],
            [
              -123.00149837549682,
              49.24949006314591
            ],
            [
              -123.0014979619146,
              49.24946428075455
            ],
            [
              -123.00154345595797,
              49.24946428075455
            ],
            [
              -123.00154345595797,
              49.249490198132065
            ]
          ]
        ]
      }
    },
    {
      "type": "Feature",
      "properties": {
        "room": "434",
        "building": "SE12",
        "floor": "4",
        "type": "room",
        "source": "traced",
        "uv": [
          [
            0.931312,
            0.359638
          ],
          [
            0.931312,
            0.317582
          ],
          [
            0.954754,
            0.316656
          ],
          [
            0.954273,
            0.359267
          ]
        ],
        "name": "Office"
      },
      "geometry": {
        "type": "Polygon",
        "coordinates": [
          [
            [
              -123.00149837549682,
              49.24949006314591
            ],
            [
              -123.00145143391582,
              49.24949006314591
            ],
            [
              -123.0014503999601,
              49.249463740809034
            ],
            [
              -123.0014979619146,
              49.24946428075455
            ],
            [
              -123.00149837549682,
              49.24949006314591
            ]
          ]
        ]
      }
    },
    {
      "type": "Feature",
      "properties": {
        "room": "431",
        "building": "SE12",
        "floor": "4",
        "type": "room",
        "source": "traced",
        "uv": [
          [
            0.954153,
            0.485064
          ],
          [
            0.954393,
            0.420035
          ],
          [
            0.975551,
            0.419664
          ],
          [
            0.976272,
            0.484693
          ]
        ],
        "name": "Women's Washroom",
        "amenity": "washroom"
      },
      "geometry": {
        "type": "Polygon",
        "coordinates": [
          [
            [
              -123.00163837307537,
              49.24946441574082
            ],
            [
              -123.00156578939729,
              49.24946414576826
            ],
            [
              -123.00156537581506,
              49.249440388160224
            ],
            [
              -123.00163795949314,
              49.24943957824178
            ],
            [
              -123.00163837307537,
              49.24946441574082
            ]
          ]
        ]
      }
    },
    {
      "type": "Feature",
      "properties": {
        "room": "432",
        "building": "SE12",
        "floor": "4",
        "type": "room",
        "source": "traced",
        "uv": [
          [
            0.954393,
            0.420035
          ],
          [
            0.954273,
            0.359267
          ],
          [
            0.975431,
            0.359267
          ],
          [
            0.975551,
            0.419664
          ]
        ],
        "name": "Kitchen"
      },
      "geometry": {
        "type": "Polygon",
        "coordinates": [
          [
            [
              -123.00156578939729,
              49.24946414576826
            ],
            [
              -123.0014979619146,
              49.24946428075455
            ],
            [
              -123.0014979619146,
              49.24944052314697
            ],
            [
              -123.00156537581506,
              49.249440388160224
            ],
            [
              -123.00156578939729,
              49.24946414576826
            ]
          ]
        ]
      }
    },
    {
      "type": "Feature",
      "properties": {
        "room": "430",
        "building": "SE12",
        "floor": "4",
        "type": "service",
        "source": "traced",
        "uv": [
          [
            0.954273,
            0.512113
          ],
          [
            0.954153,
            0.485064
          ],
          [
            0.964251,
            0.485249
          ],
          [
            0.964251,
            0.511927
          ]
        ],
        "name": "Communications"
      },
      "geometry": {
        "type": "Polygon",
        "coordinates": [
          [
            [
              -123.00166856457687,
              49.24946428075455
            ],
            [
              -123.00163837307537,
              49.24946441574082
            ],
            [
              -123.00163857986664,
              49.24945307688412
            ],
            [
              -123.00166835778595,
              49.24945307688412
            ],
            [
              -123.00166856457687,
              49.24946428075455
            ]
          ]
        ]
      }
    },
    {
      "type": "Feature",
      "properties": {
        "room": "433",
        "building": "SE12",
        "floor": "4",
        "type": "room",
        "source": "traced",
        "uv": [
          [
            0.954273,
            0.359267
          ],
          [
            0.954754,
            0.316656
          ],
          [
            0.97531,
            0.317211
          ],
          [
            0.975431,
            0.359267
          ]
        ],
        "name": "Lounge"
      },
      "geometry": {
        "type": "Polygon",
        "coordinates": [
          [
            [
              -123.0014979619146,
              49.24946428075455
            ],
            [
              -123.0014503999601,
              49.249463740809034
            ],
            [
              -123.0014510203336,
              49.249440658133324
            ],
            [
              -123.0014979619146,
              49.24944052314697
            ],
            [
              -123.0014979619146,
              49.24946428075455
            ]
          ]
        ]
      }
    },
    {
      "type": "Feature",
      "properties": {
        "room": "429",
        "building": "SE12",
        "floor": "4",
        "type": "service",
        "source": "traced",
        "uv": [
          [
            0.955115,
            0.566767
          ],
          [
            0.974589,
            0.566767
          ],
          [
            0.976272,
            0.484693
          ],
          [
            0.964251,
            0.485249
          ],
          [
            0.964251,
            0.511927
          ],
          [
            0.954273,
            0.512113
          ]
        ],
        "name": "Resources"
      },
      "geometry": {
        "type": "Polygon",
        "coordinates": [
          [
            [
              -123.00172956795308,
              49.24946333585021
            ],
            [
              -123.00172956795308,
              49.24944146805174
            ],
            [
              -123.00163795949314,
              49.24943957824178
            ],
            [
              -123.00163857986664,
              49.24945307688412
            ],
            [
              -123.00166835778595,
              49.24945307688412
            ],
            [
              -123.00166856457687,
              49.24946428075455
            ],
            [
              -123.00172956795308,
              49.24946333585021
            ]
          ]
        ]
      }
    },
    {
      "type": "Feature",
      "properties": {
        "room": "418",
        "building": "SE12",
        "floor": "4",
        "type": "room",
        "source": "traced",
        "uv": [
          [
            0.83732,
            0.565522
          ],
          [
            0.837971,
            0.44566
          ],
          [
            0.843665,
            0.44566
          ],
          [
            0.842852,
            0.420083
          ],
          [
            0.838133,
            0.419832
          ],
          [
            0.837645,
            0.315517
          ],
          [
            0.895894,
            0.315768
          ],
          [
            0.896057,
            0.566023
          ]
        ],
        "name": "Open Office"
      },
      "geometry": {
        "type": "Polygon",
        "coordinates": [
          [
            [
              -123.00172817845622,
              49.24959560680173
            ],
            [
              -123.00159439172593,
              49.2495948759958
            ],
            [
              -123.00159439172593,
              49.24958848144371
            ],
            [
              -123.00156584309332,
              49.2495893949511
            ],
            [
              -123.00156556320454,
              49.249594693294426
            ],
            [
              -123.00144912956517,
              49.24959524139902
            ],
            [
              -123.00144940945353,
              49.24952983422466
            ],
            [
              -123.00172873823334,
              49.24952965152309
            ],
            [
              -123.00172817845622,
              49.24959560680173
            ]
          ]
        ]
      }
    },
    {
      "type": "Feature",
      "properties": {
        "room": null,
        "building": "SE12",
        "floor": "4",
        "type": "hallway",
        "source": "traced",
        "uv": [
          [
            0.76042,
            0.439878
          ],
          [
            0.759604,
            0.364074
          ],
          [
            0.793239,
            0.364074
          ],
          [
            0.79349,
            0.292271
          ],
          [
            0.974399,
            0.294183
          ],
          [
            0.97531,
            0.317211
          ],
          [
            0.837645,
            0.315517
          ],
          [
            0.838133,
            0.419832
          ],
          [
            0.833956,
            0.419866
          ],
          [
            0.833594,
            0.446602
          ],
          [
            0.837971,
            0.44566
          ],
          [
            0.83732,
            0.565522
          ],
          [
            0.974589,
            0.566767
          ],
          [
            0.974154,
            0.586983
          ],
          [
            0.793237,
            0.585221
          ],
          [
            0.793301,
            0.541644
          ],
          [
            0.786531,
            0.53219
          ],
          [
            0.793301,
            0.522083
          ],
          [
            0.799609,
            0.532112
          ],
          [
            0.824733,
            0.532297
          ],
          [
            0.824733,
            0.496355
          ],
          [
            0.821224,
            0.496328
          ],
          [
            0.821224,
            0.440253
          ]
        ]
      },
      "geometry": {
        "type": "Polygon",
        "coordinates": [
          [
            [
              -123.00158793760144,
              49.24968195686941
            ],
            [
              -123.00150332667556,
              49.24968287335119
            ],
            [
              -123.00150332667556,
              49.249645105106026
            ],
            [
              -123.00142318183535,
              49.24964482283201
            ],
            [
              -123.00142531609043,
              49.24944168119103
            ],
            [
              -123.0014510203336,
              49.249440658133324
            ],
            [
              -123.00144912956517,
              49.24959524139902
            ],
            [
              -123.00156556320454,
              49.249594693294426
            ],
            [
              -123.00156560055521,
              49.24959938433514
            ],
            [
              -123.00159544310904,
              49.24959979017183
            ],
            [
              -123.00159439172593,
              49.2495948759958
            ],
            [
              -123.00172817845622,
              49.24959560680173
            ],
            [
              -123.00172956795308,
              49.24944146805174
            ],
            [
              -123.00175213313386,
              49.24944195692885
            ],
            [
              -123.00175016672192,
              49.24964510748191
            ],
            [
              -123.00170152688324,
              49.24964503582177
            ],
            [
              -123.00169097399474,
              49.24965263698047
            ],
            [
              -123.0016796933208,
              49.24964503582177
            ],
            [
              -123.00169088695037,
              49.24963795217022
            ],
            [
              -123.00169109374164,
              49.249609740108696
            ],
            [
              -123.00165097626713,
              49.249609740108696
            ],
            [
              -123.00165094579671,
              49.24961368103047
            ],
            [
              -123.0015883562508,
              49.24961368103047
            ],
            [
              -123.00158793760144,
              49.24968195686941
            ]
          ]
        ]
      }
    },
    {
      "type": "Feature",
      "properties": {
        "room": null,
        "building": "SE12",
        "floor": "4",
        "type": "hallway",
        "source": "traced",
        "uv": [
          [
            0.896057,
            0.566023
          ],
          [
            0.895894,
            0.315768
          ],
          [
            0.931312,
            0.317582
          ],
          [
            0.930952,
            0.567137
          ]
        ]
      },
      "geometry": {
        "type": "Polygon",
        "coordinates": [
          [
            [
              -123.00172873823334,
              49.24952965152309
            ],
            [
              -123.00144940945353,
              49.24952983422466
            ],
            [
              -123.00145143391582,
              49.24949006314591
            ],
            [
              -123.0017299815353,
              49.24949046810448
            ],
            [
              -123.00172873823334,
              49.24952965152309
            ]
          ]
        ]
      }
    },
    {
      "type": "Feature",
      "properties": {
        "room": null,
        "building": "SE12",
        "floor": "4",
        "type": "hallway",
        "source": "traced",
        "uv": [
          [
            0.793027,
            0.317779
          ],
          [
            0.79349,
            0.292271
          ],
          [
            0.054851,
            0.293977
          ],
          [
            0.054851,
            0.315978
          ]
        ]
      },
      "geometry": {
        "type": "Polygon",
        "coordinates": [
          [
            [
              -123.00145165391088,
              49.24964534264245
            ],
            [
              -123.00142318183535,
              49.24964482283201
            ],
            [
              -123.00142508610448,
              49.25047423641524
            ],
            [
              -123.00144964403952,
              49.25047423641524
            ],
            [
              -123.00145165391088,
              49.24964534264245
            ]
          ]
        ]
      }
    },
    {
      "type": "Feature",
      "properties": {
        "room": null,
        "building": "SE12",
        "floor": "4",
        "type": "hallway",
        "source": "traced",
        "uv": [
          [
            0.055021,
            0.56509
          ],
          [
            0.793301,
            0.564465
          ],
          [
            0.793237,
            0.585221
          ],
          [
            0.054795,
            0.587063
          ]
        ]
      },
      "geometry": {
        "type": "Polygon",
        "coordinates": [
          [
            [
              -123.00172769686976,
              49.25047404605428
            ],
            [
              -123.00172699937285,
              49.24964503582177
            ],
            [
              -123.00175016672192,
              49.24964510748191
            ],
            [
              -123.00175222262628,
              49.25047429930555
            ],
            [
              -123.00172769686976,
              49.25047404605428
            ]
          ]
        ]
      }
    },
    {
      "type": "Feature",
      "properties": {
        "room": null,
        "building": "SE12",
        "floor": "4",
        "type": "hallway",
        "source": "traced",
        "uv": [
          [
            0.055021,
            0.56509
          ],
          [
            0.054851,
            0.315978
          ],
          [
            0.074905,
            0.317018
          ],
          [
            0.074905,
            0.564194
          ]
        ]
      },
      "geometry": {
        "type": "Polygon",
        "coordinates": [
          [
            [
              -123.00172769686976,
              49.25047404605428
            ],
            [
              -123.00144964403952,
              49.25047423641524
            ],
            [
              -123.00145080431105,
              49.25045171748482
            ],
            [
              -123.00172669589426,
              49.25045171748482
            ],
            [
              -123.00172769686976,
              49.25047404605428
            ]
          ]
        ]
      }
    },
    {
      "type": "Feature",
      "properties": {
        "room": null,
        "building": "SE12",
        "floor": "4",
        "type": "hallway",
        "source": "traced",
        "uv": [
          [
            0.426815,
            0.563357
          ],
          [
            0.426641,
            0.316698
          ],
          [
            0.459201,
            0.317262
          ],
          [
            0.459027,
            0.563921
          ]
        ]
      },
      "geometry": {
        "type": "Polygon",
        "coordinates": [
          [
            [
              -123.00172576259828,
              49.25005656082001
            ],
            [
              -123.00145044713929,
              49.250056755738115
            ],
            [
              -123.00145107679275,
              49.25002019485163
            ],
            [
              -123.0017263922515,
              49.25002038976993
            ],
            [
              -123.00172576259828,
              49.25005656082001
            ]
          ]
        ]
      }
    },
    {
      "type": "Feature",
      "properties": {
        "room": null,
        "building": "SE12",
        "floor": "4",
        "type": "hallway",
        "source": "traced",
        "uv": [
          [
            0.723764,
            0.56348
          ],
          [
            0.723667,
            0.317387
          ],
          [
            0.759393,
            0.317453
          ],
          [
            0.76042,
            0.439878
          ],
          [
            0.739508,
            0.440362
          ],
          [
            0.739296,
            0.563922
          ]
        ]
      },
      "geometry": {
        "type": "Polygon",
        "coordinates": [
          [
            [
              -123.00172589917432,
              49.24972311806931
            ],
            [
              -123.00145121575578,
              49.249723226651156
            ],
            [
              -123.00145129001817,
              49.24968311088702
            ],
            [
              -123.00158793760144,
              49.24968195686941
            ],
            [
              -123.00158847756936,
              49.2497054392698
            ],
            [
              -123.00172639290595,
              49.249705676805576
            ],
            [
              -123.00172589917432,
              49.24972311806931
            ]
          ]
        ]
      }
    }
  ]
}