{
  "type": "FeatureCollection",
  "features": [
    {
      "type": "Feature",
      "properties": {
        "room": "4002",
        "building": "SW1",
        "floor": "4",
        "type": "room",
        "source": "traced",
        "uv": [
          [
            0.0438,
            0.444848
          ],
          [
            0.042662,
            0.310787
          ],
          [
            0.157837,
            0.311669
          ],
          [
            0.156984,
            0.351799
          ],
          [
            0.170919,
            0.351799
          ],
          [
            0.170919,
            0.43691
          ],
          [
            0.155562,
            0.43691
          ],
          [
            0.155847,
            0.44573
          ]
        ],
        "name": "Life Sciences Lab"
      },
      "geometry": {
        "type": "Polygon",
        "coordinates": [
          [
            [
              -123.00261194492569,
              49.2514445489828
            ],
            [
              -123.0024691727441,
              49.25144577572215
            ],
            [
              -123.00247011205579,
              49.25132161956674
            ],
            [
              -123.0025128496726,
              49.25132253908226
            ],
            [
              -123.0025128496726,
              49.25130751745408
            ],
            [
              -123.00260349112051,
              49.25130751745408
            ],
            [
              -123.00260349112051,
              49.25132407196746
            ],
            [
              -123.00261288423738,
              49.25132376474363
            ],
            [
              -123.00261194492569,
              49.2514445489828
            ]
          ]
        ]
      }
    },
    {
      "type": "Feature",
      "properties": {
        "room": "4005",
        "building": "SW1",
        "floor": "4",
        "type": "room",
        "source": "traced",
        "uv": [
          [
            0.043732,
            0.471307
          ],
          [
            0.043485,
            0.602225
          ],
          [
            0.157327,
            0.602941
          ],
          [
            0.155941,
            0.470093
          ]
        ],
        "name": "Life Sciences Lab"
      },
      "geometry": {
        "type": "Polygon",
        "coordinates": [
          [
            [
              -123.00264012328901,
              49.25144462230563
            ],
            [
              -123.00277954818208,
              49.25144488856347
            ],
            [
              -123.00278031088106,
              49.25132216975902
            ],
            [
              -123.00263883027645,
              49.25132366329635
            ],
            [
              -123.00264012328901,
              49.25144462230563
            ]
          ]
        ]
      }
    },
    {
      "type": "Feature",
      "properties": {
        "room": "4009",
        "building": "SW1",
        "floor": "4",
        "type": "room",
        "source": "traced",
        "uv": [
          [
            0.157327,
            0.602941
          ],
          [
            0.155941,
            0.470093
          ],
          [
            0.271083,
            0.470678
          ],
          [
            0.270852,
            0.604601
          ]
        ],
        "name": "Life Sciences Lab"
      },
      "geometry": {
        "type": "Polygon",
        "coordinates": [
          [
            [
              -123.00278031088106,
              49.25132216975902
            ],
            [
              -123.00263883027645,
              49.25132366329635
            ],
            [
              -123.00263945386041,
              49.25119954329614
            ],
            [
              -123.00278207851287,
              49.25119979221955
            ],
            [
              -123.00278031088106,
              49.25132216975902
            ]
          ]
        ]
      }
    },
    {
      "type": "Feature",
      "properties": {
        "room": "S420",
        "building": "SW1",
        "floor": "4",
        "type": "stairs",
        "source": "traced",
        "uv": [
          [
            0.271118,
            0.573994
          ],
          [
            0.271687,
            0.479672
          ],
          [
            0.308637,
            0.480259
          ],
          [
            0.309205,
            0.575169
          ]
        ],
        "name": "NW Stairs"
      },
      "geometry": {
        "type": "Polygon",
        "coordinates": [
          [
            [
              -123.00274948233475,
              49.251199504813314
            ],
            [
              -123.00264903131435,
              49.251198892020966
            ],
            [
              -123.0026496571773,
              49.25115906049629
            ],
            [
              -123.00275073406068,
              49.25115844770343
            ],
            [
              -123.00274948233475,
              49.251199504813314
            ]
          ]
        ]
      }
    },
    {
      "type": "Feature",
      "properties": {
        "room": "S400",
        "building": "SW1",
        "floor": "4",
        "type": "stairs",
        "source": "traced",
        "uv": [
          [
            0.015572,
            0.480657
          ],
          [
            0.015892,
            0.373888
          ],
          [
            0.042792,
            0.372894
          ],
          [
            0.043113,
            0.48016
          ]
        ],
        "name": "North Stairs"
      },
      "geometry": {
        "type": "Polygon",
        "coordinates": [
          [
            [
              -123.00265008031533,
              49.25147497834158
            ],
            [
              -123.00253637367399,
              49.25147463312814
            ],
            [
              -123.00253531593796,
              49.25144563518572
            ],
            [
              -123.00264955144732,
              49.251445289972054
            ],
            [
              -123.00265008031533,
              49.25147497834158
            ]
          ]
        ]
      }
    },
    {
      "type": "Feature",
      "properties": {
        "room": "S450",
        "building": "SW1",
        "floor": "4",
        "type": "stairs",
        "source": "traced",
        "uv": [
          [
            0.68798,
            0.57488
          ],
          [
            0.688214,
            0.479914
          ],
          [
            0.725146,
            0.480276
          ],
          [
            0.72538,
            0.574155
          ]
        ],
        "name": "SW Stairs"
      },
      "geometry": {
        "type": "Polygon",
        "coordinates": [
          [
            [
              -123.00275042607225,
              49.25075013647367
            ],
            [
              -123.00264928912681,
              49.25074988449995
            ],
            [
              -123.00264967514563,
              49.25071007263014
            ],
            [
              -123.0027496540342,
              49.2507098206562
            ],
            [
              -123.00275042607225,
              49.25075013647367
            ]
          ]
        ]
      }
    },
    {
      "type": "Feature",
      "properties": {
        "room": "S407",
        "building": "SW1",
        "floor": "4",
        "type": "stairs",
        "source": "traced",
        "uv": [
          [
            0.801112,
            0.432987
          ],
          [
            0.801378,
            0.3608
          ],
          [
            0.822393,
            0.3608
          ],
          [
            0.822393,
            0.432987
          ]
        ],
        "name": "SE Stairs"
      },
      "geometry": {
        "type": "Polygon",
        "coordinates": [
          [
            [
              -123.00259931267834,
              49.25062818288362
            ],
            [
              -123.00252243552637,
              49.25062789613125
            ],
            [
              -123.00252243552637,
              49.25060524268565
            ],
            [
              -123.00259931267834,
              49.25060524268565
            ],
            [
              -123.00259931267834,
              49.25062818288362
            ]
          ]
        ]
      }
    },
    {
      "type": "Feature",
      "properties": {
        "room": "S490",
        "building": "SW1",
        "floor": "4",
        "type": "stairs",
        "source": "traced",
        "uv": [
          [
            0.952483,
            0.440519
          ],
          [
            0.952749,
            0.373695
          ],
          [
            0.982277,
            0.374107
          ],
          [
            0.981478,
            0.438869
          ]
        ],
        "name": "South Stairs"
      },
      "geometry": {
        "type": "Polygon",
        "coordinates": [
          [
            [
              -123.00260733454007,
              49.25046500801895
            ],
            [
              -123.00253616826188,
              49.25046472126559
            ],
            [
              -123.00253660756005,
              49.25043289163193
            ],
            [
              -123.0026055773478,
              49.250433751892444
            ],
            [
              -123.00260733454007,
              49.25046500801895
            ]
          ]
        ]
      }
    },
    {
      "type": "Feature",
      "properties": {
        "room": "4076",
        "building": "SW1",
        "floor": "4",
        "type": "room",
        "source": "traced",
        "uv": [
          [
            0.876375,
            0.432631
          ],
          [
            0.876617,
            0.311953
          ],
          [
            0.954198,
            0.311953
          ],
          [
            0.954427,
            0.372872
          ],
          [
            0.952749,
            0.373695
          ],
          [
            0.952425,
            0.436577
          ],
          [
            0.914422,
            0.436333
          ],
          [
            0.914422,
            0.436333
          ],
          [
            0.914439,
            0.432733
          ]
        ],
        "name": "Life Sciences Lab"
      },
      "geometry": {
        "type": "Polygon",
        "coordinates": [
          [
            [
              -123.00259893433149,
              49.250547051284116
            ],
            [
              -123.00247041448316,
              49.25054678993942
            ],
            [
              -123.00247041448316,
              49.250463159558336
            ],
            [
              -123.00253529170658,
              49.25046291332575
            ],
            [
              -123.00253616826188,
              49.25046472126559
            ],
            [
              -123.0026031368667,
              49.25046507053182
            ],
            [
              -123.00260287616177,
              49.250506037604
            ],
            [
              -123.00260287616177,
              49.250506037604
            ],
            [
              -123.00259904284968,
              49.250506018604
            ],
            [
              -123.00259893433149,
              49.250547051284116
            ]
          ]
        ]
      }
    },
    {
      "type": "Feature",
      "properties": {
        "room": "4067",
        "building": "SW1",
        "floor": "4",
        "type": "room",
        "source": "traced",
        "uv": [
          [
            0.91467,
            0.539007
          ],
          [
            0.91467,
            0.475914
          ],
          [
            0.953086,
            0.476234
          ],
          [
            0.952879,
            0.539007
          ]
        ],
        "name": "Life Sciences Lab"
      },
      "geometry": {
        "type": "Polygon",
        "coordinates": [
          [
            [
              -123.00271222273146,
              49.25050577036822
            ],
            [
              -123.00264502957465,
              49.25050577036822
            ],
            [
              -123.00264537065661,
              49.25046435887734
            ],
            [
              -123.00271222273146,
              49.25046458151982
            ],
            [
              -123.00271222273146,
              49.25050577036822
            ]
          ]
        ]
      }
    },
    {
      "type": "Feature",
      "properties": {
        "room": "4065",
        "building": "SW1",
        "floor": "4",
        "type": "room",
        "source": "traced",
        "uv": [
          [
            0.801147,
            0.602738
          ],
          [
            0.800733,
            0.539645
          ],
          [
            0.952879,
            0.539007
          ],
          [
            0.953158,
            0.60498
          ]
        ],
        "name": "Life Sciences Lab"
      },
      "geometry": {
        "type": "Polygon",
        "coordinates": [
          [
            [
              -123.0027800948468,
              49.25062814580343
            ],
            [
              -123.00271290168997,
              49.25062859108692
            ],
            [
              -123.00271222273146,
              49.25046458151982
            ],
            [
              -123.00278248242091,
              49.25046428118236
            ],
            [
              -123.0027800948468,
              49.25062814580343
            ]
          ]
        ]
      }
    },
    {
      "type": "Feature",
      "properties": {
        "room": "4061",
        "building": "SW1",
        "floor": "4",
        "type": "service",
        "source": "traced",
        "uv": [
          [
            0.800902,
            0.521302
          ],
          [
            0.801108,
            0.480308
          ],
          [
            0.857493,
            0.480308
          ],
          [
            0.857906,
            0.538597
          ],
          [
            0.812468,
            0.538917
          ],
          [
            0.812261,
            0.520982
          ]
        ],
        "name": "Supply Closet"
      },
      "geometry": {
        "type": "Polygon",
        "coordinates": [
          [
            [
              -123.0026933670666,
              49.25062840986169
            ],
            [
              -123.0026497085686,
              49.250628187219945
            ],
            [
              -123.0026497085686,
              49.250567405976966
            ],
            [
              -123.00271178549522,
              49.250566960692936
            ],
            [
              -123.00271212657717,
              49.25061594192053
            ],
            [
              -123.00269302598463,
              49.2506161645623
            ],
            [
              -123.0026933670666,
              49.25062840986169
            ]
          ]
        ]
      }
    },
    {
      "type": "Feature",
      "properties": {
        "room": "4063",
        "building": "SW1",
        "floor": "4",
        "type": "service",
        "source": "traced",
        "uv": [
          [
            0.857906,
            0.538597
          ],
          [
            0.857493,
            0.480308
          ],
          [
            0.91491,
            0.480308
          ],
          [
            0.91467,
            0.539007
          ]
        ],
        "name": "Supply Closet"
      },
      "geometry": {
        "type": "Polygon",
        "coordinates": [
          [
            [
              -123.00271178549522,
              49.250566960692936
            ],
            [
              -123.0026497085686,
              49.250567405976966
            ],
            [
              -123.0026497085686,
              49.25050551144764
            ],
            [
              -123.00271222273146,
              49.25050577036822
            ],
            [
              -123.00271178549522,
              49.250566960692936
            ]
          ]
        ]
      }
    },
    {
      "type": "Feature",
      "properties": {
        "room": "4057",
        "building": "SW1",
        "floor": "4",
        "type": "service",
        "source": "traced",
        "uv": [
          [
            0.725993,
            0.603591
          ],
          [
            0.725741,
            0.539192
          ],
          [
            0.800733,
            0.539645
          ],
          [
            0.801147,
            0.602738
          ]
        ],
        "name": "Supply Closet"
      },
      "geometry": {
        "type": "Polygon",
        "coordinates": [
          [
            [
              -123.00278100244265,
              49.250709160128366
            ],
            [
              -123.0027124194485,
              49.25070943144701
            ],
            [
              -123.00271290168997,
              49.25062859108692
            ],
            [
              -123.0027800948468,
              49.25062814580343
            ],
            [
              -123.00278100244265,
              49.250709160128366
            ]
          ]
        ]
      }
    },
    {
      "type": "Feature",
      "properties": {
        "room": "4053",
        "building": "SW1",
        "floor": "4",
        "type": "service",
        "source": "traced",
        "uv": [
          [
            0.725741,
            0.539192
          ],
          [
            0.725146,
            0.480276
          ],
          [
            0.763495,
            0.480258
          ],
          [
            0.763495,
            0.538802
          ]
        ],
        "name": "Supply Closet"
      },
      "geometry": {
        "type": "Polygon",
        "coordinates": [
          [
            [
              -123.0027124194485,
              49.25070943144701
            ],
            [
              -123.00264967514563,
              49.25071007263014
            ],
            [
              -123.00264965561749,
              49.250668733634484
            ],
            [
              -123.00271200379404,
              49.250668733634484
            ],
            [
              -123.0027124194485,
              49.25070943144701
            ]
          ]
        ]
      }
    },
    {
      "type": "Feature",
      "properties": {
        "room": "4055",
        "building": "SW1",
        "floor": "4",
        "type": "room",
        "source": "traced",
        "uv": [
          [
            0.763495,
            0.538802
          ],
          [
            0.763675,
            0.475488
          ],
          [
            0.800845,
            0.475748
          ],
          [
            0.800733,
            0.539645
          ]
        ],
        "name": "Lobby"
      },
      "geometry": {
        "type": "Polygon",
        "coordinates": [
          [
            [
              -123.00271200379404,
              49.250668733634484
            ],
            [
              -123.00264457593866,
              49.25066853937906
            ],
            [
              -123.00264485244146,
              49.25062847114188
            ],
            [
              -123.00271290168997,
              49.25062859108692
            ],
            [
              -123.00271200379404,
              49.250668733634484
            ]
          ]
        ]
      }
    },
    {
      "type": "Feature",
      "properties": {
        "room": null,
        "building": "SW1",
        "floor": "4",
        "type": "hallway",
        "source": "traced",
        "uv": [
          [
            0.800733,
            0.539645
          ],
          [
            0.800902,
            0.521302
          ],
          [
            0.812261,
            0.520982
          ],
          [
            0.812468,
            0.538917
          ]
        ]
      },
      "geometry": {
        "type": "Polygon",
        "coordinates": [
          [
            [
              -123.00271290168997,
              49.25062859108692
            ],
            [
              -123.0026933670666,
              49.25062840986169
            ],
            [
              -123.00269302598463,
              49.2506161645623
            ],
            [
              -123.00271212657717,
              49.25061594192053
            ],
            [
              -123.00271290168997,
              49.25062859108692
            ]
          ]
        ]
      }
    },
    {
      "type": "Feature",
      "properties": {
        "room": "4072",
        "building": "SW1",
        "floor": "4",
        "type": "room",
        "source": "traced",
        "uv": [
          [
            0.822393,
            0.432987
          ],
          [
            0.822759,
            0.345252
          ],
          [
            0.826063,
            0.344932
          ],
          [
            0.826063,
            0.311624
          ],
          [
            0.876617,
            0.311953
          ],
          [
            0.876375,
            0.432631
          ]
        ],
        "name": "Life Sciences Lab"
      },
      "geometry": {
        "type": "Polygon",
        "coordinates": [
          [
            [
              -123.00259931267834,
              49.25060524268565
            ],
            [
              -123.00250587745839,
              49.25060484823709
            ],
            [
              -123.00250553637608,
              49.25060128596684
            ],
            [
              -123.00247006384669,
              49.25060128596684
            ],
            [
              -123.00247041448316,
              49.25054678993942
            ],
            [
              -123.00259893433149,
              49.250547051284116
            ],
            [
              -123.00259931267834,
              49.25060524268565
            ]
          ]
        ]
      }
    },
    {
      "type": "Feature",
      "properties": {
        "room": "4060",
        "building": "SW1",
        "floor": "4",
        "type": "room",
        "source": "traced",
        "uv": [
          [
            0.700295,
            0.436787
          ],
          [
            0.700295,
            0.311561
          ],
          [
            0.762669,
            0.312202
          ],
          [
            0.762875,
            0.436787
          ]
        ],
        "name": "Classroom"
      },
      "geometry": {
        "type": "Polygon",
        "coordinates": [
          [
            [
              -123.00260336027236,
              49.25073686190075
            ],
            [
              -123.00246999720427,
              49.25073686190075
            ],
            [
              -123.00247067936857,
              49.25066962418583
            ],
            [
              -123.00260336027236,
              49.25066940154426
            ],
            [
              -123.00260336027236,
              49.25073686190075
            ]
          ]
        ]
      }
    },
    {
      "type": "Feature",
      "properties": {
        "room": "4056",
        "building": "SW1",
        "floor": "4",
        "type": "room",
        "source": "traced",
        "uv": [
          [
            0.662697,
            0.437501
          ],
          [
            0.662904,
            0.311634
          ],
          [
            0.700295,
            0.311561
          ],
          [
            0.700295,
            0.436787
          ]
        ],
        "name": "Office"
      },
      "geometry": {
        "type": "Polygon",
        "coordinates": [
          [
            [
              -123.00260412041504,
              49.25077739135193
            ],
            [
              -123.00247007518303,
              49.25077716871087
            ],
            [
              -123.00246999720427,
              49.25073686190075
            ],
            [
              -123.00260336027236,
              49.25073686190075
            ],
            [
              -123.00260412041504,
              49.25077739135193
            ]
          ]
        ]
      }
    },
    {
      "type": "Feature",
      "properties": {
        "room": "4054",
        "building": "SW1",
        "floor": "4",
        "type": "room",
        "source": "traced",
        "uv": [
          [
            0.611588,
            0.344961
          ],
          [
            0.611588,
            0.310692
          ],
          [
            0.662904,
            0.311634
          ],
          [
            0.662189,
            0.345601
          ]
        ],
        "name": "Staff Room"
      },
      "geometry": {
        "type": "Polygon",
        "coordinates": [
          [
            [
              -123.00250556693302,
              49.25083248634502
            ],
            [
              -123.00246907115738,
              49.25083248634502
            ],
            [
              -123.00247007518303,
              49.25077716871087
            ],
            [
              -123.00250624909734,
              49.25077793930487
            ],
            [
              -123.00250556693302,
              49.25083248634502
            ]
          ]
        ]
      }
    },
    {
      "type": "Feature",
      "properties": {
        "room": "4045",
        "building": "SW1",
        "floor": "4",
        "type": "room",
        "source": "traced",
        "uv": [
          [
            0.611962,
            0.603053
          ],
          [
            0.611732,
            0.480689
          ],
          [
            0.688214,
            0.479914
          ],
          [
            0.68766,
            0.602697
          ]
        ],
        "name": "Classroom"
      },
      "geometry": {
        "type": "Polygon",
        "coordinates": [
          [
            [
              -123.00278043018162,
              49.25083208304352
            ],
            [
              -123.00265011444205,
              49.25083233032089
            ],
            [
              -123.00264928912681,
              49.25074988449995
            ],
            [
              -123.00278005135685,
              49.25075048142392
            ],
            [
              -123.00278043018162,
              49.25083208304352
            ]
          ]
        ]
      }
    },
    {
      "type": "Feature",
      "properties": {
        "room": "4035",
        "building": "SW1",
        "floor": "4",
        "type": "room",
        "source": "traced",
        "uv": [
          [
            0.549049,
            0.602684
          ],
          [
            0.54882,
            0.480319
          ],
          [
            0.611732,
            0.480689
          ],
          [
            0.611962,
            0.603053
          ]
        ],
        "name": "Classroom"
      },
      "geometry": {
        "type": "Polygon",
        "coordinates": [
          [
            [
              -123.00278003680828,
              49.25089990160507
            ],
            [
              -123.0026497210687,
              49.25090014888215
            ],
            [
              -123.00265011444205,
              49.25083233032089
            ],
            [
              -123.00278043018162,
              49.25083208304352
            ],
            [
              -123.00278003680828,
              49.25089990160507
            ]
          ]
        ]
      }
    },
    {
      "type": "Feature",
      "properties": {
        "room": "4040",
        "building": "SW1",
        "floor": "4",
        "type": "room",
        "source": "traced",
        "uv": [
          [
            0.536591,
            0.43693
          ],
          [
            0.536779,
            0.312
          ],
          [
            0.611588,
            0.310692
          ],
          [
            0.611696,
            0.437514
          ]
        ],
        "name": "Classroom"
      },
      "geometry": {
        "type": "Polygon",
        "coordinates": [
          [
            [
              -123.00260351280173,
              49.25091333147972
            ],
            [
              -123.00247046474928,
              49.250913128566594
            ],
            [
              -123.00246907115738,
              49.25083248634502
            ],
            [
              -123.00260413452182,
              49.25083236908594
            ],
            [
              -123.00260351280173,
              49.25091333147972
            ]
          ]
        ]
      }
    },
    {
      "type": "Feature",
      "properties": {
        "room": "4420",
        "building": "SW1",
        "floor": "4",
        "type": "room",
        "source": "traced",
        "uv": [
          [
            0.509096,
            0.295697
          ],
          [
            0.509096,
            0.243448
          ],
          [
            0.534696,
            0.243156
          ],
          [
            0.535261,
            0.295405
          ]
        ],
        "name": "Men's Washroom",
        "amenity": "washroom"
      },
      "geometry": {
        "type": "Polygon",
        "coordinates": [
          [
            [
              -123.00245310233123,
              49.25094296960617
            ],
            [
              -123.00239745840264,
              49.25094296960617
            ],
            [
              -123.00239714754275,
              49.25091537343303
            ],
            [
              -123.00245279147134,
              49.250914764693874
            ],
            [
              -123.00245310233123,
              49.25094296960617
            ]
          ]
        ]
      }
    },
    {
      "type": "Feature",
      "properties": {
        "room": "4410",
        "building": "SW1",
        "floor": "4",
        "type": "room",
        "source": "traced",
        "uv": [
          [
            0.498555,
            0.326346
          ],
          [
            0.498743,
            0.295405
          ],
          [
            0.535261,
            0.295405
          ],
          [
            0.535073,
            0.32693
          ]
        ],
        "name": "Men's Washroom",
        "amenity": "washroom"
      },
      "geometry": {
        "type": "Polygon",
        "coordinates": [
          [
            [
              -123.00248574262432,
              49.25095433273174
            ],
            [
              -123.00245279147134,
              49.25095412981884
            ],
            [
              -123.00245279147134,
              49.250914764693874
            ],
            [
              -123.00248636434443,
              49.250914967606946
            ],
            [
              -123.00248574262432,
              49.25095433273174
            ]
          ]
        ]
      }
    },
    {
      "type": "Feature",
      "properties": {
        "room": "4216",
        "building": "SW1",
        "floor": "4",
        "type": "service",
        "source": "traced",
        "uv": [
          [
            0.477473,
            0.291319
          ],
          [
            0.477473,
            0.274389
          ],
          [
            0.485379,
            0.274681
          ],
          [
            0.485191,
            0.24374
          ],
          [
            0.509096,
            0.243448
          ],
          [
            0.50872,
            0.290735
          ]
        ],
        "name": "Storage"
      },
      "geometry": {
        "type": "Polygon",
        "coordinates": [
          [
            [
              -123.00244843943221,
              49.25097705897457
            ],
            [
              -123.00243040955561,
              49.25097705897457
            ],
            [
              -123.00243072041584,
              49.25096853663456
            ],
            [
              -123.00239776926254,
              49.25096873954786
            ],
            [
              -123.00239745840264,
              49.25094296960617
            ],
            [
              -123.00244781771211,
              49.25094337543206
            ],
            [
              -123.00244843943221,
              49.25097705897457
            ]
          ]
        ]
      }
    },
    {
      "type": "Feature",
      "properties": {
        "room": "4220",
        "building": "SW1",
        "floor": "4",
        "type": "room",
        "source": "traced",
        "uv": [
          [
            0.461661,
            0.274973
          ],
          [
            0.461097,
            0.195286
          ],
          [
            0.534696,
            0.196162
          ],
          [
            0.534696,
            0.243156
          ],
          [
            0.485191,
            0.24374
          ],
          [
            0.485379,
            0.274681
          ]
        ],
        "name": "Women's Washroom",
        "amenity": "washroom"
      },
      "geometry": {
        "type": "Polygon",
        "coordinates": [
          [
            [
              -123.00243103127573,
              49.250994103650186
            ],
            [
              -123.00234616651319,
              49.250994712388405
            ],
            [
              -123.00234709909284,
              49.25091537343303
            ],
            [
              -123.00239714754275,
              49.25091537343303
            ],
            [
              -123.00239776926254,
              49.25096873954786
            ],
            [
              -123.00243072041584,
              49.25096853663456
            ],
            [
              -123.00243103127573,
              49.250994103650186
            ]
          ]
        ]
      }
    },
    {
      "type": "Feature",
      "properties": {
        "room": "4210",
        "building": "SW1",
        "floor": "4",
        "type": "room",
        "source": "traced",
        "uv": [
          [
            0.477374,
            0.326465
          ],
          [
            0.477473,
            0.291319
          ],
          [
            0.498268,
            0.291438
          ],
          [
            0.498555,
            0.326346
          ]
        ],
        "name": "Women's Washroom",
        "amenity": "washroom"
      },
      "geometry": {
        "type": "Polygon",
        "coordinates": [
          [
            [
              -123.00248586954115,
              49.2509771658319
            ],
            [
              -123.00244843943221,
              49.25097705897457
            ],
            [
              -123.00244856634907,
              49.25095464250157
            ],
            [
              -123.00248574262432,
              49.25095433273174
            ],
            [
              -123.00248586954115,
              49.2509771658319
            ]
          ]
        ]
      }
    },
    {
      "type": "Feature",
      "properties": {
        "room": "4015",
        "building": "SW1",
        "floor": "4",
        "type": "room",
        "source": "traced",
        "uv": [
          [
            0.309398,
            0.603182
          ],
          [
            0.308637,
            0.480259
          ],
          [
            0.43511,
            0.480051
          ],
          [
            0.434733,
            0.605273
          ]
        ],
        "name": "Life Sciences Lab"
      },
      "geometry": {
        "type": "Polygon",
        "coordinates": [
          [
            [
              -123.00278056691084,
              49.25115824056047
            ],
            [
              -123.0026496571773,
              49.25115906049629
            ],
            [
              -123.0026494353206,
              49.25102272537674
            ],
            [
              -123.00278279423293,
              49.251023131202004
            ],
            [
              -123.00278056691084,
              49.25115824056047
            ]
          ]
        ]
      }
    },
    {
      "type": "Feature",
      "properties": {
        "room": "4034",
        "building": "SW1",
        "floor": "4",
        "type": "room",
        "source": "traced",
        "uv": [
          [
            0.341263,
            0.436652
          ],
          [
            0.341263,
            0.399787
          ],
          [
            0.333815,
            0.399787
          ],
          [
            0.333815,
            0.31051
          ],
          [
            0.459844,
            0.311398
          ],
          [
            0.459558,
            0.437541
          ]
        ],
        "name": "Life Sciences Lab"
      },
      "geometry": {
        "type": "Polygon",
        "coordinates": [
          [
            [
              -123.00260321662083,
              49.25112389080303
            ],
            [
              -123.00256395562721,
              49.25112389080303
            ],
            [
              -123.00256395562721,
              49.25113191866683
            ],
            [
              -123.00246887779917,
              49.25113191866683
            ],
            [
              -123.00246982384733,
              49.25099606233604
            ],
            [
              -123.00260416266899,
              49.25099637110114
            ],
            [
              -123.00260321662083,
              49.25112389080303
            ]
          ]
        ]
      }
    },
    {
      "type": "Feature",
      "properties": {
        "room": "4050",
        "building": "SW1",
        "floor": "4",
        "type": "service",
        "source": "traced",
        "uv": [
          [
            0.612102,
            0.418844
          ],
          [
            0.611588,
            0.344961
          ],
          [
            0.63686,
            0.34606
          ],
          [
            0.637118,
            0.418844
          ]
        ],
        "name": "Supply Closet"
      },
      "geometry": {
        "type": "Polygon",
        "coordinates": [
          [
            [
              -123.00258425086332,
              49.25083193146514
            ],
            [
              -123.00250556693302,
              49.25083248634502
            ],
            [
              -123.00250673778689,
              49.25080524316101
            ],
            [
              -123.00258425086332,
              49.25080496515719
            ],
            [
              -123.00258425086332,
              49.25083193146514
            ]
          ]
        ]
      }
    },
    {
      "type": "Feature",
      "properties": {
        "room": "4059",
        "building": "SW1",
        "floor": "4",
        "type": "service",
        "source": "traced",
        "uv": [
          [
            0.637118,
            0.378853
          ],
          [
            0.63686,
            0.34606
          ],
          [
            0.662189,
            0.345601
          ],
          [
            0.662134,
            0.378453
          ]
        ],
        "name": "Storage"
      },
      "geometry": {
        "type": "Polygon",
        "coordinates": [
          [
            [
              -123.00254166126103,
              49.25080496515719
            ],
            [
              -123.00250673778689,
              49.25080524316101
            ],
            [
              -123.00250624909734,
              49.25077793930487
            ],
            [
              -123.00254123536507,
              49.250777998835076
            ],
            [
              -123.00254166126103,
              49.25080496515719
            ]
          ]
        ]
      }
    },
    {
      "type": "Feature",
      "properties": {
        "room": "4052",
        "building": "SW1",
        "floor": "4",
        "type": "service",
        "source": "traced",
        "uv": [
          [
            0.611696,
            0.437514
          ],
          [
            0.612102,
            0.418844
          ],
          [
            0.637118,
            0.418844
          ],
          [
            0.637118,
            0.378853
          ],
          [
            0.662134,
            0.378453
          ],
          [
            0.662697,
            0.437501
          ]
        ],
        "name": "Storage"
      },
      "geometry": {
        "type": "Polygon",
        "coordinates": [
          [
            [
              -123.00260413452182,
              49.25083236908594
            ],
            [
              -123.00258425086332,
              49.25083193146514
            ],
            [
              -123.00258425086332,
              49.25080496515719
            ],
            [
              -123.00254166126103,
              49.25080496515719
            ],
            [
              -123.00254123536507,
              49.250777998835076
            ],
            [
              -123.00260412041504,
              49.25077739135193
            ],
            [
              -123.00260413452182,
              49.25083236908594
            ]
          ]
        ]
      }
    },
    {
      "type": "Feature",
      "properties": {
        "room": "4025",
        "building": "SW1",
        "floor": "4",
        "type": "service",
        "source": "traced",
        "uv": [
          [
            0.498546,
            0.54004
          ],
          [
            0.49803,
            0.480053
          ],
          [
            0.54882,
            0.480319
          ],
          [
            0.548577,
            0.540839
          ]
        ],
        "name": "Supply Closet"
      },
      "geometry": {
        "type": "Polygon",
        "coordinates": [
          [
            [
              -123.00271332194521,
              49.250954342396085
            ],
            [
              -123.00264943754175,
              49.250954898400806
            ],
            [
              -123.0026497210687,
              49.25090014888215
            ],
            [
              -123.00271417373759,
              49.25090040989912
            ],
            [
              -123.00271332194521,
              49.250954342396085
            ]
          ]
        ]
      }
    },
    {
      "type": "Feature",
      "properties": {
        "room": "4033",
        "building": "SW1",
        "floor": "4",
        "type": "service",
        "source": "traced",
        "uv": [
          [
            0.499062,
            0.602426
          ],
          [
            0.498546,
            0.54004
          ],
          [
            0.548577,
            0.540839
          ],
          [
            0.549049,
            0.602684
          ]
        ],
        "name": "Supply Closet"
      },
      "geometry": {
        "type": "Polygon",
        "coordinates": [
          [
            [
              -123.00277976172485,
              49.250953786391335
            ],
            [
              -123.00271332194521,
              49.250954342396085
            ],
            [
              -123.00271417373759,
              49.25090040989912
            ],
            [
              -123.00278003680828,
              49.25089990160507
            ],
            [
              -123.00277976172485,
              49.250953786391335
            ]
          ]
        ]
      }
    },
    {
      "type": "Feature",
      "properties": {
        "room": "4023",
        "building": "SW1",
        "floor": "4",
        "type": "service",
        "source": "traced",
        "uv": [
          [
            0.434733,
            0.605273
          ],
          [
            0.435442,
            0.51934
          ],
          [
            0.477478,
            0.51934
          ],
          [
            0.47851,
            0.541335
          ],
          [
            0.484957,
            0.541735
          ],
          [
            0.484699,
            0.603321
          ]
        ],
        "name": "Supply Closet"
      },
      "geometry": {
        "type": "Polygon",
        "coordinates": [
          [
            [
              -123.00278279423293,
              49.251023131202004
            ],
            [
              -123.00269127756624,
              49.251022367675034
            ],
            [
              -123.00269127756624,
              49.25097705332436
            ],
            [
              -123.00271470184764,
              49.250975941315374
            ],
            [
              -123.0027151277436,
              49.250968991257565
            ],
            [
              -123.00278071573135,
              49.250969269259826
            ],
            [
              -123.00278279423293,
              49.251023131202004
            ]
          ]
        ]
      }
    },
    {
      "type": "Feature",
      "properties": {
        "room": "4019",
        "building": "SW1",
        "floor": "4",
        "type": "service",
        "source": "traced",
        "uv": [
          [
            0.435442,
            0.51934
          ],
          [
            0.43511,
            0.480051
          ],
          [
            0.478252,
            0.480549
          ],
          [
            0.477478,
            0.51934
          ]
        ],
        "name": "Storage"
      },
      "geometry": {
        "type": "Polygon",
        "coordinates": [
          [
            [
              -123.00269127756624,
              49.251022367675034
            ],
            [
              -123.0026494353206,
              49.25102272537674
            ],
            [
              -123.00264996565227,
              49.25097621931761
            ],
            [
              -123.00269127756624,
              49.25097705332436
            ],
            [
              -123.00269127756624,
              49.251022367675034
            ]
          ]
        ]
      }
    },
    {
      "type": "Feature",
      "properties": {
        "room": null,
        "building": "SW1",
        "floor": "4",
        "type": "hallway",
        "source": "traced",
        "uv": [
          [
            0.478252,
            0.480549
          ],
          [
            0.49803,
            0.480053
          ],
          [
            0.499062,
            0.602426
          ],
          [
            0.484699,
            0.603321
          ],
          [
            0.484957,
            0.541735
          ],
          [
            0.47851,
            0.541335
          ],
          [
            0.477478,
            0.51934
          ]
        ]
      },
      "geometry": {
        "type": "Polygon",
        "coordinates": [
          [
            [
              -123.00264996565227,
              49.25097621931761
            ],
            [
              -123.00264943754175,
              49.250954898400806
            ],
            [
              -123.00277976172485,
              49.250953786391335
            ],
            [
              -123.00278071573135,
              49.250969269259826
            ],
            [
              -123.0027151277436,
              49.250968991257565
            ],
            [
              -123.00271470184764,
              49.250975941315374
            ],
            [
              -123.00269127756624,
              49.25097705332436
            ],
            [
              -123.00264996565227,
              49.25097621931761
            ]
          ]
        ]
      }
    },
    {
      "type": "Feature",
      "properties": {
        "room": "4030",
        "building": "SW1",
        "floor": "4",
        "type": "room",
        "source": "traced",
        "uv": [
          [
            0.309109,
            0.437157
          ],
          [
            0.309557,
            0.381612
          ],
          [
            0.333735,
            0.381959
          ],
          [
            0.333815,
            0.399787
          ],
          [
            0.341263,
            0.399787
          ],
          [
            0.341263,
            0.436652
          ]
        ],
        "name": "Office"
      },
      "geometry": {
        "type": "Polygon",
        "coordinates": [
          [
            [
              -123.00260375468218,
              49.25115855172098
            ],
            [
              -123.00254460024524,
              49.251158069061944
            ],
            [
              -123.00254496996041,
              49.251132005462125
            ],
            [
              -123.00256395562721,
              49.25113191866683
            ],
            [
              -123.00256395562721,
              49.25112389080303
            ],
            [
              -123.00260321662083,
              49.25112389080303
            ],
            [
              -123.00260375468218,
              49.25115855172098
            ]
          ]
        ]
      }
    },
    {
      "type": "Feature",
      "properties": {
        "room": "4028",
        "building": "SW1",
        "floor": "4",
        "type": "room",
        "source": "traced",
        "uv": [
          [
            0.284483,
            0.437505
          ],
          [
            0.284483,
            0.381612
          ],
          [
            0.309557,
            0.381612
          ],
          [
            0.309109,
            0.437157
          ]
        ],
        "name": "Office"
      },
      "geometry": {
        "type": "Polygon",
        "coordinates": [
          [
            [
              -123.00260412439775,
              49.25118509796556
            ],
            [
              -123.00254460024524,
              49.25118509796556
            ],
            [
              -123.00254460024524,
              49.251158069061944
            ],
            [
              -123.00260375468218,
              49.25115855172098
            ],
            [
              -123.00260412439775,
              49.25118509796556
            ]
          ]
        ]
      }
    },
    {
      "type": "Feature",
      "properties": {
        "room": "4018",
        "building": "SW1",
        "floor": "4",
        "type": "service",
        "source": "traced",
        "uv": [
          [
            0.284483,
            0.381612
          ],
          [
            0.284259,
            0.312528
          ],
          [
            0.309109,
            0.312181
          ],
          [
            0.309557,
            0.381612
          ]
        ],
        "name": "Supply Closet"
      },
      "geometry": {
        "type": "Polygon",
        "coordinates": [
          [
            [
              -123.00254460024524,
              49.25118509796556
            ],
            [
              -123.00247102691401,
              49.25118533929498
            ],
            [
              -123.00247065719884,
              49.25115855172098
            ],
            [
              -123.00254460024524,
              49.251158069061944
            ],
            [
              -123.00254460024524,
              49.25118509796556
            ]
          ]
        ]
      }
    },
    {
      "type": "Feature",
      "properties": {
        "room": "4020",
        "building": "SW1",
        "floor": "4",
        "type": "service",
        "source": "traced",
        "uv": [
          [
            0.309557,
            0.381612
          ],
          [
            0.309109,
            0.312181
          ],
          [
            0.333815,
            0.31051
          ],
          [
            0.333735,
            0.381959
          ]
        ],
        "name": "Supply Closet"
      },
      "geometry": {
        "type": "Polygon",
        "coordinates": [
          [
            [
              -123.00254460024524,
              49.251158069061944
            ],
            [
              -123.00247065719884,
              49.25115855172098
            ],
            [
              -123.00246887779917,
              49.25113191866683
            ],
            [
              -123.00254496996041,
              49.251132005462125
            ],
            [
              -123.00254460024524,
              49.251158069061944
            ]
          ]
        ]
      }
    }
  ]
}