{
  "type": "FeatureCollection",
  "features": [
    {
      "type": "Feature",
      "properties": {
        "room": "2695",
        "building": "SW3",
        "floor": "2",
        "type": "room",
        "source": "traced",
        "uv": [
          [
            0.754236,
            0.339633
          ],
          [
            0.754533,
            0.430801
          ],
          [
            0.827064,
            0.432633
          ],
          [
            0.827361,
            0.337801
          ]
        ],
        "name": "Computer Lab"
      },
      "geometry": {
        "type": "Polygon",
        "coordinates": [
          [
            [
              -123.00206404860496,
              49.25015022726504
            ],
            [
              -123.00206337170586,
              49.25006222153207
            ],
            [
              -123.00189806473695,
              49.2500604530771
            ],
            [
              -123.00189738783783,
              49.25015199572001
            ],
            [
              -123.00206404860496,
              49.25015022726504
            ]
          ]
        ]
      }
    },
    {
      "type": "Feature",
      "properties": {
        "room": "2675",
        "building": "SW3",
        "floor": "2",
        "type": "room",
        "source": "traced",
        "uv": [
          [
            0.715889,
            0.337801
          ],
          [
            0.754236,
            0.339633
          ],
          [
            0.754533,
            0.430801
          ],
          [
            0.716186,
            0.429884
          ]
        ],
        "name": "Computer Lab"
      },
      "geometry": {
        "type": "Polygon",
        "coordinates": [
          [
            [
              -123.00215144608104,
              49.25015199572001
            ],
            [
              -123.00206404860496,
              49.25015022726504
            ],
            [
              -123.00206337170586,
              49.25006222153207
            ],
            [
              -123.00215076918192,
              49.250063106724866
            ],
            [
              -123.00215144608104,
              49.25015199572001
            ]
          ]
        ]
      }
    },
    {
      "type": "Feature",
      "properties": {
        "room": "2665",
        "building": "SW3",
        "floor": "2",
        "type": "room",
        "source": "traced",
        "uv": [
          [
            0.680091,
            0.33759
          ],
          [
            0.715889,
            0.337801
          ],
          [
            0.716186,
            0.429884
          ],
          [
            0.679874,
            0.430549
          ]
        ],
        "name": "Computer Lab"
      },
      "geometry": {
        "type": "Polygon",
        "coordinates": [
          [
            [
              -123.00223303407614,
              49.250152199401235
            ],
            [
              -123.00215144608104,
              49.25015199572001
            ],
            [
              -123.00215076918192,
              49.250063106724866
            ],
            [
              -123.00223352864553,
              49.25006246479116
            ],
            [
              -123.00223303407614,
              49.250152199401235
            ]
          ]
        ]
      }
    },
    {
      "type": "Feature",
      "properties": {
        "room": "2635",
        "building": "SW3",
        "floor": "2",
        "type": "room",
        "source": "traced",
        "uv": [
          [
            0.625632,
            0.337255
          ],
          [
            0.6623,
            0.337255
          ],
          [
            0.662083,
            0.431218
          ],
          [
            0.625632,
            0.430214
          ]
        ],
        "name": "Computer Lab"
      },
      "geometry": {
        "type": "Polygon",
        "coordinates": [
          [
            [
              -123.00235715275946,
              49.25015252278137
            ],
            [
              -123.00227358192856,
              49.25015252278137
            ],
            [
              -123.00227407649795,
              49.25006181899619
            ],
            [
              -123.00235715275946,
              49.25006278817129
            ],
            [
              -123.00235715275946,
              49.25015252278137
            ]
          ]
        ]
      }
    },
    {
      "type": "Feature",
      "properties": {
        "room": "2639",
        "building": "SW3",
        "floor": "2",
        "type": "room",
        "source": "traced",
        "uv": [
          [
            0.6623,
            0.337255
          ],
          [
            0.680091,
            0.33759
          ],
          [
            0.679657,
            0.367684
          ],
          [
            0.6623,
            0.367684
          ]
        ],
        "name": "Office"
      },
      "geometry": {
        "type": "Polygon",
        "coordinates": [
          [
            [
              -123.00227358192856,
              49.25015252278137
            ],
            [
              -123.00223303407614,
              49.250152199401235
            ],
            [
              -123.00223402321491,
              49.250123149246264
            ],
            [
              -123.00227358192856,
              49.250123149246264
            ],
            [
              -123.00227358192856,
              49.25015252278137
            ]
          ]
        ]
      }
    },
    {
      "type": "Feature",
      "properties": {
        "room": "2625",
        "building": "SW3",
        "floor": "2",
        "type": "room",
        "source": "traced",
        "uv": [
          [
            0.588748,
            0.337924
          ],
          [
            0.625632,
            0.337255
          ],
          [
            0.625632,
            0.430214
          ],
          [
            0.588314,
            0.430549
          ]
        ],
        "name": "Computer Lab"
      },
      "geometry": {
        "type": "Polygon",
        "coordinates": [
          [
            [
              -123.00244121588062,
              49.25015187698641
            ],
            [
              -123.00235715275946,
              49.25015252278137
            ],
            [
              -123.00235715275946,
              49.25006278817129
            ],
            [
              -123.0024422050194,
              49.25006246479116
            ],
            [
              -123.00244121588062,
              49.25015187698641
            ]
          ]
        ]
      }
    },
    {
      "type": "Feature",
      "properties": {
        "room": "2605",
        "building": "SW3",
        "floor": "2",
        "type": "room",
        "source": "traced",
        "uv": [
          [
            0.51358,
            0.33777
          ],
          [
            0.588748,
            0.337924
          ],
          [
            0.588314,
            0.430549
          ],
          [
            0.513797,
            0.432067
          ]
        ],
        "name": "Classroom"
      },
      "geometry": {
        "type": "Polygon",
        "coordinates": [
          [
            [
              -123.0026125328932,
              49.25015202564474
            ],
            [
              -123.00244121588062,
              49.25015187698641
            ],
            [
              -123.0024422050194,
              49.25006246479116
            ],
            [
              -123.0026120383238,
              49.250060999444734
            ],
            [
              -123.0026125328932,
              49.25015202564474
            ]
          ]
        ]
      }
    },
    {
      "type": "Feature",
      "properties": {
        "room": "2680",
        "building": "SW3",
        "floor": "2",
        "type": "room",
        "source": "traced",
        "uv": [
          [
            0.76396,
            0.46943
          ],
          [
            0.763309,
            0.490496
          ],
          [
            0.759187,
            0.490162
          ],
          [
            0.759621,
            0.563058
          ],
          [
            0.821023,
            0.564061
          ],
          [
            0.820589,
            0.539316
          ],
          [
            0.824277,
            0.539316
          ],
          [
            0.824277,
            0.503872
          ],
          [
            0.820372,
            0.504875
          ],
          [
            0.820806,
            0.470433
          ]
        ],
        "name": "Life Sciences Lab"
      },
      "geometry": {
        "type": "Polygon",
        "coordinates": [
          [
            [
              -123.00204188642651,
              49.2500249324234
            ],
            [
              -123.00204337013467,
              49.25000459712186
            ],
            [
              -123.00205276467392,
              49.250004919536686
            ],
            [
              -123.00205177553514,
              49.24993455201835
            ],
            [
              -123.00191183291054,
              49.24993358380856
            ],
            [
              -123.00191282204932,
              49.24995747049975
            ],
            [
              -123.00190441664886,
              49.24995747049975
            ],
            [
              -123.00190441664886,
              49.24999168508381
            ],
            [
              -123.0019133166187,
              49.249990716874024
            ],
            [
              -123.00191232747993,
              49.250023964213604
            ],
            [
              -123.00204188642651,
              49.2500249324234
            ]
          ]
        ]
      }
    },
    {
      "type": "Feature",
      "properties": {
        "room": "2660",
        "building": "SW3",
        "floor": "2",
        "type": "room",
        "source": "traced",
        "uv": [
          [
            0.696917,
            0.470433
          ],
          [
            0.76396,
            0.46943
          ],
          [
            0.763309,
            0.490496
          ],
          [
            0.759187,
            0.490162
          ],
          [
            0.759621,
            0.563058
          ],
          [
            0.6967,
            0.563392
          ]
        ],
        "name": "Life Sciences Lab"
      },
      "geometry": {
        "type": "Polygon",
        "coordinates": [
          [
            [
              -123.00219468557607,
              49.250023964213604
            ],
            [
              -123.00204188642651,
              49.2500249324234
            ],
            [
              -123.00204337013467,
              49.25000459712186
            ],
            [
              -123.00205276467392,
              49.250004919536686
            ],
            [
              -123.00205177553514,
              49.24993455201835
            ],
            [
              -123.00219518014545,
              49.249934229603525
            ],
            [
              -123.00219468557607,
              49.250023964213604
            ]
          ]
        ]
      }
    },
    {
      "type": "Feature",
      "properties": {
        "room": "2620",
        "building": "SW3",
        "floor": "2",
        "type": "room",
        "source": "traced",
        "uv": [
          [
            0.589677,
            0.471144
          ],
          [
            0.627213,
            0.47081
          ],
          [
            0.626996,
            0.524981
          ],
          [
            0.589243,
            0.524312
          ]
        ],
        "name": "Projects Room"
      },
      "geometry": {
        "type": "Polygon",
        "coordinates": [
          [
            [
              -123.00243909857666,
              49.250023277875464
            ],
            [
              -123.00235354946821,
              49.250023600290284
            ],
            [
              -123.00235404403759,
              49.24997130827378
            ],
            [
              -123.00244008771543,
              49.24997195406874
            ],
            [
              -123.00243909857666,
              49.250023277875464
            ]
          ]
        ]
      }
    },
    {
      "type": "Feature",
      "properties": {
        "room": "2630",
        "building": "SW3",
        "floor": "2",
        "type": "room",
        "source": "traced",
        "uv": [
          [
            0.627213,
            0.47081
          ],
          [
            0.655201,
            0.47081
          ],
          [
            0.655418,
            0.524981
          ],
          [
            0.626996,
            0.524981
          ]
        ],
        "name": "Projects Room"
      },
      "geometry": {
        "type": "Polygon",
        "coordinates": [
          [
            [
              -123.00235354946821,
              49.250023600290284
            ],
            [
              -123.00228976141281,
              49.250023600290284
            ],
            [
              -123.00228926684342,
              49.24997130827378
            ],
            [
              -123.00235404403759,
              49.24997130827378
            ],
            [
              -123.00235354946821,
              49.250023600290284
            ]
          ]
        ]
      }
    },
    {
      "type": "Feature",
      "properties": {
        "room": "2640",
        "building": "SW3",
        "floor": "2",
        "type": "room",
        "source": "traced",
        "uv": [
          [
            0.655201,
            0.47081
          ],
          [
            0.696917,
            0.470433
          ],
          [
            0.696213,
            0.52498
          ],
          [
            0.655418,
            0.524981
          ]
        ],
        "name": "Office"
      },
      "geometry": {
        "type": "Polygon",
        "coordinates": [
          [
            [
              -123.00228976141281,
              49.250023600290284
            ],
            [
              -123.00219468557607,
              49.250023964213604
            ],
            [
              -123.00219629007768,
              49.24997130923909
            ],
            [
              -123.00228926684342,
              49.24997130827378
            ],
            [
              -123.00228976141281,
              49.250023600290284
            ]
          ]
        ]
      }
    },
    {
      "type": "Feature",
      "properties": {
        "room": "2644",
        "building": "SW3",
        "floor": "2",
        "type": "room",
        "source": "traced",
        "uv": [
          [
            0.655418,
            0.524981
          ],
          [
            0.696213,
            0.52498
          ],
          [
            0.6967,
            0.563392
          ],
          [
            0.65564,
            0.563769
          ]
        ],
        "name": "Office"
      },
      "geometry": {
        "type": "Polygon",
        "coordinates": [
          [
            [
              -123.00228926684342,
              49.24997130827378
            ],
            [
              -123.00219629007768,
              49.24997130923909
            ],
            [
              -123.00219518014545,
              49.249934229603525
            ],
            [
              -123.00228876087843,
              49.249933865680205
            ],
            [
              -123.00228926684342,
              49.24997130827378
            ]
          ]
        ]
      }
    },
    {
      "type": "Feature",
      "properties": {
        "room": "2608",
        "building": "SW3",
        "floor": "2",
        "type": "room",
        "source": "traced",
        "uv": [
          [
            0.544572,
            0.564985
          ],
          [
            0.588976,
            0.565479
          ],
          [
            0.589243,
            0.524312
          ],
          [
            0.567496,
            0.524468
          ],
          [
            0.567977,
            0.485433
          ],
          [
            0.546496,
            0.484445
          ],
          [
            0.546336,
            0.500504
          ],
          [
            0.553389,
            0.500256
          ],
          [
            0.553229,
            0.524715
          ],
          [
            0.545214,
            0.524468
          ]
        ],
        "name": "Women's Washroom",
        "amenity": "washroom"
      },
      "geometry": {
        "type": "Polygon",
        "coordinates": [
          [
            [
              -123.00254189835651,
              49.24993269185857
            ],
            [
              -123.0024406962409,
              49.24993221499353
            ],
            [
              -123.00244008771543,
              49.24997195406874
            ],
            [
              -123.0024896517729,
              49.24997180347978
            ],
            [
              -123.00248855551541,
              49.250009484505874
            ],
            [
              -123.00253751332654,
              49.250010438235954
            ],
            [
              -123.002537877986,
              49.249994936260855
            ],
            [
              -123.00252180334135,
              49.24999517565869
            ],
            [
              -123.00252216800081,
              49.24997156504726
            ],
            [
              -123.00254043516044,
              49.24997180347978
            ],
            [
              -123.00254189835651,
              49.24993269185857
            ]
          ]
        ]
      }
    },
    {
      "type": "Feature",
      "properties": {
        "room": "2980",
        "building": "SW3",
        "floor": "2",
        "type": "room",
        "source": "traced",
        "uv": [
          [
            0.1689,
            0.710412
          ],
          [
            0.168673,
            0.813245
          ],
          [
            0.205792,
            0.813947
          ],
          [
            0.205564,
            0.803418
          ],
          [
            0.237218,
            0.803769
          ],
          [
            0.237445,
            0.710412
          ]
        ],
        "name": "Projects Room"
      },
      "geometry": {
        "type": "Polygon",
        "coordinates": [
          [
            [
              -123.00339810052694,
              49.249792309161464
            ],
            [
              -123.00339861788754,
              49.24969304304244
            ],
            [
              -123.0033140191728,
              49.24969236539212
            ],
            [
              -123.00331453881253,
              49.24970252918164
            ],
            [
              -123.00324239549734,
              49.24970219035648
            ],
            [
              -123.00324187813673,
              49.249792309161464
            ],
            [
              -123.00339810052694,
              49.249792309161464
            ]
          ]
        ]
      }
    },
    {
      "type": "Feature",
      "properties": {
        "room": "2955",
        "building": "SW3",
        "floor": "2",
        "type": "room",
        "source": "traced",
        "uv": [
          [
            0.114702,
            0.626181
          ],
          [
            0.144078,
            0.625479
          ],
          [
            0.144534,
            0.61144
          ],
          [
            0.153187,
            0.612142
          ],
          [
            0.153871,
            0.626883
          ],
          [
            0.169356,
            0.626181
          ],
          [
            0.168673,
            0.813245
          ],
          [
            0.147039,
            0.813947
          ],
          [
            0.146128,
            0.80412
          ],
          [
            0.115157,
            0.803418
          ]
        ],
        "name": "Electrical Lab"
      },
      "geometry": {
        "type": "Polygon",
        "coordinates": [
          [
            [
              -123.00352162435952,
              49.24987361851227
            ],
            [
              -123.00345467288335,
              49.249874296162595
            ],
            [
              -123.0034536336039,
              49.24988784820372
            ],
            [
              -123.00343391236467,
              49.24988717055339
            ],
            [
              -123.0034323534455,
              49.24987294086195
            ],
            [
              -123.0033970612475,
              49.24987361851227
            ],
            [
              -123.00339861788754,
              49.24969304304244
            ],
            [
              -123.00344792440428,
              49.24969236539212
            ],
            [
              -123.00345000068405,
              49.24970185153131
            ],
            [
              -123.00352058735919,
              49.24970252918164
            ],
            [
              -123.00352162435952,
              49.24987361851227
            ]
          ]
        ]
      }
    },
    {
      "type": "Feature",
      "properties": {
        "room": "2930",
        "building": "SW3",
        "floor": "2",
        "type": "room",
        "source": "traced",
        "uv": [
          [
            0.183883,
            0.648789
          ],
          [
            0.206427,
            0.64914
          ],
          [
            0.205972,
            0.690553
          ],
          [
            0.183883,
            0.690202
          ]
        ],
        "name": "Office"
      },
      "geometry": {
        "type": "Polygon",
        "coordinates": [
          [
            [
              -123.00336395244798,
              49.249851794696774
            ],
            [
              -123.00331257193059,
              49.249851455871614
            ],
            [
              -123.00331360893092,
              49.24981147932919
            ],
            [
              -123.00336395244798,
              49.24981181815435
            ],
            [
              -123.00336395244798,
              49.249851794696774
            ]
          ]
        ]
      }
    },
    {
      "type": "Feature",
      "properties": {
        "room": "2910",
        "building": "SW3",
        "floor": "2",
        "type": "room",
        "source": "traced",
        "uv": [
          [
            0.18411,
            0.537533
          ],
          [
            0.238081,
            0.53648
          ],
          [
            0.23717,
            0.654053
          ],
          [
            0.227606,
            0.654053
          ],
          [
            0.227378,
            0.647736
          ],
          [
            0.183883,
            0.648789
          ]
        ],
        "name": "Projects Room"
      },
      "geometry": {
        "type": "Polygon",
        "coordinates": [
          [
            [
              -123.00336343508738,
              49.24995919165435
            ],
            [
              -123.0032404286154,
              49.24996020812983
            ],
            [
              -123.00324250489518,
              49.249846713284676
            ],
            [
              -123.00326430241418,
              49.249846713284676
            ],
            [
              -123.00326482205391,
              49.24985281117226
            ],
            [
              -123.00336395244798,
              49.249851794696774
            ],
            [
              -123.00336343508738,
              49.24995919165435
            ]
          ]
        ]
      }
    },
    {
      "type": "Feature",
      "properties": {
        "room": "2915",
        "building": "SW3",
        "floor": "2",
        "type": "room",
        "source": "traced",
        "uv": [
          [
            0.153633,
            0.574557
          ],
          [
            0.168891,
            0.574206
          ],
          [
            0.169356,
            0.626181
          ],
          [
            0.153871,
            0.626883
          ]
        ],
        "name": "Office"
      },
      "geometry": {
        "type": "Polygon",
        "coordinates": [
          [
            [
              -123.00343289587644,
              49.24992345187441
            ],
            [
              -123.00339812103904,
              49.24992379069957
            ],
            [
              -123.0033970612475,
              49.24987361851227
            ],
            [
              -123.0034323534455,
              49.24987294086195
            ],
            [
              -123.00343289587644,
              49.24992345187441
            ]
          ]
        ]
      }
    },
    {
      "type": "Feature",
      "properties": {
        "room": "2905",
        "building": "SW3",
        "floor": "2",
        "type": "room",
        "source": "traced",
        "uv": [
          [
            0.115375,
            0.522966
          ],
          [
            0.146801,
            0.522264
          ],
          [
            0.146574,
            0.51349
          ],
          [
            0.154544,
            0.51349
          ],
          [
            0.154544,
            0.569644
          ],
          [
            0.115375,
            0.569293
          ]
        ],
        "name": "Office"
      },
      "geometry": {
        "type": "Polygon",
        "coordinates": [
          [
            [
              -123.00352009051069,
              49.249973253381185
            ],
            [
              -123.00344846683522,
              49.249973931031505
            ],
            [
              -123.00344898419583,
              49.24998240069522
            ],
            [
              -123.00343081959666,
              49.24998240069522
            ],
            [
              -123.00343081959666,
              49.24992819446135
            ],
            [
              -123.00352009051069,
              49.24992853328651
            ],
            [
              -123.00352009051069,
              49.249973253381185
            ]
          ]
        ]
      }
    },
    {
      "type": "Feature",
      "properties": {
        "room": "2925",
        "building": "SW3",
        "floor": "2",
        "type": "room",
        "source": "traced",
        "uv": [
          [
            0.115375,
            0.569293
          ],
          [
            0.144296,
            0.570346
          ],
          [
            0.144078,
            0.625479
          ],
          [
            0.114702,
            0.626181
          ]
        ],
        "name": "Office"
      },
      "geometry": {
        "type": "Polygon",
        "coordinates": [
          [
            [
              -123.00352009051069,
              49.24992853328651
            ],
            [
              -123.00345417603484,
              49.24992751681102
            ],
            [
              -123.00345467288335,
              49.249874296162595
            ],
            [
              -123.00352162435952,
              49.24987361851227
            ],
            [
              -123.00352009051069,
              49.24992853328651
            ]
          ]
        ]
      }
    },
    {
      "type": "Feature",
      "properties": {
        "room": null,
        "building": "SW3",
        "floor": "2",
        "type": "hallway",
        "source": "traced",
        "uv": [
          [
            0.227606,
            0.654053
          ],
          [
            0.23717,
            0.654053
          ],
          [
            0.237445,
            0.710412
          ],
          [
            0.1689,
            0.710412
          ],
          [
            0.168891,
            0.574206
          ],
          [
            0.153633,
            0.574557
          ],
          [
            0.154255,
            0.368356
          ],
          [
            0.209118,
            0.366611
          ],
          [
            0.209753,
            0.336312
          ],
          [
            0.226782,
            0.337152
          ],
          [
            0.226908,
            0.401923
          ],
          [
            0.496588,
            0.401517
          ],
          [
            0.495798,
            0.077094
          ],
          [
            0.513463,
            0.077094
          ],
          [
            0.513797,
            0.432067
          ],
          [
            0.862484,
            0.43178
          ],
          [
            0.862558,
            0.461826
          ],
          [
            0.820802,
            0.460403
          ],
          [
            0.820806,
            0.470433
          ],
          [
            0.589677,
            0.471144
          ],
          [
            0.589542,
            0.462353
          ],
          [
            0.502366,
            0.461398
          ],
          [
            0.488112,
            0.461545
          ],
          [
            0.488274,
            0.454044
          ],
          [
            0.497845,
            0.454294
          ],
          [
            0.497683,
            0.439794
          ],
          [
            0.376785,
            0.439798
          ],
          [
            0.376298,
            0.434048
          ],
          [
            0.35375,
            0.433798
          ],
          [
            0.353912,
            0.440048
          ],
          [
            0.255121,
            0.441048
          ],
          [
            0.255799,
            0.434048
          ],
          [
            0.22806,
            0.433048
          ],
          [
            0.215732,
            0.432048
          ],
          [
            0.215569,
            0.400797
          ],
          [
            0.210541,
            0.400297
          ],
          [
            0.209892,
            0.391047
          ],
          [
            0.168202,
            0.390547
          ],
          [
            0.168072,
            0.536685
          ],
          [
            0.18411,
            0.537533
          ],
          [
            0.183883,
            0.690202
          ],
          [
            0.228242,
            0.68984
          ]
        ]
      },
      "geometry": {
        "type": "Polygon",
        "coordinates": [
          [
            [
              -123.00326430241418,
              49.249846713284676
            ],
            [
              -123.00324250489518,
              49.249846713284676
            ],
            [
              -123.00324187813673,
              49.249792309161464
            ],
            [
              -123.00339810052694,
              49.249792309161464
            ],
            [
              -123.00339812103904,
              49.24992379069957
            ],
            [
              -123.00343289587644,
              49.24992345187441
            ],
            [
              -123.0034314782628,
              49.25012250055536
            ],
            [
              -123.00330643881436,
              49.25012418502803
            ],
            [
              -123.00330499157214,
              49.250153433072335
            ],
            [
              -123.00326618041038,
              49.2501526222087
            ],
            [
              -123.00326589324106,
              49.250090097865396
            ],
            [
              -123.00265125972746,
              49.250090489782814
            ],
            [
              -123.00265306023353,
              49.25040365979761
            ],
            [
              -123.00261279955042,
              49.25040365979761
            ],
            [
              -123.0026120383238,
              49.250060999444734
            ],
            [
              -123.00181733824981,
              49.25006127648981
            ],
            [
              -123.0018171695948,
              49.250032272669905
            ],
            [
              -123.00191233659642,
              49.25003364631151
            ],
            [
              -123.00191232747993,
              49.250023964213604
            ],
            [
              -123.00243909857666,
              49.250023277875464
            ],
            [
              -123.00243940625808,
              49.25003176394951
            ],
            [
              -123.00263809096285,
              49.25003268582423
            ],
            [
              -123.00267057756216,
              49.2500325439231
            ],
            [
              -123.00267020834445,
              49.25003978474228
            ],
            [
              -123.0026483948716,
              49.25003954341381
            ],
            [
              -123.0026487640893,
              49.25005354046462
            ],
            [
              -123.00292430533273,
              49.25005353660337
            ],
            [
              -123.00292541526495,
              49.250059087158
            ],
            [
              -123.00297680489884,
              49.25005932848646
            ],
            [
              -123.00297643568113,
              49.2500532952749
            ],
            [
              -123.0032015923833,
              49.25005232996106
            ],
            [
              -123.00320004713886,
              49.250059087158
            ],
            [
              -123.00326326769297,
              49.250060052471845
            ],
            [
              -123.00329136470408,
              49.2500610177857
            ],
            [
              -123.00329173620091,
              49.25009118480879
            ],
            [
              -123.00330319562431,
              49.25009166746571
            ],
            [
              -123.00330467477424,
              49.250100596618815
            ],
            [
              -123.00339969135382,
              49.25010107927574
            ],
            [
              -123.00339998763963,
              49.24996001024049
            ],
            [
              -123.00336343508738,
              49.24995919165435
            ],
            [
              -123.00336395244798,
              49.24981181815435
            ],
            [
              -123.00326285289285,
              49.249812167597966
            ],
            [
              -123.00326430241418,
              49.249846713284676
            ]
          ]
        ]
      }
    },
    {
      "type": "Feature",
      "properties": {
        "room": "2770",
        "building": "SW3",
        "floor": "2",
        "type": "room",
        "source": "traced",
        "uv": [
          [
            0.172396,
            0.441059
          ],
          [
            0.255121,
            0.441048
          ],
          [
            0.255239,
            0.53327
          ],
          [
            0.172396,
            0.534195
          ]
        ],
        "name": "Computer Lab"
      },
      "geometry": {
        "type": "Polygon",
        "coordinates": [
          [
            [
              -123.00339013271783,
              49.2500523193426
            ],
            [
              -123.0032015923833,
              49.25005232996106
            ],
            [
              -123.00320132344696,
              49.249963306787286
            ],
            [
              -123.00339013271783,
              49.24996241387198
            ],
            [
              -123.00339013271783,
              49.2500523193426
            ]
          ]
        ]
      }
    },
    {
      "type": "Feature",
      "properties": {
        "room": "2750",
        "building": "SW3",
        "floor": "2",
        "type": "room",
        "source": "traced",
        "uv": [
          [
            0.255121,
            0.441048
          ],
          [
            0.353912,
            0.440048
          ],
          [
            0.354834,
            0.534482
          ],
          [
            0.255239,
            0.53327
          ]
        ],
        "name": "Life Sciences Lab"
      },
      "geometry": {
        "type": "Polygon",
        "coordinates": [
          [
            [
              -123.0032015923833,
              49.25005232996106
            ],
            [
              -123.00297643568113,
              49.2500532952749
            ],
            [
              -123.00297433433101,
              49.2499621368269
            ],
            [
              -123.00320132344696,
              49.249963306787286
            ],
            [
              -123.0032015923833,
              49.25005232996106
            ]
          ]
        ]
      }
    },
    {
      "type": "Feature",
      "properties": {
        "room": "2710",
        "building": "SW3",
        "floor": "2",
        "type": "room",
        "source": "traced",
        "uv": [
          [
            0.376785,
            0.439798
          ],
          [
            0.476898,
            0.439804
          ],
          [
            0.476498,
            0.534482
          ],
          [
            0.376445,
            0.534174
          ]
        ],
        "name": "Computer Lab"
      },
      "geometry": {
        "type": "Polygon",
        "coordinates": [
          [
            [
              -123.00292430533273,
              49.25005353660337
            ],
            [
              -123.0026961356318,
              49.250053530811485
            ],
            [
              -123.00269704728044,
              49.2499621368269
            ],
            [
              -123.00292508023408,
              49.24996243414356
            ],
            [
              -123.00292430533273,
              49.25005353660337
            ]
          ]
        ]
      }
    },
    {
      "type": "Feature",
      "properties": {
        "room": "2795",
        "building": "SW3",
        "floor": "2",
        "type": "room",
        "source": "traced",
        "uv": [
          [
            0.226908,
            0.401923
          ],
          [
            0.236872,
            0.401459
          ],
          [
            0.237072,
            0.337621
          ],
          [
            0.226782,
            0.337152
          ]
        ],
        "name": "Office"
      },
      "geometry": {
        "type": "Polygon",
        "coordinates": [
          [
            [
              -123.00326589324106,
              49.250090097865396
            ],
            [
              -123.00324318407341,
              49.250090545771016
            ],
            [
              -123.00324272824909,
              49.25015216947651
            ],
            [
              -123.00326618041038,
              49.2501526222087
            ],
            [
              -123.00326589324106,
              49.250090097865396
            ]
          ]
        ]
      }
    },
    {
      "type": "Feature",
      "properties": {
        "room": "2785",
        "building": "SW3",
        "floor": "2",
        "type": "room",
        "source": "traced",
        "uv": [
          [
            0.237072,
            0.337621
          ],
          [
            0.264887,
            0.337929
          ],
          [
            0.265087,
            0.400534
          ],
          [
            0.236872,
            0.401459
          ]
        ],
        "name": "Electrical Lab"
      },
      "geometry": {
        "type": "Polygon",
        "coordinates": [
          [
            [
              -123.00324272824909,
              49.25015216947651
            ],
            [
              -123.00317933448174,
              49.25015187215984
            ],
            [
              -123.00317887865742,
              49.25009143868633
            ],
            [
              -123.00324318407341,
              49.250090545771016
            ],
            [
              -123.00324272824909,
              49.25015216947651
            ]
          ]
        ]
      }
    },
    {
      "type": "Feature",
      "properties": {
        "room": "2775",
        "building": "SW3",
        "floor": "2",
        "type": "room",
        "source": "traced",
        "uv": [
          [
            0.264887,
            0.337929
          ],
          [
            0.292083,
            0.338283
          ],
          [
            0.291883,
            0.400271
          ],
          [
            0.265087,
            0.400534
          ]
        ],
        "name": "Computer Lab"
      },
      "geometry": {
        "type": "Polygon",
        "coordinates": [
          [
            [
              -123.00317933448174,
              49.25015187215984
            ],
            [
              -123.00311735149066,
              49.250151530438735
            ],
            [
              -123.00311780731498,
              49.25009169256387
            ],
            [
              -123.00317887865742,
              49.25009143868633
            ],
            [
              -123.00317933448174,
              49.25015187215984
            ]
          ]
        ]
      }
    },
    {
      "type": "Feature",
      "properties": {
        "room": "2765",
        "building": "SW3",
        "floor": "2",
        "type": "room",
        "source": "traced",
        "uv": [
          [
            0.292083,
            0.338283
          ],
          [
            0.347312,
            0.337667
          ],
          [
            0.347712,
            0.401813
          ],
          [
            0.291883,
            0.400271
          ]
        ],
        "name": "Classroom"
      },
      "geometry": {
        "type": "Polygon",
        "coordinates": [
          [
            [
              -123.00311735149066,
              49.250151530438735
            ],
            [
              -123.0029914778837,
              49.25015212507207
            ],
            [
              -123.00299056623506,
              49.25009020404992
            ],
            [
              -123.00311780731498,
              49.25009169256387
            ],
            [
              -123.00311735149066,
              49.250151530438735
            ]
          ]
        ]
      }
    },
    {
      "type": "Feature",
      "properties": {
        "room": "2745",
        "building": "SW3",
        "floor": "2",
        "type": "room",
        "source": "traced",
        "uv": [
          [
            0.347312,
            0.337667
          ],
          [
            0.392736,
            0.337667
          ],
          [
            0.393136,
            0.401505
          ],
          [
            0.347712,
            0.401813
          ]
        ],
        "name": "Classroom"
      },
      "geometry": {
        "type": "Polygon",
        "coordinates": [
          [
            [
              -123.0029914778837,
              49.25015212507207
            ],
            [
              -123.00288795106405,
              49.25015212507207
            ],
            [
              -123.00288703941541,
              49.250090501366586
            ],
            [
              -123.00299056623506,
              49.25009020404992
            ],
            [
              -123.0029914778837,
              49.25015212507207
            ]
          ]
        ]
      }
    },
    {
      "type": "Feature",
      "properties": {
        "room": "2715",
        "building": "SW3",
        "floor": "2",
        "type": "room",
        "source": "traced",
        "uv": [
          [
            0.421151,
            0.337975
          ],
          [
            0.484784,
            0.338284
          ],
          [
            0.485185,
            0.401197
          ],
          [
            0.421151,
            0.400888
          ]
        ],
        "name": "Classroom"
      },
      "geometry": {
        "type": "Polygon",
        "coordinates": [
          [
            [
              -123.00282318982374,
              49.2501518277554
            ],
            [
              -123.00267816247884,
              49.25015152947342
            ],
            [
              -123.00267724855108,
              49.250090798683246
            ],
            [
              -123.00282318982374,
              49.25009109696523
            ],
            [
              -123.00282318982374,
              49.2501518277554
            ]
          ]
        ]
      }
    },
    {
      "type": "Feature",
      "properties": {
        "room": "2901",
        "building": "SW3",
        "floor": "2",
        "type": "room",
        "source": "traced",
        "uv": [
          [
            0.476988,
            0.304792
          ],
          [
            0.496086,
            0.304792
          ],
          [
            0.495906,
            0.336724
          ],
          [
            0.477348,
            0.336724
          ]
        ],
        "name": "Office"
      },
      "geometry": {
        "type": "Polygon",
        "coordinates": [
          [
            [
              -123.00269593051085,
              49.250183859764846
            ],
            [
              -123.0026524038465,
              49.250183859764846
            ],
            [
              -123.00265281408839,
              49.25015303536303
            ],
            [
              -123.00269511002708,
              49.25015303536303
            ],
            [
              -123.00269593051085,
              49.250183859764846
            ]
          ]
        ]
      }
    },
    {
      "type": "Feature",
      "properties": {
        "room": "2089",
        "building": "SW3",
        "floor": "2",
        "type": "room",
        "source": "traced",
        "uv": [
          [
            0.513742,
            0.303403
          ],
          [
            0.53212,
            0.303681
          ],
          [
            0.53266,
            0.337835
          ],
          [
            0.51358,
            0.33777
          ]
        ],
        "name": "Resources"
      },
      "geometry": {
        "type": "Polygon",
        "coordinates": [
          [
            [
              -123.0026121636755,
              49.25018520058578
            ],
            [
              -123.00257027797869,
              49.250184932228535
            ],
            [
              -123.00256904725303,
              49.25015196289934
            ],
            [
              -123.0026125328932,
              49.25015202564474
            ],
            [
              -123.0026121636755,
              49.25018520058578
            ]
          ]
        ]
      }
    },
    {
      "type": "Feature",
      "properties": {
        "room": "2655",
        "building": "SW3",
        "floor": "2",
        "type": "room",
        "source": "traced",
        "uv": [
          [
            0.6623,
            0.367684
          ],
          [
            0.679657,
            0.367684
          ],
          [
            0.679874,
            0.430549
          ],
          [
            0.662083,
            0.431218
          ]
        ],
        "name": "Resources"
      },
      "geometry": {
        "type": "Polygon",
        "coordinates": [
          [
            [
              -123.00227358192856,
              49.250123149246264
            ],
            [
              -123.00223402321491,
              49.250123149246264
            ],
            [
              -123.00223352864553,
              49.25006246479116
            ],
            [
              -123.00227407649795,
              49.25006181899619
            ],
            [
              -123.00227358192856,
              49.250123149246264
            ]
          ]
        ]
      }
    },
    {
      "type": "Feature",
      "properties": {
        "room": "2090",
        "building": "SW3",
        "floor": "2",
        "type": "room",
        "source": "traced",
        "uv": [
          [
            0.459096,
            0.276894
          ],
          [
            0.49585,
            0.276894
          ],
          [
            0.496086,
            0.304792
          ],
          [
            0.458735,
            0.304383
          ]
        ],
        "name": "Office"
      },
      "geometry": {
        "type": "Polygon",
        "coordinates": [
          [
            [
              -123.00273670855455,
              49.250210790090605
            ],
            [
              -123.0026529417192,
              49.250210790090605
            ],
            [
              -123.0026524038465,
              49.250183859764846
            ],
            [
              -123.00273753131745,
              49.250184254578215
            ],
            [
              -123.00273670855455,
              49.250210790090605
            ]
          ]
        ]
      }
    },
    {
      "type": "Feature",
      "properties": {
        "room": "2079",
        "building": "SW3",
        "floor": "2",
        "type": "room",
        "source": "traced",
        "uv": [
          [
            0.458915,
            0.23441
          ],
          [
            0.49531,
            0.233855
          ],
          [
            0.49585,
            0.276894
          ],
          [
            0.459096,
            0.276894
          ]
        ],
        "name": "Office"
      },
      "geometry": {
        "type": "Polygon",
        "coordinates": [
          [
            [
              -123.00273712107557,
              49.25025180048416
            ],
            [
              -123.00265417244486,
              49.250252336233345
            ],
            [
              -123.0026529417192,
              49.250210790090605
            ],
            [
              -123.00273670855455,
              49.250210790090605
            ],
            [
              -123.00273712107557,
              49.25025180048416
            ]
          ]
        ]
      }
    },
    {
      "type": "Feature",
      "properties": {
        "room": "2075",
        "building": "SW3",
        "floor": "2",
        "type": "room",
        "source": "traced",
        "uv": [
          [
            0.458735,
            0.191649
          ],
          [
            0.49567,
            0.191371
          ],
          [
            0.49531,
            0.233855
          ],
          [
            0.458915,
            0.23441
          ]
        ],
        "name": "Office"
      },
      "geometry": {
        "type": "Polygon",
        "coordinates": [
          [
            [
              -123.00273753131745,
              49.25029307826965
            ],
            [
              -123.00265335196109,
              49.250293346626904
            ],
            [
              -123.00265417244486,
              49.250252336233345
            ],
            [
              -123.00273712107557,
              49.25025180048416
            ],
            [
              -123.00273753131745,
              49.25029307826965
            ]
          ]
        ]
      }
    },
    {
      "type": "Feature",
      "properties": {
        "room": "2069",
        "building": "SW3",
        "floor": "2",
        "type": "room",
        "source": "traced",
        "uv": [
          [
            0.458583,
            0.148737
          ],
          [
            0.495698,
            0.14957
          ],
          [
            0.49567,
            0.191371
          ],
          [
            0.458735,
            0.191649
          ]
        ],
        "name": "Office"
      },
      "geometry": {
        "type": "Polygon",
        "coordinates": [
          [
            [
              -123.00273787774394,
              49.250334501817534
            ],
            [
              -123.00265328814568,
              49.2503336977111
            ],
            [
              -123.00265335196109,
              49.250293346626904
            ],
            [
              -123.00273753131745,
              49.25029307826965
            ],
            [
              -123.00273787774394,
              49.250334501817534
            ]
          ]
        ]
      }
    },
    {
      "type": "Feature",
      "properties": {
        "room": "2065",
        "building": "SW3",
        "floor": "2",
        "type": "room",
        "source": "traced",
        "uv": [
          [
            0.458403,
            0.106253
          ],
          [
            0.495698,
            0.106531
          ],
          [
            0.495698,
            0.14957
          ],
          [
            0.458583,
            0.148737
          ]
        ],
        "name": "Office"
      },
      "geometry": {
        "type": "Polygon",
        "coordinates": [
          [
            [
              -123.00273828798582,
              49.25037551221109
            ],
            [
              -123.00265328814568,
              49.25037524385384
            ],
            [
              -123.00265328814568,
              49.2503336977111
            ],
            [
              -123.00273787774394,
              49.250334501817534
            ],
            [
              -123.00273828798582,
              49.25037551221109
            ]
          ]
        ]
      }
    },
    {
      "type": "Feature",
      "properties": {
        "room": "2063",
        "building": "SW3",
        "floor": "2",
        "type": "room",
        "source": "traced",
        "uv": [
          [
            0.458583,
            0.078486
          ],
          [
            0.495798,
            0.077094
          ],
          [
            0.495698,
            0.106531
          ],
          [
            0.458403,
            0.106253
          ]
        ],
        "name": "Office"
      },
      "geometry": {
        "type": "Polygon",
        "coordinates": [
          [
            [
              -123.00273787774394,
              49.25040231608073
            ],
            [
              -123.00265306023353,
              49.25040365979761
            ],
            [
              -123.00265328814568,
              49.25037524385384
            ],
            [
              -123.00273828798582,
              49.25037551221109
            ],
            [
              -123.00273787774394,
              49.25040231608073
            ]
          ]
        ]
      }
    },
    {
      "type": "Feature",
      "properties": {
        "room": "2080",
        "building": "SW3",
        "floor": "2",
        "type": "room",
        "source": "traced",
        "uv": [
          [
            0.513463,
            0.077094
          ],
          [
            0.550649,
            0.078209
          ],
          [
            0.549929,
            0.104865
          ],
          [
            0.513715,
            0.104587
          ]
        ],
        "name": "Office"
      },
      "geometry": {
        "type": "Polygon",
        "coordinates": [
          [
            [
              -123.00261279955042,
              49.25040365979761
            ],
            [
              -123.00252804813454,
              49.25040258347267
            ],
            [
              -123.00252968910209,
              49.250376852066715
            ],
            [
              -123.00261222521178,
              49.25037712042396
            ],
            [
              -123.00261279955042,
              49.25040365979761
            ]
          ]
        ]
      }
    },
    {
      "type": "Feature",
      "properties": {
        "room": "2081",
        "building": "SW3",
        "floor": "2",
        "type": "room",
        "source": "traced",
        "uv": [
          [
            0.513715,
            0.104587
          ],
          [
            0.549929,
            0.104865
          ],
          [
            0.549388,
            0.129022
          ],
          [
            0.513535,
            0.1293
          ]
        ],
        "name": "Office"
      },
      "geometry": {
        "type": "Polygon",
        "coordinates": [
          [
            [
              -123.00261222521178,
              49.25037712042396
            ],
            [
              -123.00252968910209,
              49.250376852066715
            ],
            [
              -123.00253092210687,
              49.250353532980064
            ],
            [
              -123.00261263545367,
              49.25035326462282
            ],
            [
              -123.00261222521178,
              49.25037712042396
            ]
          ]
        ]
      }
    },
    {
      "type": "Feature",
      "properties": {
        "room": "2082",
        "building": "SW3",
        "floor": "2",
        "type": "room",
        "source": "traced",
        "uv": [
          [
            0.513535,
            0.1293
          ],
          [
            0.549388,
            0.129022
          ],
          [
            0.549388,
            0.152346
          ],
          [
            0.513715,
            0.152902
          ]
        ],
        "name": "Office"
      },
      "geometry": {
        "type": "Polygon",
        "coordinates": [
          [
            [
              -123.00261263545367,
              49.25035326462282
            ],
            [
              -123.00253092210687,
              49.250353532980064
            ],
            [
              -123.00253092210687,
              49.250331017999855
            ],
            [
              -123.00261222521178,
              49.25033048128535
            ],
            [
              -123.00261263545367,
              49.25035326462282
            ]
          ]
        ]
      }
    },
    {
      "type": "Feature",
      "properties": {
        "room": "2084",
        "building": "SW3",
        "floor": "2",
        "type": "room",
        "source": "traced",
        "uv": [
          [
            0.531732,
            0.15429
          ],
          [
            0.532092,
            0.181502
          ],
          [
            0.549568,
            0.180946
          ],
          [
            0.549388,
            0.152346
          ]
        ],
        "name": "Office"
      },
      "geometry": {
        "type": "Polygon",
        "coordinates": [
          [
            [
              -123.00257116227787,
              49.25032914142973
            ],
            [
              -123.0025703417941,
              49.25030287330928
            ],
            [
              -123.00253051186499,
              49.250303410023776
            ],
            [
              -123.00253092210687,
              49.250331017999855
            ],
            [
              -123.00257116227787,
              49.25032914142973
            ]
          ]
        ]
      }
    },
    {
      "type": "Feature",
      "properties": {
        "room": "2085",
        "building": "SW3",
        "floor": "2",
        "type": "room",
        "source": "traced",
        "uv": [
          [
            0.532092,
            0.181502
          ],
          [
            0.549568,
            0.180946
          ],
          [
            0.549388,
            0.208991
          ],
          [
            0.532092,
            0.208714
          ]
        ],
        "name": "Office"
      },
      "geometry": {
        "type": "Polygon",
        "coordinates": [
          [
            [
              -123.0025703417941,
              49.25030287330928
            ],
            [
              -123.00253051186499,
              49.250303410023776
            ],
            [
              -123.00253092210687,
              49.25027633779688
            ],
            [
              -123.0025703417941,
              49.25027660518882
            ],
            [
              -123.0025703417941,
              49.25030287330928
            ]
          ]
        ]
      }
    },
    {
      "type": "Feature",
      "properties": {
        "room": "2083",
        "building": "SW3",
        "floor": "2",
        "type": "room",
        "source": "traced",
        "uv": [
          [
            0.513715,
            0.152902
          ],
          [
            0.531732,
            0.15429
          ],
          [
            0.531551,
            0.201772
          ],
          [
            0.514255,
            0.202327
          ]
        ],
        "name": "Meeting Room"
      },
      "geometry": {
        "type": "Polygon",
        "coordinates": [
          [
            [
              -123.00261222521178,
              49.25033048128535
            ],
            [
              -123.00257116227787,
              49.25032914142973
            ],
            [
              -123.00257157479889,
              49.25028330639756
            ],
            [
              -123.00261099448612,
              49.250282770648376
            ],
            [
              -123.00261222521178,
              49.25033048128535
            ]
          ]
        ]
      }
    },
    {
      "type": "Feature",
      "properties": {
        "room": "2086",
        "building": "SW3",
        "floor": "2",
        "type": "room",
        "source": "traced",
        "uv": [
          [
            0.514255,
            0.202327
          ],
          [
            0.531551,
            0.201772
          ],
          [
            0.532092,
            0.208714
          ],
          [
            0.549388,
            0.208991
          ],
          [
            0.549929,
            0.234259
          ],
          [
            0.513535,
            0.235092
          ]
        ],
        "name": "Office"
      },
      "geometry": {
        "type": "Polygon",
        "coordinates": [
          [
            [
              -123.00261099448612,
              49.250282770648376
            ],
            [
              -123.00257157479889,
              49.25028330639756
            ],
            [
              -123.0025703417941,
              49.25027660518882
            ],
            [
              -123.00253092210687,
              49.25027633779688
            ],
            [
              -123.00252968910209,
              49.25025194624655
            ],
            [
              -123.00261263545367,
              49.250251142140115
            ],
            [
              -123.00261099448612,
              49.250282770648376
            ]
          ]
        ]
      }
    },
    {
      "type": "Feature",
      "properties": {
        "room": "2087",
        "building": "SW3",
        "floor": "2",
        "type": "room",
        "source": "traced",
        "uv": [
          [
            0.513535,
            0.235092
          ],
          [
            0.549929,
            0.234259
          ],
          [
            0.549568,
            0.274799
          ],
          [
            0.513354,
            0.274799
          ]
        ],
        "name": "Office"
      },
      "geometry": {
        "type": "Polygon",
        "coordinates": [
          [
            [
              -123.00261263545367,
              49.250251142140115
            ],
            [
              -123.00252968910209,
              49.25025194624655
            ],
            [
              -123.00253051186499,
              49.250212812423115
            ],
            [
              -123.00261304797468,
              49.250212812423115
            ],
            [
              -123.00261263545367,
              49.250251142140115
            ]
          ]
        ]
      }
    },
    {
      "type": "Feature",
      "properties": {
        "room": "2088",
        "building": "SW3",
        "floor": "2",
        "type": "room",
        "source": "traced",
        "uv": [
          [
            0.513354,
            0.274799
          ],
          [
            0.549568,
            0.274799
          ],
          [
            0.550289,
            0.303399
          ],
          [
            0.513742,
            0.303403
          ]
        ],
        "name": "Office"
      },
      "geometry": {
        "type": "Polygon",
        "coordinates": [
          [
            [
              -123.00261304797468,
              49.250212812423115
            ],
            [
              -123.00253051186499,
              49.250212812423115
            ],
            [
              -123.00252886861831,
              49.25018520444704
            ],
            [
              -123.0026121636755,
              49.25018520058578
            ],
            [
              -123.00261304797468,
              49.250212812423115
            ]
          ]
        ]
      }
    },
    {
      "type": "Feature",
      "properties": {
        "room": "2725",
        "building": "SW3",
        "floor": "2",
        "type": "service",
        "source": "traced",
        "uv": [
          [
            0.392736,
            0.337667
          ],
          [
            0.421151,
            0.337975
          ],
          [
            0.421151,
            0.400888
          ],
          [
            0.393136,
            0.401505
          ]
        ],
        "name": "Storage"
      },
      "geometry": {
        "type": "Polygon",
        "coordinates": [
          [
            [
              -123.00288795106405,
              49.25015212507207
            ],
            [
              -123.00282318982374,
              49.2501518277554
            ],
            [
              -123.00282318982374,
              49.25009109696523
            ],
            [
              -123.00288703941541,
              49.250090501366586
            ],
            [
              -123.00288795106405,
              49.25015212507207
            ]
          ]
        ]
      }
    },
    {
      "type": "Feature",
      "properties": {
        "room": "2730",
        "building": "SW3",
        "floor": "2",
        "type": "service",
        "source": "traced",
        "uv": [
          [
            0.35489,
            0.454956
          ],
          [
            0.376448,
            0.454614
          ],
          [
            0.376445,
            0.534174
          ],
          [
            0.354834,
            0.534482
          ]
        ],
        "name": "Storage"
      },
      "geometry": {
        "type": "Polygon",
        "coordinates": [
          [
            [
              -123.0029742067002,
              49.25003890437605
            ],
            [
              -123.00292507339671,
              49.25003923451338
            ],
            [
              -123.00292508023408,
              49.24996243414356
            ],
            [
              -123.00297433433101,
              49.2499621368269
            ],
            [
              -123.0029742067002,
              49.25003890437605
            ]
          ]
        ]
      }
    },
    {
      "type": "Feature",
      "properties": {
        "room": "2702",
        "building": "SW3",
        "floor": "2",
        "type": "service",
        "source": "traced",
        "uv": [
          [
            0.502366,
            0.461398
          ],
          [
            0.520202,
            0.462168
          ],
          [
            0.520202,
            0.492623
          ],
          [
            0.502857,
            0.491607
          ]
        ],
        "name": "Communications"
      },
      "geometry": {
        "type": "Polygon",
        "coordinates": [
          [
            [
              -123.00263809096285,
              49.25003268582423
            ],
            [
              -123.00259744054995,
              49.250031942532566
            ],
            [
              -123.00259744054995,
              49.2500025438993
            ],
            [
              -123.00263697191413,
              49.25000352465817
            ],
            [
              -123.00263809096285,
              49.25003268582423
            ]
          ]
        ]
      }
    },
    {
      "type": "Feature",
      "properties": {
        "room": "2610",
        "building": "SW3",
        "floor": "2",
        "type": "service",
        "source": "traced",
        "uv": [
          [
            0.546336,
            0.500504
          ],
          [
            0.553389,
            0.500256
          ],
          [
            0.553229,
            0.524715
          ],
          [
            0.545214,
            0.524468
          ]
        ],
        "name": "Janitor"
      },
      "geometry": {
        "type": "Polygon",
        "coordinates": [
          [
            [
              -123.002537877986,
              49.249994936260855
            ],
            [
              -123.00252180334135,
              49.24999517565869
            ],
            [
              -123.00252216800081,
              49.24997156504726
            ],
            [
              -123.00254043516044,
              49.24997180347978
            ],
            [
              -123.002537877986,
              49.249994936260855
            ]
          ]
        ]
      }
    },
    {
      "type": "Feature",
      "properties": {
        "room": "2684",
        "building": "SW3",
        "floor": "2",
        "type": "service",
        "source": "traced",
        "uv": [
          [
            0.820572,
            0.495241
          ],
          [
            0.840539,
            0.494632
          ],
          [
            0.840539,
            0.535762
          ],
          [
            0.851016,
            0.535762
          ],
          [
            0.850423,
            0.561354
          ],
          [
            0.821023,
            0.564061
          ],
          [
            0.820589,
            0.539316
          ],
          [
            0.824277,
            0.539316
          ],
          [
            0.824277,
            0.503872
          ],
          [
            0.820372,
            0.504875
          ]
        ],
        "name": "Supply Closet"
      },
      "geometry": {
        "type": "Polygon",
        "coordinates": [
          [
            [
              -123.00191286079439,
              49.250000016707645
            ],
            [
              -123.00186735357336,
              49.250000604583775
            ],
            [
              -123.00186735357336,
              49.24996090122517
            ],
            [
              -123.00184347521633,
              49.24996090122517
            ],
            [
              -123.00184482673545,
              49.249936196913154
            ],
            [
              -123.00191183291054,
              49.24993358380856
            ],
            [
              -123.00191282204932,
              49.24995747049975
            ],
            [
              -123.00190441664886,
              49.24995747049975
            ],
            [
              -123.00190441664886,
              49.24999168508381
            ],
            [
              -123.0019133166187,
              49.249990716874024
            ],
            [
              -123.00191286079439,
              49.250000016707645
            ]
          ]
        ]
      }
    },
    {
      "type": "Feature",
      "properties": {
        "room": "2690",
        "building": "SW3",
        "floor": "2",
        "type": "service",
        "source": "traced",
        "uv": [
          [
            0.851016,
            0.535762
          ],
          [
            0.866238,
            0.534848
          ],
          [
            0.86604,
            0.565315
          ],
          [
            0.850423,
            0.561354
          ]
        ],
        "name": "Storage"
      },
      "geometry": {
        "type": "Polygon",
        "coordinates": [
          [
            [
              -123.00184347521633,
              49.24996090122517
            ],
            [
              -123.00180878242732,
              49.24996178352203
            ],
            [
              -123.0018092336934,
              49.249932373305
            ],
            [
              -123.00184482673545,
              49.249936196913154
            ],
            [
              -123.00184347521633,
              49.24996090122517
            ]
          ]
        ]
      }
    },
    {
      "type": "Feature",
      "properties": {
        "room": "2624",
        "building": "SW3",
        "floor": "2",
        "type": "service",
        "source": "traced",
        "uv": [
          [
            0.589243,
            0.524312
          ],
          [
            0.637982,
            0.525564
          ],
          [
            0.637543,
            0.563125
          ],
          [
            0.588976,
            0.565479
          ]
        ],
        "name": "Storage"
      },
      "geometry": {
        "type": "Polygon",
        "coordinates": [
          [
            [
              -123.00244008771543,
              49.24997195406874
            ],
            [
              -123.00232900560768,
              49.2499707454958
            ],
            [
              -123.00233000614206,
              49.24993448734233
            ],
            [
              -123.0024406962409,
              49.24993221499353
            ],
            [
              -123.00244008771543,
              49.24997195406874
            ]
          ]
        ]
      }
    },
    {
      "type": "Feature",
      "properties": {
        "room": "2626",
        "building": "SW3",
        "floor": "2",
        "type": "hallway",
        "source": "traced",
        "uv": [
          [
            0.637982,
            0.525564
          ],
          [
            0.655418,
            0.524981
          ],
          [
            0.65564,
            0.563769
          ],
          [
            0.637543,
            0.563125
          ]
        ]
      },
      "geometry": {
        "type": "Polygon",
        "coordinates": [
          [
            [
              -123.00232900560768,
              49.2499707454958
            ],
            [
              -123.00228926684342,
              49.24997130827378
            ],
            [
              -123.00228876087843,
              49.249933865680205
            ],
            [
              -123.00233000614206,
              49.24993448734233
            ],
            [
              -123.00232900560768,
              49.2499707454958
            ]
          ]
        ]
      }
    },
    {
      "type": "Feature",
      "properties": {
        "room": "S271",
        "building": "SW3",
        "floor": "2",
        "type": "hallway",
        "source": "traced",
        "uv": [
          [
            0.476898,
            0.439804
          ],
          [
            0.476951,
            0.459957
          ],
          [
            0.488112,
            0.461545
          ],
          [
            0.488274,
            0.454044
          ],
          [
            0.497845,
            0.454294
          ],
          [
            0.497683,
            0.439794
          ]
        ],
        "name": "Lounge Stairs"
      },
      "geometry": {
        "type": "Polygon",
        "coordinates": [
          [
            [
              -123.0026961356318,
              49.250053530811485
            ],
            [
              -123.00269601483835,
              49.25003407684149
            ],
            [
              -123.00267057756216,
              49.2500325439231
            ],
            [
              -123.00267020834445,
              49.25003978474228
            ],
            [
              -123.0026483948716,
              49.25003954341381
            ],
            [
              -123.0026487640893,
              49.25005354046462
            ],
            [
              -123.0026961356318,
              49.250053530811485
            ]
          ]
        ]
      }
    },
    {
      "type": "Feature",
      "properties": {
        "room": "2704",
        "building": "SW3",
        "floor": "2",
        "type": "room",
        "source": "traced",
        "uv": [
          [
            0.476951,
            0.459957
          ],
          [
            0.476498,
            0.534482
          ],
          [
            0.52022,
            0.533558
          ],
          [
            0.520202,
            0.492623
          ],
          [
            0.502857,
            0.491607
          ],
          [
            0.502366,
            0.461398
          ]
        ],
        "name": "Indoor Lounge"
      },
      "geometry": {
        "type": "Polygon",
        "coordinates": [
          [
            [
              -123.00269601483835,
              49.25003407684149
            ],
            [
              -123.00269704728044,
              49.2499621368269
            ],
            [
              -123.00259739952575,
              49.2499630287769
            ],
            [
              -123.00259744054995,
              49.2500025438993
            ],
            [
              -123.00263697191413,
              49.25000352465817
            ],
            [
              -123.00263809096285,
              49.25003268582423
            ],
            [
              -123.00269601483835,
              49.25003407684149
            ]
          ]
        ]
      }
    },
    {
      "type": "Feature",
      "properties": {
        "room": "2704",
        "building": "SW3",
        "floor": "2",
        "type": "room",
        "source": "traced",
        "uv": [
          [
            0.480156,
            0.534546
          ],
          [
            0.480477,
            0.577274
          ],
          [
            0.529515,
            0.577274
          ],
          [
            0.528874,
            0.564925
          ],
          [
            0.544572,
            0.564985
          ],
          [
            0.543457,
            0.532076
          ]
        ],
        "name": "Outdoor Lounge"
      },
      "geometry": {
        "type": "Polygon",
        "coordinates": [
          [
            [
              -123.00268871025362,
              49.24996207504682
            ],
            [
              -123.00268797865559,
              49.249920829116675
            ],
            [
              -123.00257621509047,
              49.249920829116675
            ],
            [
              -123.00257767600742,
              49.2499327497774
            ],
            [
              -123.00254189835651,
              49.24993269185857
            ],
            [
              -123.0025444395771,
              49.24996445937202
            ],
            [
              -123.00268871025362,
              49.24996207504682
            ]
          ]
        ]
      }
    },
    {
      "type": "Feature",
      "properties": {
        "room": "2606",
        "building": "SW3",
        "floor": "2",
        "type": "room",
        "source": "traced",
        "uv": [
          [
            0.556436,
            0.461977
          ],
          [
            0.568444,
            0.462229
          ],
          [
            0.567977,
            0.485433
          ],
          [
            0.556681,
            0.484891
          ]
        ],
        "name": "Washroom",
        "amenity": "washroom"
      },
      "geometry": {
        "type": "Polygon",
        "coordinates": [
          [
            [
              -123.00251485885782,
              49.25003212690751
            ],
            [
              -123.00248749116562,
              49.250031883648425
            ],
            [
              -123.00248855551541,
              49.250009484505874
            ],
            [
              -123.00251430047304,
              49.25001000770598
            ],
            [
              -123.00251485885782,
              49.25003212690751
            ]
          ]
        ]
      }
    },
    {
      "type": "Feature",
      "properties": {
        "room": "2616",
        "building": "SW3",
        "floor": "2",
        "type": "room",
        "source": "traced",
        "uv": [
          [
            0.568444,
            0.462229
          ],
          [
            0.581107,
            0.462481
          ],
          [
            0.580617,
            0.485647
          ],
          [
            0.567977,
            0.485433
          ]
        ],
        "name": "Washroom",
        "amenity": "washroom"
      },
      "geometry": {
        "type": "Polygon",
        "coordinates": [
          [
            [
              -123.00248749116562,
              49.250031883648425
            ],
            [
              -123.00245863064879,
              49.25003164038933
            ],
            [
              -123.00245974741837,
              49.25000927792871
            ],
            [
              -123.00248855551541,
              49.250009484505874
            ],
            [
              -123.00248749116562,
              49.250031883648425
            ]
          ]
        ]
      }
    },
    {
      "type": "Feature",
      "properties": {
        "room": "2618",
        "building": "SW3",
        "floor": "2",
        "type": "room",
        "source": "traced",
        "uv": [
          [
            0.567977,
            0.485433
          ],
          [
            0.589113,
            0.485773
          ],
          [
            0.589243,
            0.524312
          ],
          [
            0.567496,
            0.524468
          ]
        ],
        "name": "Men's Washroom",
        "amenity": "washroom"
      },
      "geometry": {
        "type": "Polygon",
        "coordinates": [
          [
            [
              -123.00248855551541,
              49.250009484505874
            ],
            [
              -123.00244038400125,
              49.250009156299164
            ],
            [
              -123.00244008771543,
              49.24997195406874
            ],
            [
              -123.0024896517729,
              49.24997180347978
            ],
            [
              -123.00248855551541,
              49.250009484505874
            ]
          ]
        ]
      }
    },
    {
      "type": "Feature",
      "properties": {
        "room": null,
        "building": "SW3",
        "floor": "2",
        "type": "hallway",
        "source": "traced",
        "uv": [
          [
            0.545996,
            0.461679
          ],
          [
            0.546496,
            0.484445
          ],
          [
            0.556681,
            0.484891
          ],
          [
            0.556436,
            0.461977
          ]
        ]
      },
      "geometry": {
        "type": "Polygon",
        "coordinates": [
          [
            [
              -123.00253865288735,
              49.25003241457104
            ],
            [
              -123.00253751332654,
              49.250010438235954
            ],
            [
              -123.00251430047304,
              49.25001000770598
            ],
            [
              -123.00251485885782,
              49.25003212690751
            ],
            [
              -123.00253865288735,
              49.25003241457104
            ]
          ]
        ]
      }
    },
    {
      "type": "Feature",
      "properties": {
        "room": null,
        "building": "SW3",
        "floor": "2",
        "type": "hallway",
        "source": "traced",
        "uv": [
          [
            0.581107,
            0.462481
          ],
          [
            0.589542,
            0.462353
          ],
          [
            0.589113,
            0.485773
          ],
          [
            0.580617,
            0.485647
          ]
        ]
      },
      "geometry": {
        "type": "Polygon",
        "coordinates": [
          [
            [
              -123.00245863064879,
              49.25003164038933
            ],
            [
              -123.00243940625808,
              49.25003176394951
            ],
            [
              -123.00244038400125,
              49.250009156299164
            ],
            [
              -123.00245974741837,
              49.25000927792871
            ],
            [
              -123.00245863064879,
              49.25003164038933
            ]
          ]
        ]
      }
    },
    {
      "type": "Feature",
      "properties": {
        "room": "2092",
        "building": "SW3",
        "floor": "2",
        "type": "service",
        "source": "traced",
        "uv": [
          [
            0.485382,
            0.363406
          ],
          [
            0.495966,
            0.363406
          ],
          [
            0.496174,
            0.390594
          ],
          [
            0.485797,
            0.389955
          ]
        ],
        "name": "Janitor"
      },
      "geometry": {
        "type": "Polygon",
        "coordinates": [
          [
            [
              -123.00267679956413,
              49.25012727885891
            ],
            [
              -123.00265267734109,
              49.25012727885891
            ],
            [
              -123.0026522032838,
              49.250101033905985
            ],
            [
              -123.00267585372866,
              49.250101650741534
            ],
            [
              -123.00267679956413,
              49.25012727885891
            ]
          ]
        ]
      }
    }
  ]
}