{
  "type": "FeatureCollection",
  "features": [
    {
      "type": "Feature",
      "properties": {
        "room": "4695",
        "building": "SW3",
        "floor": "4",
        "type": "room",
        "source": "traced",
        "uv": [
          [
            0.700435,
            0.504221
          ],
          [
            0.699897,
            0.575591
          ],
          [
            0.735077,
            0.575591
          ],
          [
            0.735257,
            0.504497
          ]
        ],
        "name": "Classroom"
      },
      "geometry": {
        "type": "Polygon",
        "coordinates": [
          [
            [
              -123.0019958328949,
              49.25015104643015
            ],
            [
              -123.00199739166433,
              49.25006354144236
            ],
            [
              -123.00189555204922,
              49.25006354144236
            ],
            [
              -123.00189503245954,
              49.250150707263685
            ],
            [
              -123.0019958328949,
              49.25015104643015
            ]
          ]
        ]
      }
    },
    {
      "type": "Feature",
      "properties": {
        "room": "4675",
        "building": "SW3",
        "floor": "4",
        "type": "room",
        "source": "traced",
        "uv": [
          [
            0.669024,
            0.504221
          ],
          [
            0.700435,
            0.504221
          ],
          [
            0.699897,
            0.575591
          ],
          [
            0.668665,
            0.575038
          ]
        ],
        "name": "Classroom"
      },
      "geometry": {
        "type": "Polygon",
        "coordinates": [
          [
            [
              -123.00208676112237,
              49.25015104643015
            ],
            [
              -123.0019958328949,
              49.25015104643015
            ],
            [
              -123.00199739166433,
              49.25006354144236
            ],
            [
              -123.00208780030214,
              49.25006421977645
            ],
            [
              -123.00208676112237,
              49.25015104643015
            ]
          ]
        ]
      }
    },
    {
      "type": "Feature",
      "properties": {
        "room": "4665",
        "building": "SW3",
        "floor": "4",
        "type": "room",
        "source": "traced",
        "uv": [
          [
            0.59744,
            0.503315
          ],
          [
            0.669024,
            0.504221
          ],
          [
            0.668665,
            0.575038
          ],
          [
            0.597081,
            0.574686
          ]
        ],
        "name": "Computer Lab"
      },
      "geometry": {
        "type": "Polygon",
        "coordinates": [
          [
            [
              -123.00229398219142,
              49.250152156271156
            ],
            [
              -123.00208676112237,
              49.25015104643015
            ],
            [
              -123.00208780030214,
              49.25006421977645
            ],
            [
              -123.00229502137117,
              49.250064651285356
            ],
            [
              -123.00229398219142,
              49.250152156271156
            ]
          ]
        ]
      }
    },
    {
      "type": "Feature",
      "properties": {
        "room": "4635",
        "building": "SW3",
        "floor": "4",
        "type": "room",
        "source": "traced",
        "uv": [
          [
            0.545926,
            0.502762
          ],
          [
            0.59744,
            0.503315
          ],
          [
            0.597081,
            0.574686
          ],
          [
            0.545387,
            0.575239
          ]
        ],
        "name": "Projects Room"
      },
      "geometry": {
        "type": "Polygon",
        "coordinates": [
          [
            [
              -123.00244310448474,
              49.25015283460354
            ],
            [
              -123.00229398219142,
              49.250152156271156
            ],
            [
              -123.00229502137117,
              49.250064651285356
            ],
            [
              -123.00244466325418,
              49.25006397295178
            ],
            [
              -123.00244310448474,
              49.25015283460354
            ]
          ]
        ]
      }
    },
    {
      "type": "Feature",
      "properties": {
        "room": "4603",
        "building": "SW3",
        "floor": "4",
        "type": "room",
        "source": "traced",
        "uv": [
          [
            0.52404,
            0.544824
          ],
          [
            0.54522,
            0.544824
          ],
          [
            0.545387,
            0.575239
          ],
          [
            0.523681,
            0.575253
          ]
        ],
        "name": "Office"
      },
      "geometry": {
        "type": "Polygon",
        "coordinates": [
          [
            [
              -123.0025064601306,
              49.25010126415384
            ],
            [
              -123.00244514852551,
              49.25010126415384
            ],
            [
              -123.00244466325418,
              49.25006397295178
            ],
            [
              -123.00250749931035,
              49.25006395580701
            ],
            [
              -123.0025064601306,
              49.25010126415384
            ]
          ]
        ]
      }
    },
    {
      "type": "Feature",
      "properties": {
        "room": "4604",
        "building": "SW3",
        "floor": "4",
        "type": "room",
        "source": "traced",
        "uv": [
          [
            0.517219,
            0.575806
          ],
          [
            0.502501,
            0.575806
          ],
          [
            0.502501,
            0.545654
          ],
          [
            0.517399,
            0.54593
          ]
        ],
        "name": "Office"
      },
      "geometry": {
        "type": "Polygon",
        "coordinates": [
          [
            [
              -123.00252620454552,
              49.25006327747286
            ],
            [
              -123.00256881091505,
              49.25006327747286
            ],
            [
              -123.00256881091505,
              49.25010024665343
            ],
            [
              -123.00252568495586,
              49.25009990748717
            ],
            [
              -123.00252620454552,
              49.25006327747286
            ]
          ]
        ]
      }
    },
    {
      "type": "Feature",
      "properties": {
        "room": "4606",
        "building": "SW3",
        "floor": "4",
        "type": "room",
        "source": "traced",
        "uv": [
          [
            0.502501,
            0.523523
          ],
          [
            0.516681,
            0.524077
          ],
          [
            0.517399,
            0.54593
          ],
          [
            0.502501,
            0.545654
          ]
        ],
        "name": "Office"
      },
      "geometry": {
        "type": "Polygon",
        "coordinates": [
          [
            [
              -123.00256881091505,
              49.25012737997966
            ],
            [
              -123.00252776331536,
              49.250126701646934
            ],
            [
              -123.00252568495586,
              49.25009990748717
            ],
            [
              -123.00256881091505,
              49.25010024665343
            ],
            [
              -123.00256881091505,
              49.25012737997966
            ]
          ]
        ]
      }
    },
    {
      "type": "Feature",
      "properties": {
        "room": "4608",
        "building": "SW3",
        "floor": "4",
        "type": "room",
        "source": "traced",
        "uv": [
          [
            0.502501,
            0.501116
          ],
          [
            0.516681,
            0.50084
          ],
          [
            0.516681,
            0.524077
          ],
          [
            0.502501,
            0.523523
          ]
        ],
        "name": "Office"
      },
      "geometry": {
        "type": "Polygon",
        "coordinates": [
          [
            [
              -123.00256881091505,
              49.25015485245686
            ],
            [
              -123.00252776331536,
              49.25015519162329
            ],
            [
              -123.00252776331536,
              49.250126701646934
            ],
            [
              -123.00256881091505,
              49.25012737997966
            ],
            [
              -123.00256881091505,
              49.25015485245686
            ]
          ]
        ]
      }
    },
    {
      "type": "Feature",
      "properties": {
        "room": "4605",
        "building": "SW3",
        "floor": "4",
        "type": "room",
        "source": "traced",
        "uv": [
          [
            0.516681,
            0.50084
          ],
          [
            0.545926,
            0.502762
          ],
          [
            0.54522,
            0.544824
          ],
          [
            0.52404,
            0.544824
          ],
          [
            0.523681,
            0.575253
          ],
          [
            0.517219,
            0.575806
          ]
        ],
        "name": "Office"
      },
      "geometry": {
        "type": "Polygon",
        "coordinates": [
          [
            [
              -123.00252776331536,
              49.25015519162329
            ],
            [
              -123.00244310448474,
              49.25015283460354
            ],
            [
              -123.00244514852551,
              49.25010126415384
            ],
            [
              -123.0025064601306,
              49.25010126415384
            ],
            [
              -123.00250749931035,
              49.25006395580701
            ],
            [
              -123.00252620454552,
              49.25006327747286
            ],
            [
              -123.00252776331536,
              49.25015519162329
            ]
          ]
        ]
      }
    },
    {
      "type": "Feature",
      "properties": {
        "room": "4601",
        "building": "SW3",
        "floor": "4",
        "type": "service",
        "source": "traced",
        "uv": [
          [
            0.486256,
            0.501674
          ],
          [
            0.502501,
            0.501116
          ],
          [
            0.502501,
            0.575806
          ],
          [
            0.485897,
            0.574427
          ]
        ],
        "name": "Storage"
      },
      "geometry": {
        "type": "Polygon",
        "coordinates": [
          [
            [
              -123.00261583741101,
              49.250154169361195
            ],
            [
              -123.00256881091505,
              49.25015485245686
            ],
            [
              -123.00256881091505,
              49.25006327747286
            ],
            [
              -123.00261687659076,
              49.25006496854479
            ],
            [
              -123.00261583741101,
              49.250154169361195
            ]
          ]
        ]
      }
    },
    {
      "type": "Feature",
      "properties": {
        "room": "4702",
        "building": "SW3",
        "floor": "4",
        "type": "service",
        "source": "traced",
        "uv": [
          [
            0.477281,
            0.5996
          ],
          [
            0.491281,
            0.599323
          ],
          [
            0.491461,
            0.62339
          ],
          [
            0.47764,
            0.623943
          ]
        ],
        "name": "Communications"
      },
      "geometry": {
        "type": "Polygon",
        "coordinates": [
          [
            [
              -123.00264181690446,
              49.250034104346156
            ],
            [
              -123.00260128889444,
              49.25003444351344
            ],
            [
              -123.00260076930476,
              49.25000493596502
            ],
            [
              -123.0026407777247,
              49.25000425763011
            ],
            [
              -123.00264181690446,
              49.250034104346156
            ]
          ]
        ]
      }
    },
    {
      "type": "Feature",
      "properties": {
        "room": "4093",
        "building": "SW3",
        "floor": "4",
        "type": "service",
        "source": "traced",
        "uv": [
          [
            0.463899,
            0.543487
          ],
          [
            0.472792,
            0.543782
          ],
          [
            0.472505,
            0.552919
          ],
          [
            0.463995,
            0.552477
          ]
        ],
        "name": "Communications"
      },
      "geometry": {
        "type": "Polygon",
        "coordinates": [
          [
            [
              -123.00268055427507,
              49.250102903120506
            ],
            [
              -123.0026548108712,
              49.25010254173921
            ],
            [
              -123.00265564130393,
              49.25009133892277
            ],
            [
              -123.00268027746418,
              49.250091880994546
            ],
            [
              -123.00268055427507,
              49.250102903120506
            ]
          ]
        ]
      }
    },
    {
      "type": "Feature",
      "properties": {
        "room": "4901",
        "building": "SW3",
        "floor": "4",
        "type": "service",
        "source": "traced",
        "uv": [
          [
            0.463612,
            0.521381
          ],
          [
            0.472314,
            0.521528
          ],
          [
            0.472792,
            0.543782
          ],
          [
            0.463899,
            0.543487
          ]
        ],
        "name": "Janitor"
      },
      "geometry": {
        "type": "Polygon",
        "coordinates": [
          [
            [
              -123.00268138470734,
              49.25013000669813
            ],
            [
              -123.00265619492528,
              49.25012982600788
            ],
            [
              -123.0026548108712,
              49.25010254173921
            ],
            [
              -123.00268055427507,
              49.250102903120506
            ],
            [
              -123.00268138470734,
              49.25013000669813
            ]
          ]
        ]
      }
    },
    {
      "type": "Feature",
      "properties": {
        "room": "4089",
        "building": "SW3",
        "floor": "4",
        "type": "room",
        "source": "traced",
        "uv": [
          [
            0.456932,
            0.47487
          ],
          [
            0.472463,
            0.47467
          ],
          [
            0.472075,
            0.498008
          ],
          [
            0.456932,
            0.498606
          ]
        ],
        "name": "Office"
      },
      "geometry": {
        "type": "Polygon",
        "coordinates": [
          [
            [
              -123.002700723374,
              49.25018703268489
            ],
            [
              -123.00265576428009,
              49.250187277246454
            ],
            [
              -123.00265688825758,
              49.250158663546955
            ],
            [
              -123.002700723374,
              49.25015792986224
            ],
            [
              -123.002700723374,
              49.25018703268489
            ]
          ]
        ]
      }
    },
    {
      "type": "Feature",
      "properties": {
        "room": "4085",
        "building": "SW3",
        "floor": "4",
        "type": "room",
        "source": "traced",
        "uv": [
          [
            0.442177,
            0.452729
          ],
          [
            0.472204,
            0.453128
          ],
          [
            0.472463,
            0.47467
          ],
          [
            0.442566,
            0.474271
          ]
        ],
        "name": "Office"
      },
      "geometry": {
        "type": "Polygon",
        "coordinates": [
          [
            [
              -123.0027434345129,
              49.25021417900015
            ],
            [
              -123.00265651359834,
              49.250213689877285
            ],
            [
              -123.00265576428009,
              49.250187277246454
            ],
            [
              -123.00274231053571,
              49.25018776636918
            ],
            [
              -123.0027434345129,
              49.25021417900015
            ]
          ]
        ]
      }
    },
    {
      "type": "Feature",
      "properties": {
        "room": "4083",
        "building": "SW3",
        "floor": "4",
        "type": "room",
        "source": "traced",
        "uv": [
          [
            0.442174,
            0.418757
          ],
          [
            0.471942,
            0.419555
          ],
          [
            0.472204,
            0.453128
          ],
          [
            0.442177,
            0.452729
          ]
        ],
        "name": "Office"
      },
      "geometry": {
        "type": "Polygon",
        "coordinates": [
          [
            [
              -123.00274344306504,
              49.25025583089155
            ],
            [
              -123.0026572714687,
              49.250254852647004
            ],
            [
              -123.00265651359834,
              49.250213689877285
            ],
            [
              -123.0027434345129,
              49.25021417900015
            ],
            [
              -123.00274344306504,
              49.25025583089155
            ]
          ]
        ]
      }
    },
    {
      "type": "Feature",
      "properties": {
        "room": "4081",
        "building": "SW3",
        "floor": "4",
        "type": "room",
        "source": "traced",
        "uv": [
          [
            0.442304,
            0.384848
          ],
          [
            0.472072,
            0.385047
          ],
          [
            0.471942,
            0.419555
          ],
          [
            0.442174,
            0.418757
          ]
        ],
        "name": "Office"
      },
      "geometry": {
        "type": "Polygon",
        "coordinates": [
          [
            [
              -123.00274306840578,
              49.25029740626488
            ],
            [
              -123.00265689680944,
              49.250297161704225
            ],
            [
              -123.0026572714687,
              49.250254852647004
            ],
            [
              -123.00274344306504,
              49.25025583089155
            ],
            [
              -123.00274306840578,
              49.25029740626488
            ]
          ]
        ]
      }
    },
    {
      "type": "Feature",
      "properties": {
        "room": "4079",
        "building": "SW3",
        "floor": "4",
        "type": "room",
        "source": "traced",
        "uv": [
          [
            0.442174,
            0.351537
          ],
          [
            0.472331,
            0.350938
          ],
          [
            0.472072,
            0.385047
          ],
          [
            0.442304,
            0.384848
          ]
        ],
        "name": "Office"
      },
      "geometry": {
        "type": "Polygon",
        "coordinates": [
          [
            [
              -123.00274344306438,
              49.250338247919444
            ],
            [
              -123.00265614749053,
              49.250338981601885
            ],
            [
              -123.00265689680944,
              49.250297161704225
            ],
            [
              -123.00274306840578,
              49.25029740626488
            ],
            [
              -123.00274344306438,
              49.250338247919444
            ]
          ]
        ]
      }
    },
    {
      "type": "Feature",
      "properties": {
        "room": "4077",
        "building": "SW3",
        "floor": "4",
        "type": "room",
        "source": "traced",
        "uv": [
          [
            0.442174,
            0.317428
          ],
          [
            0.472331,
            0.317428
          ],
          [
            0.472331,
            0.350938
          ],
          [
            0.442174,
            0.351537
          ]
        ],
        "name": "Office"
      },
      "geometry": {
        "type": "Polygon",
        "coordinates": [
          [
            [
              -123.00274344306438,
              49.25038006778439
            ],
            [
              -123.00265614749053,
              49.25038006778439
            ],
            [
              -123.00265614749053,
              49.250338981601885
            ],
            [
              -123.00274344306438,
              49.250338247919444
            ],
            [
              -123.00274344306438,
              49.25038006778439
            ]
          ]
        ]
      }
    },
    {
      "type": "Feature",
      "properties": {
        "room": "4075",
        "building": "SW3",
        "floor": "4",
        "type": "room",
        "source": "traced",
        "uv": [
          [
            0.442433,
            0.295686
          ],
          [
            0.47246,
            0.295487
          ],
          [
            0.472331,
            0.317428
          ],
          [
            0.442174,
            0.317428
          ]
        ],
        "name": "Office"
      },
      "geometry": {
        "type": "Polygon",
        "coordinates": [
          [
            [
              -123.00274269374613,
              49.25040672487256
            ],
            [
              -123.00265577283157,
              49.25040696943262
            ],
            [
              -123.00265614749053,
              49.25038006778439
            ],
            [
              -123.00274344306438,
              49.25038006778439
            ],
            [
              -123.00274269374613,
              49.25040672487256
            ]
          ]
        ]
      }
    },
    {
      "type": "Feature",
      "properties": {
        "room": "4080",
        "building": "SW3",
        "floor": "4",
        "type": "room",
        "source": "traced",
        "uv": [
          [
            0.486438,
            0.295886
          ],
          [
            0.515947,
            0.295686
          ],
          [
            0.515817,
            0.317029
          ],
          [
            0.486438,
            0.31683
          ]
        ],
        "name": "Office"
      },
      "geometry": {
        "type": "Polygon",
        "coordinates": [
          [
            [
              -123.00261530964707,
              49.25040648031208
            ],
            [
              -123.00252988736898,
              49.25040672487256
            ],
            [
              -123.00253026202793,
              49.25038055690521
            ],
            [
              -123.00261530964707,
              49.25038080146581
            ],
            [
              -123.00261530964707,
              49.25040648031208
            ]
          ]
        ]
      }
    },
    {
      "type": "Feature",
      "properties": {
        "room": "4084",
        "building": "SW3",
        "floor": "4",
        "type": "room",
        "source": "traced",
        "uv": [
          [
            0.486438,
            0.31683
          ],
          [
            0.515817,
            0.317029
          ],
          [
            0.515817,
            0.362308
          ],
          [
            0.486567,
            0.362108
          ]
        ],
        "name": "Office"
      },
      "geometry": {
        "type": "Polygon",
        "coordinates": [
          [
            [
              -123.00261530964707,
              49.25038080146581
            ],
            [
              -123.00253026202793,
              49.25038055690521
            ],
            [
              -123.00253026202793,
              49.250325041639115
            ],
            [
              -123.00261493498809,
              49.250325286199995
            ],
            [
              -123.00261530964707,
              49.25038080146581
            ]
          ]
        ]
      }
    },
    {
      "type": "Feature",
      "properties": {
        "room": "4086",
        "building": "SW3",
        "floor": "4",
        "type": "room",
        "source": "traced",
        "uv": [
          [
            0.486567,
            0.362108
          ],
          [
            0.515817,
            0.362308
          ],
          [
            0.515559,
            0.384449
          ],
          [
            0.486308,
            0.385047
          ]
        ],
        "name": "Office"
      },
      "geometry": {
        "type": "Polygon",
        "coordinates": [
          [
            [
              -123.00261493498809,
              49.250325286199995
            ],
            [
              -123.00253026202793,
              49.250325041639115
            ],
            [
              -123.00253101134618,
              49.25029789538519
            ],
            [
              -123.00261568430604,
              49.25029716170215
            ],
            [
              -123.00261493498809,
              49.250325286199995
            ]
          ]
        ]
      }
    },
    {
      "type": "Feature",
      "properties": {
        "room": "4090",
        "building": "SW3",
        "floor": "4",
        "type": "room",
        "source": "traced",
        "uv": [
          [
            0.486308,
            0.385047
          ],
          [
            0.515559,
            0.384449
          ],
          [
            0.515688,
            0.418757
          ],
          [
            0.486697,
            0.418757
          ]
        ],
        "name": "Office"
      },
      "geometry": {
        "type": "Polygon",
        "coordinates": [
          [
            [
              -123.00261568430604,
              49.25029716170215
            ],
            [
              -123.00253101134618,
              49.25029789538519
            ],
            [
              -123.00253063668723,
              49.25025583088984
            ],
            [
              -123.00261456032885,
              49.25025583088984
            ],
            [
              -123.00261568430604,
              49.25029716170215
            ]
          ]
        ]
      }
    },
    {
      "type": "Feature",
      "properties": {
        "room": "4092",
        "building": "SW3",
        "floor": "4",
        "type": "room",
        "source": "traced",
        "uv": [
          [
            0.486697,
            0.418757
          ],
          [
            0.515688,
            0.418757
          ],
          [
            0.515817,
            0.452866
          ],
          [
            0.486308,
            0.452667
          ]
        ],
        "name": "Office"
      },
      "geometry": {
        "type": "Polygon",
        "coordinates": [
          [
            [
              -123.00261456032885,
              49.25025583088984
            ],
            [
              -123.00253063668723,
              49.25025583088984
            ],
            [
              -123.00253026202793,
              49.25021401091965
            ],
            [
              -123.00261568430604,
              49.2502142554811
            ],
            [
              -123.00261456032885,
              49.25025583088984
            ]
          ]
        ]
      }
    },
    {
      "type": "Feature",
      "properties": {
        "room": "4096",
        "building": "SW3",
        "floor": "4",
        "type": "room",
        "source": "traced",
        "uv": [
          [
            0.486308,
            0.452667
          ],
          [
            0.515817,
            0.452866
          ],
          [
            0.515688,
            0.474807
          ],
          [
            0.486438,
            0.474608
          ]
        ],
        "name": "Office"
      },
      "geometry": {
        "type": "Polygon",
        "coordinates": [
          [
            [
              -123.00261568430604,
              49.2502142554811
            ],
            [
              -123.00253026202793,
              49.25021401091965
            ],
            [
              -123.00253063668723,
              49.250187109166234
            ],
            [
              -123.00261530964707,
              49.250187353727426
            ],
            [
              -123.00261568430604,
              49.2502142554811
            ]
          ]
        ]
      }
    },
    {
      "type": "Feature",
      "properties": {
        "room": "4098",
        "building": "SW3",
        "floor": "4",
        "type": "room",
        "source": "traced",
        "uv": [
          [
            0.486438,
            0.474608
          ],
          [
            0.501581,
            0.474608
          ],
          [
            0.502501,
            0.501116
          ],
          [
            0.486256,
            0.501674
          ]
        ],
        "name": "Office"
      },
      "geometry": {
        "type": "Polygon",
        "coordinates": [
          [
            [
              -123.00261530964707,
              49.250187353727426
            ],
            [
              -123.00257147453067,
              49.250187353727426
            ],
            [
              -123.00256881091505,
              49.25015485245686
            ],
            [
              -123.00261583741101,
              49.250154169361195
            ],
            [
              -123.00261530964707,
              49.250187353727426
            ]
          ]
        ]
      }
    },
    {
      "type": "Feature",
      "properties": {
        "room": "4715",
        "building": "SW3",
        "floor": "4",
        "type": "room",
        "source": "traced",
        "uv": [
          [
            0.442417,
            0.501475
          ],
          [
            0.463276,
            0.501475
          ],
          [
            0.463393,
            0.53488
          ],
          [
            0.442883,
            0.534341
          ]
        ],
        "name": "Office"
      },
      "geometry": {
        "type": "Polygon",
        "coordinates": [
          [
            [
              -123.00274274006776,
              49.25015441233006
            ],
            [
              -123.0026823577576,
              49.25015441233006
            ],
            [
              -123.00268202042639,
              49.25011345592529
            ],
            [
              -123.00274139074239,
              49.25011411651269
            ],
            [
              -123.00274274006776,
              49.25015441233006
            ]
          ]
        ]
      }
    },
    {
      "type": "Feature",
      "properties": {
        "room": "4705",
        "building": "SW3",
        "floor": "4",
        "type": "room",
        "source": "traced",
        "uv": [
          [
            0.442883,
            0.534341
          ],
          [
            0.463393,
            0.53488
          ],
          [
            0.463995,
            0.552477
          ],
          [
            0.442301,
            0.551941
          ]
        ],
        "name": "Resources"
      },
      "geometry": {
        "type": "Polygon",
        "coordinates": [
          [
            [
              -123.00274139074239,
              49.25011411651269
            ],
            [
              -123.00268202042639,
              49.25011345592529
            ],
            [
              -123.00268027746418,
              49.250091880994546
            ],
            [
              -123.00274307739897,
              49.25009253731821
            ],
            [
              -123.00274139074239,
              49.25011411651269
            ]
          ]
        ]
      }
    },
    {
      "type": "Feature",
      "properties": {
        "room": "4725",
        "building": "SW3",
        "floor": "4",
        "type": "room",
        "source": "traced",
        "uv": [
          [
            0.398252,
            0.501296
          ],
          [
            0.442417,
            0.501475
          ],
          [
            0.442301,
            0.551941
          ],
          [
            0.398718,
            0.551762
          ]
        ],
        "name": "Classroom"
      },
      "geometry": {
        "type": "Polygon",
        "coordinates": [
          [
            [
              -123.00287058864592,
              49.25015463252575
            ],
            [
              -123.00274274006776,
              49.25015441233006
            ],
            [
              -123.00274307739897,
              49.25009253731821
            ],
            [
              -123.00286923932052,
              49.25009275751418
            ],
            [
              -123.00287058864592,
              49.25015463252575
            ]
          ]
        ]
      }
    },
    {
      "type": "Feature",
      "properties": {
        "room": "4745",
        "building": "SW3",
        "floor": "4",
        "type": "room",
        "source": "traced",
        "uv": [
          [
            0.354411,
            0.50103
          ],
          [
            0.398252,
            0.501296
          ],
          [
            0.398718,
            0.551762
          ],
          [
            0.354528,
            0.551496
          ]
        ],
        "name": "Office"
      },
      "geometry": {
        "type": "Polygon",
        "coordinates": [
          [
            [
              -123.00299749887446,
              49.25015495822319
            ],
            [
              -123.00287058864592,
              49.25015463252575
            ],
            [
              -123.00286923932052,
              49.25009275751418
            ],
            [
              -123.00299716154296,
              49.25009308321205
            ],
            [
              -123.00299749887446,
              49.25015495822319
            ]
          ]
        ]
      }
    },
    {
      "type": "Feature",
      "properties": {
        "room": "4765",
        "building": "SW3",
        "floor": "4",
        "type": "room",
        "source": "traced",
        "uv": [
          [
            0.334277,
            0.501389
          ],
          [
            0.354411,
            0.50103
          ],
          [
            0.354528,
            0.551496
          ],
          [
            0.334511,
            0.551676
          ]
        ],
        "name": "Electrical Lab"
      },
      "geometry": {
        "type": "Polygon",
        "coordinates": [
          [
            [
              -123.00305578163184,
              49.25015451783247
            ],
            [
              -123.00299749887446,
              49.25015495822319
            ],
            [
              -123.00299716154296,
              49.25009308321205
            ],
            [
              -123.00305510696916,
              49.25009286301673
            ],
            [
              -123.00305578163184,
              49.25015451783247
            ]
          ]
        ]
      }
    },
    {
      "type": "Feature",
      "properties": {
        "room": "4775",
        "building": "SW3",
        "floor": "4",
        "type": "room",
        "source": "traced",
        "uv": [
          [
            0.311097,
            0.501677
          ],
          [
            0.334277,
            0.501389
          ],
          [
            0.334511,
            0.551676
          ],
          [
            0.31098,
            0.551424
          ]
        ],
        "name": "Physical Sciences Lab"
      },
      "geometry": {
        "type": "Polygon",
        "coordinates": [
          [
            [
              -123.00312288428705,
              49.25015416566782
            ],
            [
              -123.00305578163184,
              49.25015451783247
            ],
            [
              -123.00305510696916,
              49.25009286301673
            ],
            [
              -123.00312322161852,
              49.25009317143932
            ],
            [
              -123.00312288428705,
              49.25015416566782
            ]
          ]
        ]
      }
    },
    {
      "type": "Feature",
      "properties": {
        "room": "4785",
        "building": "SW3",
        "floor": "4",
        "type": "room",
        "source": "traced",
        "uv": [
          [
            0.272758,
            0.501677
          ],
          [
            0.311097,
            0.501677
          ],
          [
            0.31098,
            0.551424
          ],
          [
            0.272642,
            0.551424
          ]
        ],
        "name": "Classroom"
      },
      "geometry": {
        "type": "Polygon",
        "coordinates": [
          [
            [
              -123.00323386629827,
              49.25015416566782
            ],
            [
              -123.00312288428705,
              49.25015416566782
            ],
            [
              -123.00312322161852,
              49.25009317143932
            ],
            [
              -123.00323420362948,
              49.25009317143932
            ],
            [
              -123.00323386629827,
              49.25015416566782
            ]
          ]
        ]
      }
    },
    {
      "type": "Feature",
      "properties": {
        "room": "4795",
        "building": "SW3",
        "floor": "4",
        "type": "room",
        "source": "traced",
        "uv": [
          [
            0.244613,
            0.501746
          ],
          [
            0.272758,
            0.501677
          ],
          [
            0.272642,
            0.551424
          ],
          [
            0.244962,
            0.550596
          ]
        ],
        "name": "Office"
      },
      "geometry": {
        "type": "Polygon",
        "coordinates": [
          [
            [
              -123.00331534224169,
              49.250154080273404
            ],
            [
              -123.00323386629827,
              49.25015416566782
            ],
            [
              -123.00323420362948,
              49.25009317143932
            ],
            [
              -123.00331433024753,
              49.250094187024445
            ],
            [
              -123.00331534224169,
              49.250154080273404
            ]
          ]
        ]
      }
    },
    {
      "type": "Feature",
      "properties": {
        "room": "4790",
        "building": "SW3",
        "floor": "4",
        "type": "room",
        "source": "traced",
        "uv": [
          [
            0.215664,
            0.583048
          ],
          [
            0.272561,
            0.583442
          ],
          [
            0.272433,
            0.655367
          ],
          [
            0.215664,
            0.655564
          ]
        ],
        "name": "Physical Sciences Lab"
      },
      "geometry": {
        "type": "Polygon",
        "coordinates": [
          [
            [
              -123.00339914365422,
              49.25005439861948
            ],
            [
              -123.00323443714231,
              49.2500539154118
            ],
            [
              -123.00323480726945,
              49.249965729967926
            ],
            [
              -123.00339914365422,
              49.24996548836367
            ],
            [
              -123.00339914365422,
              49.25005439861948
            ]
          ]
        ]
      }
    },
    {
      "type": "Feature",
      "properties": {
        "room": "4770",
        "building": "SW3",
        "floor": "4",
        "type": "room",
        "source": "traced",
        "uv": [
          [
            0.272561,
            0.583442
          ],
          [
            0.329647,
            0.582973
          ],
          [
            0.329647,
            0.655489
          ],
          [
            0.272433,
            0.655367
          ]
        ],
        "name": "Physical Sciences Lab"
      },
      "geometry": {
        "type": "Polygon",
        "coordinates": [
          [
            [
              -123.00323443714231,
              49.2500539154118
            ],
            [
              -123.00306918516156,
              49.25005449088445
            ],
            [
              -123.00306918516156,
              49.24996558062881
            ],
            [
              -123.00323480726945,
              49.249965729967926
            ],
            [
              -123.00323443714231,
              49.2500539154118
            ]
          ]
        ]
      }
    },
    {
      "type": "Feature",
      "properties": {
        "room": "4750",
        "building": "SW3",
        "floor": "4",
        "type": "service",
        "source": "traced",
        "uv": [
          [
            0.329647,
            0.582973
          ],
          [
            0.359295,
            0.582373
          ],
          [
            0.359679,
            0.655087
          ],
          [
            0.329647,
            0.655489
          ]
        ],
        "name": "Storage"
      },
      "geometry": {
        "type": "Polygon",
        "coordinates": [
          [
            [
              -123.00306918516156,
              49.25005449088445
            ],
            [
              -123.00298336014731,
              49.25005522551689
            ],
            [
              -123.00298224976618,
              49.2499660736583
            ],
            [
              -123.00306918516156,
              49.24996558062881
            ],
            [
              -123.00306918516156,
              49.25005449088445
            ]
          ]
        ]
      }
    },
    {
      "type": "Feature",
      "properties": {
        "room": "4720",
        "building": "SW3",
        "floor": "4",
        "type": "room",
        "source": "traced",
        "uv": [
          [
            0.359935,
            0.594788
          ],
          [
            0.377579,
            0.594591
          ],
          [
            0.377579,
            0.583162
          ],
          [
            0.404174,
            0.582767
          ],
          [
            0.404174,
            0.655875
          ],
          [
            0.359679,
            0.655087
          ]
        ],
        "name": "Physical Sciences Lab"
      },
      "geometry": {
        "type": "Polygon",
        "coordinates": [
          [
            [
              -123.00298150951218,
              49.250040004479246
            ],
            [
              -123.00293043198724,
              49.25004024608313
            ],
            [
              -123.00293043198724,
              49.250054259101915
            ],
            [
              -123.00285344557251,
              49.2500547423092
            ],
            [
              -123.00285344557251,
              49.24996510724159
            ],
            [
              -123.00298224976618,
              49.2499660736583
            ],
            [
              -123.00298150951218,
              49.250040004479246
            ]
          ]
        ]
      }
    },
    {
      "type": "Feature",
      "properties": {
        "room": "4710",
        "building": "SW3",
        "floor": "4",
        "type": "room",
        "source": "traced",
        "uv": [
          [
            0.404174,
            0.582767
          ],
          [
            0.456852,
            0.583161
          ],
          [
            0.45698,
            0.656466
          ],
          [
            0.404174,
            0.655875
          ]
        ],
        "name": "Physical Sciences Lab"
      },
      "geometry": {
        "type": "Polygon",
        "coordinates": [
          [
            [
              -123.00285344557251,
              49.2500547423092
            ],
            [
              -123.00270095313334,
              49.25005425926739
            ],
            [
              -123.0027005830062,
              49.24996438259461
            ],
            [
              -123.00285344557251,
              49.24996510724159
            ],
            [
              -123.00285344557251,
              49.2500547423092
            ]
          ]
        ]
      }
    },
    {
      "type": "Feature",
      "properties": {
        "room": "4704",
        "building": "SW3",
        "floor": "4",
        "type": "room",
        "source": "traced",
        "uv": [
          [
            0.457805,
            0.599824
          ],
          [
            0.477281,
            0.5996
          ],
          [
            0.47764,
            0.623943
          ],
          [
            0.491461,
            0.62339
          ],
          [
            0.49156,
            0.655985
          ],
          [
            0.459467,
            0.656773
          ]
        ],
        "name": "Indoor Lounge"
      },
      "geometry": {
        "type": "Polygon",
        "coordinates": [
          [
            [
              -123.00269819507837,
              49.25003382954765
            ],
            [
              -123.00264181690446,
              49.250034104346156
            ],
            [
              -123.0026407777247,
              49.25000425763011
            ],
            [
              -123.00260076930476,
              49.25000493596502
            ],
            [
              -123.00260048155212,
              49.24996497240559
            ],
            [
              -123.00269338342756,
              49.24996400598886
            ],
            [
              -123.00269819507837,
              49.25003382954765
            ]
          ]
        ]
      }
    },
    {
      "type": "Feature",
      "properties": {
        "room": "4704",
        "building": "SW3",
        "floor": "4",
        "type": "room",
        "source": "traced",
        "uv": [
          [
            0.459467,
            0.656773
          ],
          [
            0.459979,
            0.690864
          ],
          [
            0.49936,
            0.690864
          ],
          [
            0.499232,
            0.655788
          ]
        ],
        "name": "Outdoor Lounge"
      },
      "geometry": {
        "type": "Polygon",
        "coordinates": [
          [
            [
              -123.00269338342756,
              49.24996400598886
            ],
            [
              -123.00269190291957,
              49.2499222084478
            ],
            [
              -123.00257790380547,
              49.2499222084478
            ],
            [
              -123.00257827393263,
              49.24996521400985
            ],
            [
              -123.00269338342756,
              49.24996400598886
            ]
          ]
        ]
      }
    },
    {
      "type": "Feature",
      "properties": {
        "room": "S471",
        "building": "SW3",
        "floor": "4",
        "type": "hallway",
        "source": "traced",
        "uv": [
          [
            0.457805,
            0.599824
          ],
          [
            0.466244,
            0.598839
          ],
          [
            0.465988,
            0.593913
          ],
          [
            0.473021,
            0.593715
          ],
          [
            0.472381,
            0.583074
          ],
          [
            0.456852,
            0.583161
          ]
        ],
        "name": "Lounge Stairs"
      },
      "geometry": {
        "type": "Polygon",
        "coordinates": [
          [
            [
              -123.00269819507837,
              49.25003382954765
            ],
            [
              -123.00267376669689,
              49.25003503756696
            ],
            [
              -123.00267450695088,
              49.25004107766216
            ],
            [
              -123.00265414996622,
              49.250041319266074
            ],
            [
              -123.00265600060104,
              49.2500543658696
            ],
            [
              -123.00270095313334,
              49.25005425926739
            ],
            [
              -123.00269819507837,
              49.25003382954765
            ]
          ]
        ]
      }
    },
    {
      "type": "Feature",
      "properties": {
        "room": "4613",
        "building": "SW3",
        "floor": "4",
        "type": "room",
        "source": "traced",
        "uv": [
          [
            0.511756,
            0.625111
          ],
          [
            0.51159,
            0.681146
          ],
          [
            0.546205,
            0.681785
          ],
          [
            0.546039,
            0.643917
          ],
          [
            0.531844,
            0.643917
          ],
          [
            0.531844,
            0.625367
          ]
        ],
        "name": "Men's Washroom",
        "amenity": "washroom"
      },
      "geometry": {
        "type": "Polygon",
        "coordinates": [
          [
            [
              -123.00254202010501,
              49.250002826406046
            ],
            [
              -123.00254250069744,
              49.249934123591146
            ],
            [
              -123.00244229721187,
              49.24993333931184
            ],
            [
              -123.00244277780394,
              49.249979768622495
            ],
            [
              -123.00248386844186,
              49.249979768622495
            ],
            [
              -123.00248386844186,
              49.250002512694635
            ],
            [
              -123.00254202010501,
              49.250002826406046
            ]
          ]
        ]
      }
    },
    {
      "type": "Feature",
      "properties": {
        "room": "4618",
        "building": "SW3",
        "floor": "4",
        "type": "room",
        "source": "traced",
        "uv": [
          [
            0.532176,
            0.618842
          ],
          [
            0.531844,
            0.643917
          ],
          [
            0.546039,
            0.643917
          ],
          [
            0.545873,
            0.619098
          ]
        ],
        "name": "Women's Washroom",
        "amenity": "washroom"
      },
      "geometry": {
        "type": "Polygon",
        "coordinates": [
          [
            [
              -123.00248290725733,
              49.2500105123313
            ],
            [
              -123.00248386844186,
              49.249979768622495
            ],
            [
              -123.00244277780394,
              49.249979768622495
            ],
            [
              -123.00244325839638,
              49.25001019861995
            ],
            [
              -123.00248290725733,
              49.2500105123313
            ]
          ]
        ]
      }
    },
    {
      "type": "Feature",
      "properties": {
        "room": "4616",
        "building": "SW3",
        "floor": "4",
        "type": "room",
        "source": "traced",
        "uv": [
          [
            0.530848,
            0.601187
          ],
          [
            0.530765,
            0.618202
          ],
          [
            0.539232,
            0.618586
          ],
          [
            0.538817,
            0.601187
          ]
        ],
        "name": "Women's Washroom",
        "amenity": "washroom"
      },
      "geometry": {
        "type": "Polygon",
        "coordinates": [
          [
            [
              -123.00248675199543,
              49.25003215840081
            ],
            [
              -123.00248699229167,
              49.250011296609415
            ],
            [
              -123.00246248208649,
              49.25001082604268
            ],
            [
              -123.00246368356723,
              49.25003215840081
            ],
            [
              -123.00248675199543,
              49.25003215840081
            ]
          ]
        ]
      }
    },
    {
      "type": "Feature",
      "properties": {
        "room": "4612",
        "building": "SW3",
        "floor": "4",
        "type": "room",
        "source": "traced",
        "uv": [
          [
            0.511839,
            0.611678
          ],
          [
            0.523377,
            0.61155
          ],
          [
            0.523377,
            0.625111
          ],
          [
            0.511756,
            0.625111
          ]
        ],
        "name": "Men's Washroom",
        "amenity": "washroom"
      },
      "geometry": {
        "type": "Polygon",
        "coordinates": [
          [
            [
              -123.00254177980915,
              49.25001929624469
            ],
            [
              -123.00250837864704,
              49.250019453100066
            ],
            [
              -123.00250837864704,
              49.250002826406046
            ],
            [
              -123.00254202010501,
              49.250002826406046
            ],
            [
              -123.00254177980915,
              49.25001929624469
            ]
          ]
        ]
      }
    },
    {
      "type": "Feature",
      "properties": {
        "room": "4611",
        "building": "SW3",
        "floor": "4",
        "type": "service",
        "source": "traced",
        "uv": [
          [
            0.511839,
            0.600675
          ],
          [
            0.523128,
            0.60042
          ],
          [
            0.523377,
            0.61155
          ],
          [
            0.511839,
            0.611678
          ]
        ],
        "name": "Janitor"
      },
      "geometry": {
        "type": "Polygon",
        "coordinates": [
          [
            [
              -123.00254177980915,
              49.250032785822725
            ],
            [
              -123.00250909953571,
              49.25003309953394
            ],
            [
              -123.00250837864704,
              49.250019453100066
            ],
            [
              -123.00254177980915,
              49.25001929624469
            ],
            [
              -123.00254177980915,
              49.250032785822725
            ]
          ]
        ]
      }
    },
    {
      "type": "Feature",
      "properties": {
        "room": "4621",
        "building": "SW3",
        "floor": "4",
        "type": "room",
        "source": "traced",
        "uv": [
          [
            0.546364,
            0.606845
          ],
          [
            0.563105,
            0.606845
          ],
          [
            0.562992,
            0.619485
          ],
          [
            0.573666,
            0.619485
          ],
          [
            0.573216,
            0.660696
          ],
          [
            0.559847,
            0.660869
          ],
          [
            0.559734,
            0.65429
          ],
          [
            0.546252,
            0.654809
          ]
        ],
        "name": "Projects Room"
      },
      "geometry": {
        "type": "Polygon",
        "coordinates": [
          [
            [
              -123.002441835893,
              49.25002522172397
            ],
            [
              -123.00239337556734,
              49.25002522172397
            ],
            [
              -123.0023937008043,
              49.25000972370694
            ],
            [
              -123.0023628032812,
              49.25000972370694
            ],
            [
              -123.00236410422957,
              49.24995919589122
            ],
            [
              -123.0024028074428,
              49.24995898358932
            ],
            [
              -123.00240313267977,
              49.24996705105909
            ],
            [
              -123.00244216113022,
              49.24996641415373
            ],
            [
              -123.002441835893,
              49.25002522172397
            ]
          ]
        ]
      }
    },
    {
      "type": "Feature",
      "properties": {
        "room": "4622",
        "building": "SW3",
        "floor": "4",
        "type": "service",
        "source": "traced",
        "uv": [
          [
            0.573778,
            0.624507
          ],
          [
            0.586025,
            0.62416
          ],
          [
            0.585912,
            0.642169
          ],
          [
            0.573778,
            0.642861
          ]
        ],
        "name": "Supply Closet"
      },
      "geometry": {
        "type": "Polygon",
        "coordinates": [
          [
            [
              -123.00236247804398,
              49.250003566958924
            ],
            [
              -123.00232702720166,
              49.25000399156241
            ],
            [
              -123.00232735244023,
              49.24998191218435
            ],
            [
              -123.0023624780456,
              49.2499810629773
            ],
            [
              -123.00236247804398,
              49.250003566958924
            ]
          ]
        ]
      }
    },
    {
      "type": "Feature",
      "properties": {
        "room": "4624",
        "building": "SW3",
        "floor": "4",
        "type": "service",
        "source": "traced",
        "uv": [
          [
            0.573778,
            0.642861
          ],
          [
            0.585912,
            0.642169
          ],
          [
            0.585912,
            0.660523
          ],
          [
            0.573216,
            0.660696
          ]
        ],
        "name": "Supply Closet"
      },
      "geometry": {
        "type": "Polygon",
        "coordinates": [
          [
            [
              -123.0023624780456,
              49.2499810629773
            ],
            [
              -123.00232735244023,
              49.24998191218435
            ],
            [
              -123.00232735244023,
              49.249959408192865
            ],
            [
              -123.00236410422957,
              49.24995919589122
            ],
            [
              -123.0023624780456,
              49.2499810629773
            ]
          ]
        ]
      }
    },
    {
      "type": "Feature",
      "properties": {
        "room": "4626",
        "building": "SW3",
        "floor": "4",
        "type": "service",
        "source": "traced",
        "uv": [
          [
            0.566925,
            0.661043
          ],
          [
            0.585912,
            0.660523
          ],
          [
            0.585912,
            0.67957
          ],
          [
            0.567374,
            0.679917
          ]
        ],
        "name": "Supply Closet"
      },
      "geometry": {
        "type": "Polygon",
        "coordinates": [
          [
            [
              -123.00238231750794,
              49.249958771287396
            ],
            [
              -123.00232735244023,
              49.249959408192865
            ],
            [
              -123.00232735244023,
              49.249936054983294
            ],
            [
              -123.00238101655958,
              49.249935630379525
            ],
            [
              -123.00238231750794,
              49.249958771287396
            ]
          ]
        ]
      }
    },
    {
      "type": "Feature",
      "properties": {
        "room": "4628",
        "building": "SW3",
        "floor": "4",
        "type": "service",
        "source": "traced",
        "uv": [
          [
            0.546252,
            0.654809
          ],
          [
            0.559734,
            0.65429
          ],
          [
            0.559847,
            0.660869
          ],
          [
            0.566925,
            0.661043
          ],
          [
            0.567374,
            0.679917
          ],
          [
            0.546205,
            0.681785
          ]
        ],
        "name": "Supply Closet"
      },
      "geometry": {
        "type": "Polygon",
        "coordinates": [
          [
            [
              -123.00244216113022,
              49.24996641415373
            ],
            [
              -123.00240313267977,
              49.24996705105909
            ],
            [
              -123.0024028074428,
              49.24995898358932
            ],
            [
              -123.00238231750794,
              49.249958771287396
            ],
            [
              -123.00238101655958,
              49.249935630379525
            ],
            [
              -123.00244229721187,
              49.24993333931184
            ],
            [
              -123.00244216113022,
              49.24996641415373
            ]
          ]
        ]
      }
    },
    {
      "type": "Feature",
      "properties": {
        "room": "4650",
        "building": "SW3",
        "floor": "4",
        "type": "room",
        "source": "traced",
        "uv": [
          [
            0.586171,
            0.606592
          ],
          [
            0.648302,
            0.606765
          ],
          [
            0.647965,
            0.67949
          ],
          [
            0.585912,
            0.67957
          ]
        ],
        "name": "Physical Sciences Lab"
      },
      "geometry": {
        "type": "Polygon",
        "coordinates": [
          [
            [
              -123.00232660445042,
              49.25002553221813
            ],
            [
              -123.00214674834172,
              49.25002531991649
            ],
            [
              -123.00214772405286,
              49.24993615317629
            ],
            [
              -123.00232735244023,
              49.249936054983294
            ],
            [
              -123.00232660445042,
              49.25002553221813
            ]
          ]
        ]
      }
    },
    {
      "type": "Feature",
      "properties": {
        "room": "4664",
        "building": "SW3",
        "floor": "4",
        "type": "service",
        "source": "traced",
        "uv": [
          [
            0.648302,
            0.606765
          ],
          [
            0.655717,
            0.607111
          ],
          [
            0.656054,
            0.625639
          ],
          [
            0.648302,
            0.625639
          ]
        ],
        "name": "Storage"
      },
      "geometry": {
        "type": "Polygon",
        "coordinates": [
          [
            [
              -123.00214674834172,
              49.25002531991649
            ],
            [
              -123.00212528269407,
              49.250024895313516
            ],
            [
              -123.00212430698268,
              49.250002179039825
            ],
            [
              -123.00214674834172,
              49.250002179039825
            ],
            [
              -123.00214674834172,
              49.25002531991649
            ]
          ]
        ]
      }
    },
    {
      "type": "Feature",
      "properties": {
        "room": "4660",
        "building": "SW3",
        "floor": "4",
        "type": "service",
        "source": "traced",
        "uv": [
          [
            0.648302,
            0.625639
          ],
          [
            0.670323,
            0.626331
          ],
          [
            0.670098,
            0.644513
          ],
          [
            0.648189,
            0.644686
          ]
        ],
        "name": "Storage"
      },
      "geometry": {
        "type": "Polygon",
        "coordinates": [
          [
            [
              -123.00214674834172,
              49.250002179039825
            ],
            [
              -123.00208300187273,
              49.25000132983314
            ],
            [
              -123.0020836523469,
              49.24997903815236
            ],
            [
              -123.00214707357867,
              49.24997882585052
            ],
            [
              -123.00214674834172,
              49.250002179039825
            ]
          ]
        ]
      }
    },
    {
      "type": "Feature",
      "properties": {
        "room": "4670",
        "building": "SW3",
        "floor": "4",
        "type": "service",
        "source": "traced",
        "uv": [
          [
            0.647961,
            0.653648
          ],
          [
            0.675375,
            0.653994
          ],
          [
            0.6756,
            0.679621
          ],
          [
            0.647965,
            0.67949
          ]
        ],
        "name": "Storage"
      },
      "geometry": {
        "type": "Polygon",
        "coordinates": [
          [
            [
              -123.00214773487357,
              49.24996783752343
            ],
            [
              -123.00206837702456,
              49.24996741291966
            ],
            [
              -123.00206772655037,
              49.249935992240324
            ],
            [
              -123.00214772405286,
              49.24993615317629
            ],
            [
              -123.00214773487357,
              49.24996783752343
            ]
          ]
        ]
      }
    },
    {
      "type": "Feature",
      "properties": {
        "room": "4690",
        "building": "SW3",
        "floor": "4",
        "type": "service",
        "source": "traced",
        "uv": [
          [
            0.737554,
            0.658641
          ],
          [
            0.765979,
            0.658468
          ],
          [
            0.765642,
            0.67942
          ],
          [
            0.737441,
            0.679766
          ]
        ],
        "name": "Storage"
      },
      "geometry": {
        "type": "Polygon",
        "coordinates": [
          [
            [
              -123.00188838273291,
              49.24996171543401
            ],
            [
              -123.00180609775023,
              49.24996192773597
            ],
            [
              -123.00180707346138,
              49.24993623920619
            ],
            [
              -123.00188870797015,
              49.24993581460214
            ],
            [
              -123.00188838273291,
              49.24996171543401
            ]
          ]
        ]
      }
    },
    {
      "type": "Feature",
      "properties": {
        "room": "4692",
        "building": "SW3",
        "floor": "4",
        "type": "service",
        "source": "traced",
        "uv": [
          [
            0.737554,
            0.658641
          ],
          [
            0.737611,
            0.625179
          ],
          [
            0.746262,
            0.625006
          ],
          [
            0.746149,
            0.658771
          ]
        ],
        "name": "Storage"
      },
      "geometry": {
        "type": "Polygon",
        "coordinates": [
          [
            [
              -123.00188838273291,
              49.24996171543401
            ],
            [
              -123.00188821829502,
              49.25000274239633
            ],
            [
              -123.00186317503929,
              49.25000295469812
            ],
            [
              -123.0018635002765,
              49.24996155585566
            ],
            [
              -123.00188838273291,
              49.24996171543401
            ]
          ]
        ]
      }
    },
    {
      "type": "Feature",
      "properties": {
        "room": "4680",
        "building": "SW3",
        "floor": "4",
        "type": "room",
        "source": "traced",
        "uv": [
          [
            0.677839,
            0.606478
          ],
          [
            0.73042,
            0.606825
          ],
          [
            0.730195,
            0.626045
          ],
          [
            0.737611,
            0.625179
          ],
          [
            0.737441,
            0.679766
          ],
          [
            0.6756,
            0.679621
          ],
          [
            0.675255,
            0.644226
          ],
          [
            0.670098,
            0.644513
          ],
          [
            0.670323,
            0.626331
          ],
          [
            0.677614,
            0.626045
          ]
        ],
        "name": "Physical Sciences Lab"
      },
      "geometry": {
        "type": "Polygon",
        "coordinates": [
          [
            [
              -123.00206124442497,
              49.25002567097138
            ],
            [
              -123.00190903346848,
              49.2500252463681
            ],
            [
              -123.00190968394264,
              49.25000168088823
            ],
            [
              -123.00188821829502,
              49.25000274239633
            ],
            [
              -123.00188870797015,
              49.24993581460214
            ],
            [
              -123.00206772655037,
              49.249935992240324
            ],
            [
              -123.00206872487789,
              49.24997938920728
            ],
            [
              -123.0020836523469,
              49.24997903815236
            ],
            [
              -123.00208300187273,
              49.25000132983314
            ],
            [
              -123.00206189489916,
              49.25000168088823
            ],
            [
              -123.00206124442497,
              49.25002567097138
            ]
          ]
        ]
      }
    },
    {
      "type": "Feature",
      "properties": {
        "room": null,
        "building": "SW3",
        "floor": "4",
        "type": "hallway",
        "source": "traced",
        "uv": [
          [
            0.764083,
            0.57632
          ],
          [
            0.763855,
            0.600683
          ],
          [
            0.545299,
            0.600332
          ],
          [
            0.545873,
            0.619098
          ],
          [
            0.539232,
            0.618586
          ],
          [
            0.538817,
            0.601187
          ],
          [
            0.530848,
            0.601187
          ],
          [
            0.529907,
            0.625204
          ],
          [
            0.523377,
            0.625111
          ],
          [
            0.523128,
            0.60042
          ],
          [
            0.466244,
            0.598839
          ],
          [
            0.465988,
            0.593913
          ],
          [
            0.473021,
            0.593715
          ],
          [
            0.472381,
            0.583074
          ],
          [
            0.458229,
            0.582086
          ],
          [
            0.458483,
            0.575762
          ],
          [
            0.259499,
            0.576055
          ],
          [
            0.259689,
            0.55118
          ],
          [
            0.472505,
            0.552919
          ],
          [
            0.47246,
            0.295487
          ],
          [
            0.486438,
            0.295886
          ],
          [
            0.485897,
            0.574427
          ]
        ]
      },
      "geometry": {
        "type": "Polygon",
        "coordinates": [
          [
            [
              -123.00181158693601,
              49.25006264784335
            ],
            [
              -123.00181224537509,
              49.25003277659604
            ],
            [
              -123.00244491982454,
              49.25003320633772
            ],
            [
              -123.00244325839638,
              49.25001019861995
            ],
            [
              -123.00246248208649,
              49.25001082604268
            ],
            [
              -123.00246368356723,
              49.25003215840081
            ],
            [
              -123.00248675199543,
              49.25003215840081
            ],
            [
              -123.00248947647638,
              49.25000271204058
            ],
            [
              -123.00250837864704,
              49.250002826406046
            ],
            [
              -123.00250909953571,
              49.25003309953394
            ],
            [
              -123.00267376669689,
              49.25003503756696
            ],
            [
              -123.00267450695088,
              49.25004107766216
            ],
            [
              -123.00265414996622,
              49.250041319266074
            ],
            [
              -123.00265600060104,
              49.2500543658696
            ],
            [
              -123.00269696885252,
              49.25005557770345
            ],
            [
              -123.00269623345324,
              49.250063331220986
            ],
            [
              -123.00327224805791,
              49.25006297239506
            ],
            [
              -123.00327169839309,
              49.25009347027975
            ],
            [
              -123.00265564130393,
              49.25009133892277
            ],
            [
              -123.00265577283157,
              49.25040696943262
            ],
            [
              -123.00261530964707,
              49.25040648031208
            ],
            [
              -123.00261687659076,
              49.25006496854479
            ],
            [
              -123.00181158693601,
              49.25006264784335
            ]
          ]
        ]
      }
    },
    {
      "type": "Feature",
      "properties": {
        "room": "4620",
        "building": "SW3",
        "floor": "4",
        "type": "hallway",
        "source": "traced",
        "uv": [
          [
            0.563105,
            0.606845
          ],
          [
            0.578371,
            0.606842
          ],
          [
            0.578713,
            0.600255
          ],
          [
            0.584868,
            0.599992
          ],
          [
            0.586025,
            0.62416
          ],
          [
            0.573778,
            0.624507
          ],
          [
            0.573666,
            0.619485
          ],
          [
            0.562992,
            0.619485
          ]
        ]
      },
      "geometry": {
        "type": "Polygon",
        "coordinates": [
          [
            [
              -123.00239337556734,
              49.25002522172397
            ],
            [
              -123.0023491825882,
              49.25002522491491
            ],
            [
              -123.0023481927858,
              49.25003330119986
            ],
            [
              -123.002330376343,
              49.25003362425136
            ],
            [
              -123.00232702720166,
              49.25000399156241
            ],
            [
              -123.00236247804398,
              49.250003566958924
            ],
            [
              -123.0023628032812,
              49.25000972370694
            ],
            [
              -123.0023937008043,
              49.25000972370694
            ],
            [
              -123.00239337556734,
              49.25002522172397
            ]
          ]
        ]
      }
    },
    {
      "type": "Feature",
      "properties": {
        "room": "4668",
        "building": "SW3",
        "floor": "4",
        "type": "hallway",
        "source": "traced",
        "uv": [
          [
            0.648189,
            0.644686
          ],
          [
            0.675255,
            0.644226
          ],
          [
            0.675375,
            0.653994
          ],
          [
            0.647961,
            0.653648
          ]
        ]
      },
      "geometry": {
        "type": "Polygon",
        "coordinates": [
          [
            [
              -123.00214707357867,
              49.24997882585052
            ],
            [
              -123.00206872487789,
              49.24997938920728
            ],
            [
              -123.00206837702456,
              49.24996741291966
            ],
            [
              -123.00214773487357,
              49.24996783752343
            ],
            [
              -123.00214707357867,
              49.24997882585052
            ]
          ]
        ]
      }
    }
  ]
}