{
  "type": "FeatureCollection",
  "features": [
    {
      "type": "Feature",
      "properties": {
        "room": "3695",
        "building": "SW3",
        "floor": "3",
        "type": "room",
        "source": "traced",
        "uv": [
          [
            0.670231,
            0.625525
          ],
          [
            0.670231,
            0.551794
          ],
          [
            0.73619,
            0.551794
          ],
          [
            0.735743,
            0.625181
          ]
        ],
        "name": "Drafting Lab"
      },
      "geometry": {
        "type": "Polygon",
        "coordinates": [
          [
            [
              -123.00208806677621,
              49.250063082868515
            ],
            [
              -123.00208806677621,
              49.25015261568328
            ],
            [
              -123.00189898892924,
              49.25015261568328
            ],
            [
              -123.00190027029794,
              49.2500635005936
            ],
            [
              -123.00208806677621,
              49.250063082868515
            ]
          ]
        ]
      }
    },
    {
      "type": "Feature",
      "properties": {
        "room": "3675",
        "building": "SW3",
        "floor": "3",
        "type": "room",
        "source": "traced",
        "uv": [
          [
            0.604048,
            0.551449
          ],
          [
            0.670231,
            0.551794
          ],
          [
            0.670231,
            0.625525
          ],
          [
            0.603825,
            0.625525
          ]
        ],
        "name": "Drafting Lab"
      },
      "geometry": {
        "type": "Polygon",
        "coordinates": [
          [
            [
              -123.00227778674083,
              49.25015303462268
            ],
            [
              -123.00208806677621,
              49.25015261568328
            ],
            [
              -123.00208806677621,
              49.250063082868515
            ],
            [
              -123.00227842599188,
              49.250063082868515
            ],
            [
              -123.00227778674083,
              49.25015303462268
            ]
          ]
        ]
      }
    },
    {
      "type": "Feature",
      "properties": {
        "room": "3655",
        "building": "SW3",
        "floor": "3",
        "type": "room",
        "source": "traced",
        "uv": [
          [
            0.545915,
            0.551449
          ],
          [
            0.604048,
            0.551449
          ],
          [
            0.603825,
            0.625525
          ],
          [
            0.545691,
            0.625525
          ]
        ],
        "name": "Computer Lab"
      },
      "geometry": {
        "type": "Polygon",
        "coordinates": [
          [
            [
              -123.0024444306026,
              49.25015303462268
            ],
            [
              -123.00227778674083,
              49.25015303462268
            ],
            [
              -123.00227842599188,
              49.250063082868515
            ],
            [
              -123.00244507272023,
              49.250063082868515
            ],
            [
              -123.0024444306026,
              49.25015303462268
            ]
          ]
        ]
      }
    },
    {
      "type": "Feature",
      "properties": {
        "room": "3615",
        "building": "SW3",
        "floor": "3",
        "type": "room",
        "source": "traced",
        "uv": [
          [
            0.486432,
            0.551197
          ],
          [
            0.545915,
            0.551449
          ],
          [
            0.545691,
            0.625525
          ],
          [
            0.485985,
            0.625617
          ]
        ],
        "name": "Classroom"
      },
      "geometry": {
        "type": "Polygon",
        "coordinates": [
          [
            [
              -123.0026149443698,
              49.25015334063059
            ],
            [
              -123.0024444306026,
              49.25015303462268
            ],
            [
              -123.00244507272023,
              49.250063082868515
            ],
            [
              -123.00261622573849,
              49.25006297115134
            ],
            [
              -123.0026149443698,
              49.25015334063059
            ]
          ]
        ]
      }
    },
    {
      "type": "Feature",
      "properties": {
        "room": "3620",
        "building": "SW3",
        "floor": "3",
        "type": "room",
        "source": "traced",
        "uv": [
          [
            0.546131,
            0.656626
          ],
          [
            0.604488,
            0.656971
          ],
          [
            0.604711,
            0.731047
          ],
          [
            0.545907,
            0.730013
          ]
        ],
        "name": "Electrical Lab"
      },
      "geometry": {
        "type": "Polygon",
        "coordinates": [
          [
            [
              -123.00244381141772,
              49.250025316392104
            ],
            [
              -123.00227652543832,
              49.250024897452704
            ],
            [
              -123.00227588618726,
              49.249934945698534
            ],
            [
              -123.00244445353536,
              49.249936201302425
            ],
            [
              -123.00244381141772,
              49.250025316392104
            ]
          ]
        ]
      }
    },
    {
      "type": "Feature",
      "properties": {
        "room": "3660",
        "building": "SW3",
        "floor": "3",
        "type": "room",
        "source": "traced",
        "uv": [
          [
            0.604488,
            0.656971
          ],
          [
            0.656325,
            0.655735
          ],
          [
            0.656325,
            0.662626
          ],
          [
            0.661691,
            0.661592
          ],
          [
            0.662362,
            0.731189
          ],
          [
            0.604711,
            0.731047
          ]
        ],
        "name": "Drafting Lab"
      },
      "geometry": {
        "type": "Polygon",
        "coordinates": [
          [
            [
              -123.00227652543832,
              49.250024897452704
            ],
            [
              -123.00212792966892,
              49.250026398348645
            ],
            [
              -123.00212792966892,
              49.25001803048945
            ],
            [
              -123.00211254751142,
              49.25001928609334
            ],
            [
              -123.00211062402508,
              49.2499347732655
            ],
            [
              -123.00227588618726,
              49.249934945698534
            ],
            [
              -123.00227652543832,
              49.250024897452704
            ]
          ]
        ]
      }
    },
    {
      "type": "Feature",
      "properties": {
        "room": "3680",
        "building": "SW3",
        "floor": "3",
        "type": "room",
        "source": "traced",
        "uv": [
          [
            0.662139,
            0.685365
          ],
          [
            0.6722,
            0.685365
          ],
          [
            0.671977,
            0.661592
          ],
          [
            0.677566,
            0.661937
          ],
          [
            0.677566,
            0.656079
          ],
          [
            0.73011,
            0.656769
          ],
          [
            0.729887,
            0.683643
          ],
          [
            0.733688,
            0.684332
          ],
          [
            0.733688,
            0.711895
          ],
          [
            0.729439,
            0.710862
          ],
          [
            0.730557,
            0.729467
          ],
          [
            0.662362,
            0.731189
          ]
        ],
        "name": "Physical Sciences Lab"
      },
      "geometry": {
        "type": "Polygon",
        "coordinates": [
          [
            [
              -123.00211126327612,
              49.249990418132704
            ],
            [
              -123.00208242244746,
              49.249990418132704
            ],
            [
              -123.0020830616985,
              49.25001928609334
            ],
            [
              -123.00206704028994,
              49.25001886715394
            ],
            [
              -123.00206704028994,
              49.25002598062356
            ],
            [
              -123.00191641783674,
              49.250025142744754
            ],
            [
              -123.0019170570878,
              49.24999250918677
            ],
            [
              -123.00190616115401,
              49.24999167252228
            ],
            [
              -123.00190616115401,
              49.24995820229981
            ],
            [
              -123.00191834132308,
              49.24995945668938
            ],
            [
              -123.00191513646806,
              49.249936864319565
            ],
            [
              -123.00211062402508,
              49.2499347732655
            ],
            [
              -123.00211126327612,
              49.249990418132704
            ]
          ]
        ]
      }
    },
    {
      "type": "Feature",
      "properties": {
        "room": "3682",
        "building": "SW3",
        "floor": "3",
        "type": "room",
        "source": "traced",
        "uv": [
          [
            0.661691,
            0.661592
          ],
          [
            0.671977,
            0.661592
          ],
          [
            0.6722,
            0.685365
          ],
          [
            0.662139,
            0.685365
          ]
        ],
        "name": "Office"
      },
      "geometry": {
        "type": "Polygon",
        "coordinates": [
          [
            [
              -123.00211254751142,
              49.25001928609334
            ],
            [
              -123.0020830616985,
              49.25001928609334
            ],
            [
              -123.00208242244746,
              49.249990418132704
            ],
            [
              -123.00211126327612,
              49.249990418132704
            ],
            [
              -123.00211254751142,
              49.25001928609334
            ]
          ]
        ]
      }
    },
    {
      "type": "Feature",
      "properties": {
        "room": "3686",
        "building": "SW3",
        "floor": "3",
        "type": "service",
        "source": "traced",
        "uv": [
          [
            0.729901,
            0.675642
          ],
          [
            0.745776,
            0.674953
          ],
          [
            0.745776,
            0.702517
          ],
          [
            0.733255,
            0.702517
          ],
          [
            0.733688,
            0.684332
          ],
          [
            0.729887,
            0.683643
          ]
        ],
        "name": "Storage"
      },
      "geometry": {
        "type": "Polygon",
        "coordinates": [
          [
            [
              -123.00191701695543,
              49.25000222493796
            ],
            [
              -123.00187150973397,
              49.25000306160245
            ],
            [
              -123.00187150973397,
              49.249969590165655
            ],
            [
              -123.00190740239034,
              49.249969590165655
            ],
            [
              -123.00190616115401,
              49.24999167252228
            ],
            [
              -123.0019170570878,
              49.24999250918677
            ],
            [
              -123.00191701695543,
              49.25000222493796
            ]
          ]
        ]
      }
    },
    {
      "type": "Feature",
      "properties": {
        "room": "3690",
        "building": "SW3",
        "floor": "3",
        "type": "service",
        "source": "traced",
        "uv": [
          [
            0.733255,
            0.702517
          ],
          [
            0.745776,
            0.702517
          ],
          [
            0.746,
            0.706996
          ],
          [
            0.765899,
            0.706996
          ],
          [
            0.765899,
            0.731458
          ],
          [
            0.730557,
            0.729467
          ],
          [
            0.729439,
            0.710862
          ],
          [
            0.733688,
            0.711895
          ]
        ],
        "name": "Supply Closet"
      },
      "geometry": {
        "type": "Polygon",
        "coordinates": [
          [
            [
              -123.00190740239034,
              49.249969590165655
            ],
            [
              -123.00187150973397,
              49.249969590165655
            ],
            [
              -123.00187086761633,
              49.249964151239325
            ],
            [
              -123.00181382521004,
              49.249964151239325
            ],
            [
              -123.00181382521004,
              49.2499344466142
            ],
            [
              -123.00191513646806,
              49.249936864319565
            ],
            [
              -123.00191834132308,
              49.24995945668938
            ],
            [
              -123.00190616115401,
              49.24995820229981
            ],
            [
              -123.00190740239034,
              49.249969590165655
            ]
          ]
        ]
      }
    },
    {
      "type": "Feature",
      "properties": {
        "room": "3618",
        "building": "SW3",
        "floor": "3",
        "type": "room",
        "source": "traced",
        "uv": [
          [
            0.531809,
            0.669164
          ],
          [
            0.545618,
            0.669461
          ],
          [
            0.545521,
            0.693864
          ],
          [
            0.531906,
            0.693567
          ]
        ],
        "name": "Women's Washroom",
        "amenity": "washroom"
      },
      "geometry": {
        "type": "Polygon",
        "coordinates": [
          [
            [
              -123.00248486681461,
              49.25001009128419
            ],
            [
              -123.00244528198179,
              49.25000973063201
            ],
            [
              -123.00244556004166,
              49.249980097651594
            ],
            [
              -123.00248458875474,
              49.24998045830378
            ],
            [
              -123.00248486681461,
              49.25001009128419
            ]
          ]
        ]
      }
    },
    {
      "type": "Feature",
      "properties": {
        "room": "3616",
        "building": "SW3",
        "floor": "3",
        "type": "room",
        "source": "traced",
        "uv": [
          [
            0.529974,
            0.650266
          ],
          [
            0.538762,
            0.649968
          ],
          [
            0.538665,
            0.667973
          ],
          [
            0.529974,
            0.667973
          ]
        ],
        "name": "Washroom",
        "amenity": "washroom"
      },
      "geometry": {
        "type": "Polygon",
        "coordinates": [
          [
            [
              -123.00249012701943,
              49.250033039448915
            ],
            [
              -123.00246493536827,
              49.25003340131541
            ],
            [
              -123.00246521342814,
              49.25001153753587
            ],
            [
              -123.00249012701943,
              49.25001153753587
            ],
            [
              -123.00249012701943,
              49.250033039448915
            ]
          ]
        ]
      }
    },
    {
      "type": "Feature",
      "properties": {
        "room": "3608",
        "building": "SW3",
        "floor": "3",
        "type": "room",
        "source": "traced",
        "uv": [
          [
            0.512593,
            0.661426
          ],
          [
            0.523408,
            0.661575
          ],
          [
            0.523215,
            0.673628
          ],
          [
            0.512206,
            0.674372
          ]
        ],
        "name": "Men's Washroom",
        "amenity": "washroom"
      },
      "geometry": {
        "type": "Polygon",
        "coordinates": [
          [
            [
              -123.00253995133542,
              49.25001948766998
            ],
            [
              -123.00250894909288,
              49.25001930673673
            ],
            [
              -123.00250950234604,
              49.250004670572615
            ],
            [
              -123.00254106070831,
              49.25000376712069
            ],
            [
              -123.00253995133542,
              49.25001948766998
            ]
          ]
        ]
      }
    },
    {
      "type": "Feature",
      "properties": {
        "room": "3610",
        "building": "SW3",
        "floor": "3",
        "type": "room",
        "source": "traced",
        "uv": [
          [
            0.511144,
            0.72541
          ],
          [
            0.545618,
            0.72541
          ],
          [
            0.545618,
            0.699668
          ],
          [
            0.531809,
            0.699519
          ],
          [
            0.531809,
            0.676008
          ],
          [
            0.512206,
            0.674372
          ]
        ],
        "name": "Men's Washroom",
        "amenity": "washroom"
      },
      "geometry": {
        "type": "Polygon",
        "coordinates": [
          [
            [
              -123.00254410503393,
              49.24994179080408
            ],
            [
              -123.00244528198179,
              49.24994179080408
            ],
            [
              -123.00244528198179,
              49.2499730497551
            ],
            [
              -123.00248486681461,
              49.24997323068835
            ],
            [
              -123.00248486681461,
              49.2500017804979
            ],
            [
              -123.00254106070831,
              49.25000376712069
            ],
            [
              -123.00254410503393,
              49.24994179080408
            ]
          ]
        ]
      }
    },
    {
      "type": "Feature",
      "properties": {
        "room": "3606",
        "building": "SW3",
        "floor": "3",
        "type": "service",
        "source": "traced",
        "uv": [
          [
            0.512206,
            0.650563
          ],
          [
            0.523601,
            0.650712
          ],
          [
            0.523408,
            0.661575
          ],
          [
            0.512593,
            0.661426
          ]
        ],
        "name": "Janitor"
      },
      "geometry": {
        "type": "Polygon",
        "coordinates": [
          [
            [
              -123.00254106070831,
              49.250032678796735
            ],
            [
              -123.00250839583974,
              49.25003249786349
            ],
            [
              -123.00250894909288,
              49.25001930673673
            ],
            [
              -123.00253995133542,
              49.25001948766998
            ],
            [
              -123.00254106070831,
              49.250032678796735
            ]
          ]
        ]
      }
    },
    {
      "type": "Feature",
      "properties": {
        "room": "3710",
        "building": "SW3",
        "floor": "3",
        "type": "room",
        "source": "traced",
        "uv": [
          [
            0.456697,
            0.632999
          ],
          [
            0.456697,
            0.706071
          ],
          [
            0.394897,
            0.706071
          ],
          [
            0.394897,
            0.63266
          ]
        ],
        "name": "Electrical Lab"
      },
      "geometry": {
        "type": "Polygon",
        "coordinates": [
          [
            [
              -123.00270018262052,
              49.25005400706244
            ],
            [
              -123.00270018262052,
              49.24996527448265
            ],
            [
              -123.00287733829211,
              49.24996527448265
            ],
            [
              -123.00287733829211,
              49.25005441871594
            ],
            [
              -123.00270018262052,
              49.25005400706244
            ]
          ]
        ]
      }
    },
    {
      "type": "Feature",
      "properties": {
        "room": "3730",
        "building": "SW3",
        "floor": "3",
        "type": "room",
        "source": "traced",
        "uv": [
          [
            0.377284,
            0.632829
          ],
          [
            0.394897,
            0.63266
          ],
          [
            0.394897,
            0.706071
          ],
          [
            0.354342,
            0.705564
          ],
          [
            0.354452,
            0.645177
          ],
          [
            0.377394,
            0.645516
          ]
        ],
        "name": "Electrical Lab"
      },
      "geometry": {
        "type": "Polygon",
        "coordinates": [
          [
            [
              -123.00292782765852,
              49.25005421349635
            ],
            [
              -123.00287733829211,
              49.25005441871594
            ],
            [
              -123.00287733829211,
              49.24996527448265
            ],
            [
              -123.00299359311835,
              49.249965890141425
            ],
            [
              -123.00299327779273,
              49.250039219108686
            ],
            [
              -123.00292751233289,
              49.250038807455184
            ],
            [
              -123.00292782765852,
              49.25005421349635
            ]
          ]
        ]
      }
    },
    {
      "type": "Feature",
      "properties": {
        "room": "3750",
        "building": "SW3",
        "floor": "3",
        "type": "room",
        "source": "traced",
        "uv": [
          [
            0.292542,
            0.644839
          ],
          [
            0.302421,
            0.645177
          ],
          [
            0.302531,
            0.706748
          ],
          [
            0.354342,
            0.705564
          ],
          [
            0.354013,
            0.632829
          ],
          [
            0.292542,
            0.632829
          ]
        ],
        "name": "Electrical Lab"
      },
      "geometry": {
        "type": "Polygon",
        "coordinates": [
          [
            [
              -123.00317074878994,
              49.25003962954787
            ],
            [
              -123.00314242968186,
              49.250039219108686
            ],
            [
              -123.00314211435624,
              49.24996445238997
            ],
            [
              -123.00299359311835,
              49.249965890141425
            ],
            [
              -123.00299453622864,
              49.25005421349635
            ],
            [
              -123.00317074878994,
              49.25005421349635
            ],
            [
              -123.00317074878994,
              49.25003962954787
            ]
          ]
        ]
      }
    },
    {
      "type": "Feature",
      "properties": {
        "room": "3780",
        "building": "SW3",
        "floor": "3",
        "type": "room",
        "source": "traced",
        "uv": [
          [
            0.277888,
            0.632788
          ],
          [
            0.292542,
            0.632829
          ],
          [
            0.292542,
            0.644839
          ],
          [
            0.302421,
            0.645177
          ],
          [
            0.302531,
            0.706748
          ],
          [
            0.27771,
            0.707383
          ]
        ],
        "name": "Media Lab"
      },
      "geometry": {
        "type": "Polygon",
        "coordinates": [
          [
            [
              -123.00321275589693,
              49.250054263283346
            ],
            [
              -123.00317074878994,
              49.25005421349635
            ],
            [
              -123.00317074878994,
              49.25003962954787
            ],
            [
              -123.00314242968186,
              49.250039219108686
            ],
            [
              -123.00314211435624,
              49.24996445238997
            ],
            [
              -123.00321326615112,
              49.2499636812986
            ],
            [
              -123.00321275589693,
              49.250054263283346
            ]
          ]
        ]
      }
    },
    {
      "type": "Feature",
      "properties": {
        "room": "3790",
        "building": "SW3",
        "floor": "3",
        "type": "room",
        "source": "traced",
        "uv": [
          [
            0.215602,
            0.632952
          ],
          [
            0.277888,
            0.632788
          ],
          [
            0.27771,
            0.707383
          ],
          [
            0.215246,
            0.706724
          ]
        ],
        "name": "Electrical Lab"
      },
      "geometry": {
        "type": "Polygon",
        "coordinates": [
          [
            [
              -123.00339130473448,
              49.25005406413534
            ],
            [
              -123.00321275589693,
              49.250054263283346
            ],
            [
              -123.00321326615112,
              49.2499636812986
            ],
            [
              -123.00339232524288,
              49.249964481533574
            ],
            [
              -123.00339130473448,
              49.25005406413534
            ]
          ]
        ]
      }
    },
    {
      "type": "Feature",
      "properties": {
        "room": "3705",
        "building": "SW3",
        "floor": "3",
        "type": "room",
        "source": "traced",
        "uv": [
          [
            0.427456,
            0.577112
          ],
          [
            0.42023,
            0.577298
          ],
          [
            0.42023,
            0.552614
          ],
          [
            0.463348,
            0.552428
          ],
          [
            0.463227,
            0.601796
          ],
          [
            0.427215,
            0.601796
          ]
        ],
        "name": "Office"
      },
      "geometry": {
        "type": "Polygon",
        "coordinates": [
          [
            [
              -123.00278400477251,
              49.25012187160271
            ],
            [
              -123.00280471879974,
              49.25012164573973
            ],
            [
              -123.00280471879974,
              49.250151619943246
            ],
            [
              -123.00268111688635,
              49.25015184580623
            ],
            [
              -123.00268146374454,
              49.250091897399194
            ],
            [
              -123.0027846956223,
              49.250091897399194
            ],
            [
              -123.00278400477251,
              49.25012187160271
            ]
          ]
        ]
      }
    },
    {
      "type": "Feature",
      "properties": {
        "room": "3711",
        "building": "SW3",
        "floor": "3",
        "type": "room",
        "source": "traced",
        "uv": [
          [
            0.398298,
            0.552563
          ],
          [
            0.42023,
            0.552614
          ],
          [
            0.42023,
            0.577298
          ],
          [
            0.398298,
            0.577062
          ]
        ],
        "name": "Office"
      },
      "geometry": {
        "type": "Polygon",
        "coordinates": [
          [
            [
              -123.00286758899698,
              49.25015168187342
            ],
            [
              -123.00280471879974,
              49.250151619943246
            ],
            [
              -123.00280471879974,
              49.25012164573973
            ],
            [
              -123.00286758899698,
              49.250121932318564
            ],
            [
              -123.00286758899698,
              49.25015168187342
            ]
          ]
        ]
      }
    },
    {
      "type": "Feature",
      "properties": {
        "room": "3721",
        "building": "SW3",
        "floor": "3",
        "type": "room",
        "source": "traced",
        "uv": [
          [
            0.376257,
            0.551821
          ],
          [
            0.398298,
            0.552563
          ],
          [
            0.398298,
            0.577062
          ],
          [
            0.376378,
            0.577618
          ]
        ],
        "name": "Office"
      },
      "geometry": {
        "type": "Polygon",
        "coordinates": [
          [
            [
              -123.00293077165325,
              49.25015258289672
            ],
            [
              -123.00286758899698,
              49.25015168187342
            ],
            [
              -123.00286758899698,
              49.250121932318564
            ],
            [
              -123.00293042479507,
              49.250121257158256
            ],
            [
              -123.00293077165325,
              49.25015258289672
            ]
          ]
        ]
      }
    },
    {
      "type": "Feature",
      "properties": {
        "room": "3731",
        "building": "SW3",
        "floor": "3",
        "type": "room",
        "source": "traced",
        "uv": [
          [
            0.354216,
            0.552192
          ],
          [
            0.376257,
            0.551821
          ],
          [
            0.376378,
            0.577618
          ],
          [
            0.354457,
            0.577062
          ]
        ],
        "name": "Office"
      },
      "geometry": {
        "type": "Polygon",
        "coordinates": [
          [
            [
              -123.00299395430953,
              49.25015213238507
            ],
            [
              -123.00293077165325,
              49.25015258289672
            ],
            [
              -123.00293042479507,
              49.250121257158256
            ],
            [
              -123.00299326345974,
              49.250121932318564
            ],
            [
              -123.00299395430953,
              49.25015213238507
            ]
          ]
        ]
      }
    },
    {
      "type": "Feature",
      "properties": {
        "room": "3735",
        "building": "SW3",
        "floor": "3",
        "type": "room",
        "source": "traced",
        "uv": [
          [
            0.339523,
            0.552006
          ],
          [
            0.354216,
            0.552192
          ],
          [
            0.354337,
            0.589682
          ],
          [
            0.348315,
            0.590053
          ],
          [
            0.339161,
            0.57669
          ]
        ],
        "name": "Office"
      },
      "geometry": {
        "type": "Polygon",
        "coordinates": [
          [
            [
              -123.00303607321378,
              49.25015235824805
            ],
            [
              -123.00299395430953,
              49.25015213238507
            ],
            [
              -123.00299360745133,
              49.25010660763665
            ],
            [
              -123.00301087009623,
              49.250106157125
            ],
            [
              -123.00303711092175,
              49.25012238404453
            ],
            [
              -123.00303607321378,
              49.25015235824805
            ]
          ]
        ]
      }
    },
    {
      "type": "Feature",
      "properties": {
        "room": "3725",
        "building": "SW3",
        "floor": "3",
        "type": "room",
        "source": "traced",
        "uv": [
          [
            0.348315,
            0.590053
          ],
          [
            0.347953,
            0.60156
          ],
          [
            0.390951,
            0.601746
          ],
          [
            0.390469,
            0.577433
          ],
          [
            0.354457,
            0.577062
          ],
          [
            0.354337,
            0.589682
          ]
        ],
        "name": "Office"
      },
      "geometry": {
        "type": "Polygon",
        "coordinates": [
          [
            [
              -123.00301087009623,
              49.250106157125
            ],
            [
              -123.00301190780421,
              49.250092183978026
            ],
            [
              -123.00288864988241,
              49.25009195811505
            ],
            [
              -123.00289003158198,
              49.25012148180692
            ],
            [
              -123.00299326345974,
              49.250121932318564
            ],
            [
              -123.00299360745133,
              49.25010660763665
            ],
            [
              -123.00301087009623,
              49.250106157125
            ]
          ]
        ]
      }
    },
    {
      "type": "Feature",
      "properties": {
        "room": "3715",
        "building": "SW3",
        "floor": "3",
        "type": "room",
        "source": "traced",
        "uv": [
          [
            0.390469,
            0.577433
          ],
          [
            0.427456,
            0.577112
          ],
          [
            0.427215,
            0.601796
          ],
          [
            0.390951,
            0.601746
          ]
        ],
        "name": "Office"
      },
      "geometry": {
        "type": "Polygon",
        "coordinates": [
          [
            [
              -123.00289003158198,
              49.25012148180692
            ],
            [
              -123.00278400477251,
              49.25012187160271
            ],
            [
              -123.0027846956223,
              49.250091897399194
            ],
            [
              -123.00288864988241,
              49.25009195811505
            ],
            [
              -123.00289003158198,
              49.25012148180692
            ]
          ]
        ]
      }
    },
    {
      "type": "Feature",
      "properties": {
        "room": "3745",
        "building": "SW3",
        "floor": "3",
        "type": "room",
        "source": "traced",
        "uv": [
          [
            0.337706,
            0.601563
          ],
          [
            0.347953,
            0.60156
          ],
          [
            0.348315,
            0.590053
          ],
          [
            0.339161,
            0.57669
          ],
          [
            0.339523,
            0.552006
          ],
          [
            0.310486,
            0.55238
          ],
          [
            0.310606,
            0.576693
          ],
          [
            0.314581,
            0.581704
          ],
          [
            0.336019,
            0.582261
          ],
          [
            0.337826,
            0.587086
          ]
        ],
        "name": "Meeting Room"
      },
      "geometry": {
        "type": "Polygon",
        "coordinates": [
          [
            [
              -123.00304128181985,
              49.25009218033508
            ],
            [
              -123.00301190780421,
              49.250092183978026
            ],
            [
              -123.00301087009623,
              49.250106157125
            ],
            [
              -123.00303711092175,
              49.25012238404453
            ],
            [
              -123.00303607321378,
              49.25015235824805
            ],
            [
              -123.00311931058006,
              49.25015190409345
            ],
            [
              -123.00311896658846,
              49.25012238040158
            ],
            [
              -123.00310757186686,
              49.25011629545855
            ],
            [
              -123.00304611776836,
              49.250115619083914
            ],
            [
              -123.00304093782826,
              49.250109760003866
            ],
            [
              -123.00304128181985,
              49.25009218033508
            ]
          ]
        ]
      }
    },
    {
      "type": "Feature",
      "properties": {
        "room": "3755",
        "building": "SW3",
        "floor": "3",
        "type": "room",
        "source": "traced",
        "uv": [
          [
            0.314581,
            0.581704
          ],
          [
            0.310727,
            0.588571
          ],
          [
            0.310486,
            0.601377
          ],
          [
            0.337706,
            0.601563
          ],
          [
            0.337826,
            0.587086
          ],
          [
            0.336019,
            0.582261
          ]
        ],
        "name": "Resources"
      },
      "geometry": {
        "type": "Polygon",
        "coordinates": [
          [
            [
              -123.00310757186686,
              49.25011629545855
            ],
            [
              -123.00311861973027,
              49.25010795674296
            ],
            [
              -123.00311931058006,
              49.25009240619806
            ],
            [
              -123.00304128181985,
              49.25009218033508
            ],
            [
              -123.00304093782826,
              49.250109760003866
            ],
            [
              -123.00304611776836,
              49.250115619083914
            ],
            [
              -123.00310757186686,
              49.25011629545855
            ]
          ]
        ]
      }
    },
    {
      "type": "Feature",
      "properties": {
        "room": "3765",
        "building": "SW3",
        "floor": "3",
        "type": "room",
        "source": "traced",
        "uv": [
          [
            0.288445,
            0.551824
          ],
          [
            0.310486,
            0.55238
          ],
          [
            0.310606,
            0.576693
          ],
          [
            0.303741,
            0.586901
          ],
          [
            0.294587,
            0.587272
          ],
          [
            0.288324,
            0.576879
          ]
        ],
        "name": "Office"
      },
      "geometry": {
        "type": "Polygon",
        "coordinates": [
          [
            [
              -123.00318249323632,
              49.250152579253765
            ],
            [
              -123.00311931058006,
              49.25015190409345
            ],
            [
              -123.00311896658846,
              49.25012238040158
            ],
            [
              -123.00313864577431,
              49.25010998465253
            ],
            [
              -123.00316488659985,
              49.25010953414088
            ],
            [
              -123.00318284009452,
              49.250122154538595
            ],
            [
              -123.00318249323632,
              49.250152579253765
            ]
          ]
        ]
      }
    },
    {
      "type": "Feature",
      "properties": {
        "room": "3771",
        "building": "SW3",
        "floor": "3",
        "type": "room",
        "source": "traced",
        "uv": [
          [
            0.273269,
            0.551824
          ],
          [
            0.288445,
            0.551824
          ],
          [
            0.288324,
            0.576879
          ],
          [
            0.27339,
            0.576879
          ]
        ],
        "name": "Office"
      },
      "geometry": {
        "type": "Polygon",
        "coordinates": [
          [
            [
              -123.00322599670675,
              49.250152579253765
            ],
            [
              -123.00318249323632,
              49.250152579253765
            ],
            [
              -123.00318284009452,
              49.250122154538595
            ],
            [
              -123.00322564984856,
              49.250122154538595
            ],
            [
              -123.00322599670675,
              49.250152579253765
            ]
          ]
        ]
      }
    },
    {
      "type": "Feature",
      "properties": {
        "room": "3785",
        "building": "SW3",
        "floor": "3",
        "type": "room",
        "source": "traced",
        "uv": [
          [
            0.258334,
            0.552566
          ],
          [
            0.273269,
            0.551824
          ],
          [
            0.27339,
            0.576879
          ],
          [
            0.269535,
            0.582447
          ],
          [
            0.258575,
            0.582818
          ]
        ],
        "name": "Office"
      },
      "geometry": {
        "type": "Polygon",
        "coordinates": [
          [
            [
              -123.00326880932738,
              49.250151678230466
            ],
            [
              -123.00322599670675,
              49.250152579253765
            ],
            [
              -123.00322564984856,
              49.250122154538595
            ],
            [
              -123.00323670057855,
              49.25011539322094
            ],
            [
              -123.0032681184776,
              49.25011494270929
            ],
            [
              -123.00326880932738,
              49.250151678230466
            ]
          ]
        ]
      }
    },
    {
      "type": "Feature",
      "properties": {
        "room": "3775",
        "building": "SW3",
        "floor": "3",
        "type": "room",
        "source": "traced",
        "uv": [
          [
            0.258575,
            0.582818
          ],
          [
            0.259298,
            0.60212
          ],
          [
            0.310486,
            0.601377
          ],
          [
            0.310727,
            0.588571
          ],
          [
            0.314581,
            0.581704
          ],
          [
            0.310606,
            0.576693
          ],
          [
            0.303741,
            0.586901
          ],
          [
            0.294587,
            0.587272
          ],
          [
            0.288324,
            0.576879
          ],
          [
            0.27339,
            0.576879
          ],
          [
            0.269535,
            0.582447
          ]
        ],
        "name": "Office"
      },
      "geometry": {
        "type": "Polygon",
        "coordinates": [
          [
            [
              -123.0032681184776,
              49.25011494270929
            ],
            [
              -123.00326604592824,
              49.25009150396045
            ],
            [
              -123.00311931058006,
              49.25009240619806
            ],
            [
              -123.00311861973027,
              49.25010795674296
            ],
            [
              -123.00310757186686,
              49.25011629545855
            ],
            [
              -123.00311896658846,
              49.25012238040158
            ],
            [
              -123.00313864577431,
              49.25010998465253
            ],
            [
              -123.00316488659985,
              49.25010953414088
            ],
            [
              -123.00318284009452,
              49.250122154538595
            ],
            [
              -123.00322564984856,
              49.250122154538595
            ],
            [
              -123.00323670057855,
              49.25011539322094
            ],
            [
              -123.0032681184776,
              49.25011494270929
            ]
          ]
        ]
      }
    },
    {
      "type": "Feature",
      "properties": {
        "room": "S371",
        "building": "SW3",
        "floor": "3",
        "type": "hallway",
        "source": "traced",
        "uv": [
          [
            0.456697,
            0.632999
          ],
          [
            0.472759,
            0.632957
          ],
          [
            0.472437,
            0.65008
          ],
          [
            0.456816,
            0.65008
          ]
        ],
        "name": "Lounge Stairs"
      },
      "geometry": {
        "type": "Polygon",
        "coordinates": [
          [
            [
              -123.00270018262052,
              49.25005400706244
            ],
            [
              -123.00265413916837,
              49.250054058197236
            ],
            [
              -123.00265506246683,
              49.25003326533957
            ],
            [
              -123.00269984244119,
              49.25003326533957
            ],
            [
              -123.00270018262052,
              49.25005400706244
            ]
          ]
        ]
      }
    },
    {
      "type": "Feature",
      "properties": {
        "room": "3704",
        "building": "SW3",
        "floor": "3",
        "type": "room",
        "source": "traced",
        "uv": [
          [
            0.456816,
            0.65008
          ],
          [
            0.456697,
            0.706071
          ],
          [
            0.492406,
            0.706413
          ],
          [
            0.491279,
            0.65008
          ]
        ],
        "name": "Indoor Lounge"
      },
      "geometry": {
        "type": "Polygon",
        "coordinates": [
          [
            [
              -123.00269984244119,
              49.25003326533957
            ],
            [
              -123.00270018262052,
              49.24996527448265
            ],
            [
              -123.00259781796355,
              49.24996485978906
            ],
            [
              -123.00260104950794,
              49.25003326533957
            ],
            [
              -123.00269984244119,
              49.25003326533957
            ]
          ]
        ]
      }
    },
    {
      "type": "Feature",
      "properties": {
        "room": "3704",
        "building": "SW3",
        "floor": "3",
        "type": "room",
        "source": "traced",
        "uv": [
          [
            0.459876,
            0.706164
          ],
          [
            0.46052,
            0.740659
          ],
          [
            0.499009,
            0.740659
          ],
          [
            0.49917,
            0.706413
          ]
        ],
        "name": "Outdoor Lounge"
      },
      "geometry": {
        "type": "Polygon",
        "coordinates": [
          [
            [
              -123.00269107110609,
              49.249965161135464
            ],
            [
              -123.00268922450917,
              49.249923273989936
            ],
            [
              -123.00257889034546,
              49.249923273989936
            ],
            [
              -123.00257842869605,
              49.24996485978906
            ],
            [
              -123.00269107110609,
              49.249965161135464
            ]
          ]
        ]
      }
    },
    {
      "type": "Feature",
      "properties": {
        "room": "3093",
        "building": "SW3",
        "floor": "3",
        "type": "room",
        "source": "traced",
        "uv": [
          [
            0.457006,
            0.525123
          ],
          [
            0.472305,
            0.524131
          ],
          [
            0.471983,
            0.550684
          ],
          [
            0.456361,
            0.55118
          ]
        ],
        "name": "Office"
      },
      "geometry": {
        "type": "Polygon",
        "coordinates": [
          [
            [
              -123.00269929798577,
              49.25018500212789
            ],
            [
              -123.00265544130949,
              49.25018620750748
            ],
            [
              -123.00265636460794,
              49.25015396359302
            ],
            [
              -123.00270114458229,
              49.250153360903084
            ],
            [
              -123.00269929798577,
              49.25018500212789
            ]
          ]
        ]
      }
    },
    {
      "type": "Feature",
      "properties": {
        "room": "3098",
        "building": "SW3",
        "floor": "3",
        "type": "room",
        "source": "traced",
        "uv": [
          [
            0.486155,
            0.525123
          ],
          [
            0.501776,
            0.524627
          ],
          [
            0.501776,
            0.550436
          ],
          [
            0.486432,
            0.551197
          ]
        ],
        "name": "Office"
      },
      "geometry": {
        "type": "Polygon",
        "coordinates": [
          [
            [
              -123.00261573947643,
              49.25018500212789
            ],
            [
              -123.00257095950207,
              49.250185604817915
            ],
            [
              -123.00257095950207,
              49.25015426493823
            ],
            [
              -123.0026149443698,
              49.25015334063059
            ],
            [
              -123.00261573947643,
              49.25018500212789
            ]
          ]
        ]
      }
    },
    {
      "type": "Feature",
      "properties": {
        "room": "3091",
        "building": "SW3",
        "floor": "3",
        "type": "room",
        "source": "traced",
        "uv": [
          [
            0.442834,
            0.502541
          ],
          [
            0.471822,
            0.503037
          ],
          [
            0.472305,
            0.524131
          ],
          [
            0.44219,
            0.524627
          ]
        ],
        "name": "Office"
      },
      "geometry": {
        "type": "Polygon",
        "coordinates": [
          [
            [
              -123.0027399231169,
              49.25021242450654
            ],
            [
              -123.00265682625734,
              49.250211821816805
            ],
            [
              -123.00265544130949,
              49.25018620750748
            ],
            [
              -123.00274176971381,
              49.250185604817915
            ],
            [
              -123.0027399231169,
              49.25021242450654
            ]
          ]
        ]
      }
    },
    {
      "type": "Feature",
      "properties": {
        "room": "3089",
        "building": "SW3",
        "floor": "3",
        "type": "room",
        "source": "traced",
        "uv": [
          [
            0.44219,
            0.468543
          ],
          [
            0.471822,
            0.468543
          ],
          [
            0.471822,
            0.503037
          ],
          [
            0.442834,
            0.502541
          ]
        ],
        "name": "Office"
      },
      "geometry": {
        "type": "Polygon",
        "coordinates": [
          [
            [
              -123.00274176971381,
              49.25025370871799
            ],
            [
              -123.00265682625734,
              49.25025370871799
            ],
            [
              -123.00265682625734,
              49.250211821816805
            ],
            [
              -123.0027399231169,
              49.25021242450654
            ],
            [
              -123.00274176971381,
              49.25025370871799
            ]
          ]
        ]
      }
    },
    {
      "type": "Feature",
      "properties": {
        "room": "3087",
        "building": "SW3",
        "floor": "3",
        "type": "room",
        "source": "traced",
        "uv": [
          [
            0.442351,
            0.434793
          ],
          [
            0.471983,
            0.434545
          ],
          [
            0.471822,
            0.468543
          ],
          [
            0.44219,
            0.468543
          ]
        ],
        "name": "Office"
      },
      "geometry": {
        "type": "Polygon",
        "coordinates": [
          [
            [
              -123.00274130806476,
              49.25029469155055
            ],
            [
              -123.00265636460794,
              49.25029499289491
            ],
            [
              -123.00265682625734,
              49.25025370871799
            ],
            [
              -123.00274176971381,
              49.25025370871799
            ],
            [
              -123.00274130806476,
              49.25029469155055
            ]
          ]
        ]
      }
    },
    {
      "type": "Feature",
      "properties": {
        "room": "3085",
        "building": "SW3",
        "floor": "3",
        "type": "room",
        "source": "traced",
        "uv": [
          [
            0.442028,
            0.400547
          ],
          [
            0.471983,
            0.400299
          ],
          [
            0.471983,
            0.434545
          ],
          [
            0.442351,
            0.434793
          ]
        ],
        "name": "Office"
      },
      "geometry": {
        "type": "Polygon",
        "coordinates": [
          [
            [
              -123.00274223136321,
              49.25033627703732
            ],
            [
              -123.00265636460794,
              49.25033657838094
            ],
            [
              -123.00265636460794,
              49.25029499289491
            ],
            [
              -123.00274130806476,
              49.25029469155055
            ],
            [
              -123.00274223136321,
              49.25033627703732
            ]
          ]
        ]
      }
    },
    {
      "type": "Feature",
      "properties": {
        "room": "3083",
        "building": "SW3",
        "floor": "3",
        "type": "room",
        "source": "traced",
        "uv": [
          [
            0.4428,
            0.366979
          ],
          [
            0.47209,
            0.366979
          ],
          [
            0.471983,
            0.400299
          ],
          [
            0.442028,
            0.400547
          ]
        ],
        "name": "Office"
      },
      "geometry": {
        "type": "Polygon",
        "coordinates": [
          [
            [
              -123.00274002048123,
              49.25037703931369
            ],
            [
              -123.00265605827005,
              49.25037703931369
            ],
            [
              -123.00265636460794,
              49.25033657838094
            ],
            [
              -123.00274223136321,
              49.25033627703732
            ],
            [
              -123.00274002048123,
              49.25037703931369
            ]
          ]
        ]
      }
    },
    {
      "type": "Feature",
      "properties": {
        "room": "3081",
        "building": "SW3",
        "floor": "3",
        "type": "room",
        "source": "traced",
        "uv": [
          [
            0.4428,
            0.345306
          ],
          [
            0.472525,
            0.345753
          ],
          [
            0.47209,
            0.366979
          ],
          [
            0.4428,
            0.366979
          ]
        ],
        "name": "Office"
      },
      "geometry": {
        "type": "Polygon",
        "coordinates": [
          [
            [
              -123.00274002048123,
              49.25040335739149
            ],
            [
              -123.00265481130667,
              49.25040281475066
            ],
            [
              -123.00265605827005,
              49.25037703931369
            ],
            [
              -123.00274002048123,
              49.25037703931369
            ],
            [
              -123.00274002048123,
              49.25040335739149
            ]
          ]
        ]
      }
    },
    {
      "type": "Feature",
      "properties": {
        "room": "3086",
        "building": "SW3",
        "floor": "3",
        "type": "room",
        "source": "traced",
        "uv": [
          [
            0.486155,
            0.34553
          ],
          [
            0.515879,
            0.345306
          ],
          [
            0.515589,
            0.366979
          ],
          [
            0.4863,
            0.367203
          ]
        ],
        "name": "Office"
      },
      "geometry": {
        "type": "Polygon",
        "coordinates": [
          [
            [
              -123.00261573978267,
              49.25040308607112
            ],
            [
              -123.00253053060814,
              49.25040335739149
            ],
            [
              -123.00253136191716,
              49.25037703931369
            ],
            [
              -123.00261532412802,
              49.25037676799312
            ],
            [
              -123.00261573978267,
              49.25040308607112
            ]
          ]
        ]
      }
    },
    {
      "type": "Feature",
      "properties": {
        "room": "3088",
        "building": "SW3",
        "floor": "3",
        "type": "room",
        "source": "traced",
        "uv": [
          [
            0.4863,
            0.367203
          ],
          [
            0.515589,
            0.366979
          ],
          [
            0.515299,
            0.400941
          ],
          [
            0.4863,
            0.400941
          ]
        ],
        "name": "Office"
      },
      "geometry": {
        "type": "Polygon",
        "coordinates": [
          [
            [
              -123.00261532412802,
              49.25037676799312
            ],
            [
              -123.00253136191716,
              49.25037703931369
            ],
            [
              -123.00253219322619,
              49.25033579858612
            ],
            [
              -123.00261532412802,
              49.25033579858612
            ],
            [
              -123.00261532412802,
              49.25037676799312
            ]
          ]
        ]
      }
    },
    {
      "type": "Feature",
      "properties": {
        "room": "3090",
        "building": "SW3",
        "floor": "3",
        "type": "room",
        "source": "traced",
        "uv": [
          [
            0.4863,
            0.400941
          ],
          [
            0.515299,
            0.400941
          ],
          [
            0.514864,
            0.43468
          ],
          [
            0.486445,
            0.43535
          ]
        ],
        "name": "Office"
      },
      "geometry": {
        "type": "Polygon",
        "coordinates": [
          [
            [
              -123.00261532412802,
              49.25033579858612
            ],
            [
              -123.00253219322619,
              49.25033579858612
            ],
            [
              -123.00253344018957,
              49.25029482914471
            ],
            [
              -123.00261490847365,
              49.25029401518208
            ],
            [
              -123.00261532412802,
              49.25033579858612
            ]
          ]
        ]
      }
    },
    {
      "type": "Feature",
      "properties": {
        "room": "3092",
        "building": "SW3",
        "floor": "3",
        "type": "room",
        "source": "traced",
        "uv": [
          [
            0.486445,
            0.43535
          ],
          [
            0.514864,
            0.43468
          ],
          [
            0.515009,
            0.467748
          ],
          [
            0.486735,
            0.468195
          ]
        ],
        "name": "Office"
      },
      "geometry": {
        "type": "Polygon",
        "coordinates": [
          [
            [
              -123.00261490847365,
              49.25029401518208
            ],
            [
              -123.00253344018957,
              49.25029482914471
            ],
            [
              -123.00253302453521,
              49.250254673633066
            ],
            [
              -123.00261407716462,
              49.25025413099098
            ],
            [
              -123.00261490847365,
              49.25029401518208
            ]
          ]
        ]
      }
    },
    {
      "type": "Feature",
      "properties": {
        "room": "3094",
        "building": "SW3",
        "floor": "3",
        "type": "room",
        "source": "traced",
        "uv": [
          [
            0.486735,
            0.468195
          ],
          [
            0.515009,
            0.467748
          ],
          [
            0.515009,
            0.501934
          ],
          [
            0.486445,
            0.502381
          ]
        ],
        "name": "Office"
      },
      "geometry": {
        "type": "Polygon",
        "coordinates": [
          [
            [
              -123.00261407716462,
              49.25025413099098
            ],
            [
              -123.00253302453521,
              49.250254673633066
            ],
            [
              -123.00253302453521,
              49.25021316148178
            ],
            [
              -123.00261490847365,
              49.2502126188393
            ],
            [
              -123.00261407716462,
              49.25025413099098
            ]
          ]
        ]
      }
    },
    {
      "type": "Feature",
      "properties": {
        "room": "3096",
        "building": "SW3",
        "floor": "3",
        "type": "room",
        "source": "traced",
        "uv": [
          [
            0.486445,
            0.502381
          ],
          [
            0.515009,
            0.501934
          ],
          [
            0.515299,
            0.524948
          ],
          [
            0.486155,
            0.525123
          ]
        ],
        "name": "Office"
      },
      "geometry": {
        "type": "Polygon",
        "coordinates": [
          [
            [
              -123.00261490847365,
              49.2502126188393
            ],
            [
              -123.00253302453521,
              49.25021316148178
            ],
            [
              -123.00253219322619,
              49.250185215373705
            ],
            [
              -123.00261573947643,
              49.25018500212789
            ],
            [
              -123.00261490847365,
              49.2502126188393
            ]
          ]
        ]
      }
    },
    {
      "type": "Feature",
      "properties": {
        "room": null,
        "building": "SW3",
        "floor": "3",
        "type": "hallway",
        "source": "traced",
        "uv": [
          [
            0.244616,
            0.551486
          ],
          [
            0.258334,
            0.552566
          ],
          [
            0.259298,
            0.60212
          ],
          [
            0.472428,
            0.603015
          ],
          [
            0.472525,
            0.345753
          ],
          [
            0.486155,
            0.34553
          ],
          [
            0.485985,
            0.625617
          ],
          [
            0.763634,
            0.625555
          ],
          [
            0.763872,
            0.649941
          ],
          [
            0.472437,
            0.65008
          ],
          [
            0.472759,
            0.632957
          ],
          [
            0.377284,
            0.632829
          ],
          [
            0.376918,
            0.627176
          ],
          [
            0.249583,
            0.625685
          ],
          [
            0.249708,
            0.599596
          ],
          [
            0.244235,
            0.599413
          ]
        ]
      },
      "geometry": {
        "type": "Polygon",
        "coordinates": [
          [
            [
              -123.00330813353432,
              49.25015298961401
            ],
            [
              -123.00326880932738,
              49.250151678230466
            ],
            [
              -123.00326604592824,
              49.25009150396045
            ],
            [
              -123.00265508751033,
              49.250090416584925
            ],
            [
              -123.00265481130667,
              49.25040281475066
            ],
            [
              -123.00261573978267,
              49.25040308607112
            ],
            [
              -123.00261622573849,
              49.25006297115134
            ],
            [
              -123.00182031682073,
              49.25006304591673
            ],
            [
              -123.00181963465668,
              49.2500334342123
            ],
            [
              -123.00265506246683,
              49.25003326533957
            ],
            [
              -123.00265413916837,
              49.250054058197236
            ],
            [
              -123.00292782765852,
              49.25005421349635
            ],
            [
              -123.00292887692612,
              49.250061078046826
            ],
            [
              -123.00329389465404,
              49.25006288881147
            ],
            [
              -123.00329353650434,
              49.25009456859476
            ],
            [
              -123.00330922627693,
              49.250094791239036
            ],
            [
              -123.00330813353432,
              49.25015298961401
            ]
          ]
        ]
      }
    },
    {
      "type": "Feature",
      "properties": {
        "room": null,
        "building": "SW3",
        "floor": "3",
        "type": "hallway",
        "source": "traced",
        "uv": [
          [
            0.523601,
            0.650712
          ],
          [
            0.523215,
            0.673628
          ],
          [
            0.529423,
            0.675691
          ],
          [
            0.529974,
            0.650266
          ]
        ]
      },
      "geometry": {
        "type": "Polygon",
        "coordinates": [
          [
            [
              -123.00250839583974,
              49.25003249786349
            ],
            [
              -123.00250950234604,
              49.250004670572615
            ],
            [
              -123.00249170693758,
              49.250002165664625
            ],
            [
              -123.00249012701943,
              49.250033039448915
            ],
            [
              -123.00250839583974,
              49.25003249786349
            ]
          ]
        ]
      }
    },
    {
      "type": "Feature",
      "properties": {
        "room": null,
        "building": "SW3",
        "floor": "3",
        "type": "hallway",
        "source": "traced",
        "uv": [
          [
            0.538762,
            0.649968
          ],
          [
            0.538665,
            0.667973
          ],
          [
            0.545618,
            0.669461
          ],
          [
            0.545733,
            0.649752
          ]
        ]
      },
      "geometry": {
        "type": "Polygon",
        "coordinates": [
          [
            [
              -123.00246493536827,
              49.25003340131541
            ],
            [
              -123.00246521342814,
              49.25001153753587
            ],
            [
              -123.00244528198179,
              49.25000973063201
            ],
            [
              -123.00244495143596,
              49.25003366397161
            ],
            [
              -123.00246493536827,
              49.25003340131541
            ]
          ]
        ]
      }
    },
    {
      "type": "Feature",
      "properties": {
        "room": "3095",
        "building": "SW3",
        "floor": "3",
        "type": "service",
        "source": "traced",
        "uv": [
          [
            0.463544,
            0.571717
          ],
          [
            0.472602,
            0.57118
          ],
          [
            0.472137,
            0.593368
          ],
          [
            0.463892,
            0.59301
          ]
        ],
        "name": "Communications"
      },
      "geometry": {
        "type": "Polygon",
        "coordinates": [
          [
            [
              -123.00268055530367,
              49.25012842332211
            ],
            [
              -123.0026545906619,
              49.250129075192376
            ],
            [
              -123.00265592218202,
              49.25010213121104
            ],
            [
              -123.00267955666348,
              49.25010256579134
            ],
            [
              -123.00268055530367,
              49.25012842332211
            ]
          ]
        ]
      }
    }
  ]
}