{
  "type": "FeatureCollection",
  "features": [
    {
      "type": "Feature",
      "properties": {
        "room": "1840",
        "building": "SW5",
        "floor": "1",
        "type": "room",
        "source": "traced",
        "uv": [
          [
            0.409311,
            0.313251
          ],
          [
            0.526538,
            0.342797
          ],
          [
            0.525948,
            0.858005
          ],
          [
            0.505331,
            0.857082
          ],
          [
            0.475288,
            0.845079
          ],
          [
            0.442299,
            0.850619
          ],
          [
            0.414613,
            0.833999
          ],
          [
            0.380446,
            0.833999
          ],
          [
            0.35217,
            0.815533
          ],
          [
            0.323305,
            0.810916
          ],
          [
            0.306811,
            0.797066
          ]
        ],
        "name": "Lecture Hall"
      },
      "geometry": {
        "type": "Polygon",
        "coordinates": [
          [
            [
              -123.00273087780535,
              49.24977610407106
            ],
            [
              -123.00263359908577,
              49.249765893034336
            ],
            [
              -123.00263408868668,
              49.24958783821109
            ],
            [
              -123.00265119733366,
              49.24958815719799
            ],
            [
              -123.0026761279774,
              49.24959230541006
            ],
            [
              -123.0027035033063,
              49.24959039079747
            ],
            [
              -123.00272647803592,
              49.249596134635226
            ],
            [
              -123.00275483090695,
              49.249596134635226
            ],
            [
              -123.00277829523748,
              49.24960251644678
            ],
            [
              -123.00280224833907,
              49.24960411207247
            ],
            [
              -123.0028159355886,
              49.24960889860393
            ],
            [
              -123.00273087780535,
              49.24977610407106
            ]
          ]
        ]
      }
    },
    {
      "type": "Feature",
      "properties": {
        "room": "1850",
        "building": "SW5",
        "floor": "1",
        "type": "room",
        "source": "traced",
        "uv": [
          [
            0.526538,
            0.342797
          ],
          [
            0.641997,
            0.314174
          ],
          [
            0.746853,
            0.801683
          ],
          [
            0.731537,
            0.81184
          ],
          [
            0.700316,
            0.813686
          ],
          [
            0.671451,
            0.834922
          ],
          [
            0.637284,
            0.834922
          ],
          [
            0.607241,
            0.851542
          ],
          [
            0.576609,
            0.844156
          ],
          [
            0.547155,
            0.858005
          ],
          [
            0.525948,
            0.858005
          ]
        ],
        "name": "Lecture Hall"
      },
      "geometry": {
        "type": "Polygon",
        "coordinates": [
          [
            [
              -123.00263359908577,
              49.249765893034336
            ],
            [
              -123.00253778750923,
              49.24977578508416
            ],
            [
              -123.00245077464172,
              49.24960730297824
            ],
            [
              -123.00246348434911,
              49.24960379273997
            ],
            [
              -123.00248939253497,
              49.24960315476618
            ],
            [
              -123.00251334563656,
              49.249595815648334
            ],
            [
              -123.00254169850759,
              49.249595815648334
            ],
            [
              -123.00256662915132,
              49.24959007181057
            ],
            [
              -123.00259204856611,
              49.24959262439695
            ],
            [
              -123.00261649043878,
              49.24958783821109
            ],
            [
              -123.00263408868668,
              49.24958783821109
            ],
            [
              -123.00263359908577,
              49.249765893034336
            ]
          ]
        ]
      }
    },
    {
      "type": "Feature",
      "properties": {
        "room": "S180",
        "building": "SW5",
        "floor": "1",
        "type": "stairs",
        "source": "traced",
        "uv": [
          [
            0.219632,
            0.258426
          ],
          [
            0.294558,
            0.258426
          ],
          [
            0.294075,
            0.422839
          ],
          [
            0.218182,
            0.425112
          ]
        ],
        "name": "West Stairs"
      },
      "geometry": {
        "type": "Polygon",
        "coordinates": [
          [
            [
              -123.00288827951529,
              49.249795051478095
            ],
            [
              -123.00282610352049,
              49.249795051478095
            ],
            [
              -123.00282650432936,
              49.24973823068406
            ],
            [
              -123.00288948277174,
              49.24973744513994
            ],
            [
              -123.00288827951529,
              49.249795051478095
            ]
          ]
        ]
      }
    },
    {
      "type": "Feature",
      "properties": {
        "room": "S189",
        "building": "SW5",
        "floor": "1",
        "type": "stairs",
        "source": "traced",
        "uv": [
          [
            0.756227,
            0.264401
          ],
          [
            0.83357,
            0.264401
          ],
          [
            0.83357,
            0.425025
          ],
          [
            0.757194,
            0.422752
          ]
        ],
        "name": "East Stairs"
      },
      "geometry": {
        "type": "Polygon",
        "coordinates": [
          [
            [
              -123.00244299579624,
              49.24979298653041
            ],
            [
              -123.00237881409741,
              49.24979298653041
            ],
            [
              -123.00237881409741,
              49.24973747520696
            ],
            [
              -123.00244219334867,
              49.24973826075108
            ],
            [
              -123.00244299579624,
              49.24979298653041
            ]
          ]
        ]
      }
    },
    {
      "type": "Feature",
      "properties": {
        "room": "1845",
        "building": "SW5",
        "floor": "1",
        "type": "service",
        "source": "traced",
        "uv": [
          [
            0.391222,
            0.218184
          ],
          [
            0.526089,
            0.251521
          ],
          [
            0.526538,
            0.342797
          ],
          [
            0.374304,
            0.298496
          ]
        ],
        "name": "AV Room"
      },
      "geometry": {
        "type": "Polygon",
        "coordinates": [
          [
            [
              -123.00274588863698,
              49.24980895903038
            ],
            [
              -123.00263397168035,
              49.249797437831866
            ],
            [
              -123.00263359908577,
              49.249765893034336
            ],
            [
              -123.00275992773528,
              49.249781203368656
            ],
            [
              -123.00274588863698,
              49.24980895903038
            ]
          ]
        ]
      }
    },
    {
      "type": "Feature",
      "properties": {
        "room": "1855",
        "building": "SW5",
        "floor": "1",
        "type": "service",
        "source": "traced",
        "uv": [
          [
            0.526089,
            0.251521
          ],
          [
            0.635336,
            0.224245
          ],
          [
            0.641997,
            0.314174
          ],
          [
            0.526538,
            0.342797
          ]
        ],
        "name": "AV Room"
      },
      "geometry": {
        "type": "Polygon",
        "coordinates": [
          [
            [
              -123.00263397168035,
              49.249797437831866
            ],
            [
              -123.00254331502039,
              49.24980686436127
            ],
            [
              -123.00253778750923,
              49.24977578508416
            ],
            [
              -123.00263359908577,
              49.249765893034336
            ],
            [
              -123.00263397168035,
              49.249797437831866
            ]
          ]
        ]
      }
    },
    {
      "type": "Feature",
      "properties": {
        "room": "1800",
        "building": "SW5",
        "floor": "1",
        "type": "hallway",
        "source": "traced",
        "uv": [
          [
            0.454547,
            0.052257
          ],
          [
            0.597631,
            0.052257
          ],
          [
            0.762468,
            0.100747
          ],
          [
            0.764401,
            0.263644
          ],
          [
            0.756227,
            0.264401
          ],
          [
            0.757151,
            0.434117
          ],
          [
            0.714129,
            0.455332
          ],
          [
            0.663856,
            0.205304
          ],
          [
            0.526089,
            0.251521
          ],
          [
            0.388322,
            0.209092
          ],
          [
            0.338049,
            0.453816
          ],
          [
            0.295027,
            0.433359
          ],
          [
            0.294558,
            0.258426
          ],
          [
            0.287293,
            0.259098
          ],
          [
            0.28971,
            0.099232
          ]
        ],
        "name": "Lobby"
      },
      "geometry": {
        "type": "Polygon",
        "coordinates": [
          [
            [
              -123.00269333952357,
              49.2498663030597
            ],
            [
              -123.00257460383715,
              49.2498663030597
            ],
            [
              -123.00243781681453,
              49.24984954501561
            ],
            [
              -123.00243621274922,
              49.249793248148045
            ],
            [
              -123.00244299579624,
              49.24979298653041
            ],
            [
              -123.00244222903144,
              49.249734333030496
            ],
            [
              -123.00247793006511,
              49.24972700117021
            ],
            [
              -123.00251964821085,
              49.24981341033184
            ],
            [
              -123.00263397168035,
              49.249797437831866
            ],
            [
              -123.00274829514987,
              49.24981210120685
            ],
            [
              -123.0027900132956,
              49.24972752509669
            ],
            [
              -123.00282571432926,
              49.24973459499373
            ],
            [
              -123.00282610352049,
              49.249795051478095
            ],
            [
              -123.00283213225019,
              49.24979481923628
            ],
            [
              -123.00283012654617,
              49.24985006859649
            ],
            [
              -123.00269333952357,
              49.2498663030597
            ]
          ]
        ]
      }
    }
  ]
}