{
  "type": "FeatureCollection",
  "features": [
    {
      "type": "Feature",
      "properties": {
        "room": "2800",
        "building": "SW5",
        "floor": "2",
        "type": "hallway",
        "source": "traced",
        "uv": [
          [
            0.283557,
            0.240128
          ],
          [
            0.284612,
            0.434286
          ],
          [
            0.331034,
            0.458004
          ],
          [
            0.36585,
            0.291425
          ],
          [
            0.529031,
            0.333897
          ],
          [
            0.692929,
            0.290874
          ],
          [
            0.728448,
            0.4569
          ],
          [
            0.773084,
            0.435086
          ],
          [
            0.773787,
            0.242031
          ],
          [
            0.749873,
            0.242031
          ],
          [
            0.747763,
            0.229896
          ],
          [
            0.632763,
            0.260233
          ],
          [
            0.628894,
            0.23817
          ],
          [
            0.587747,
            0.249202
          ],
          [
            0.589858,
            0.26961
          ],
          [
            0.528514,
            0.28647
          ],
          [
            0.467484,
            0.271025
          ],
          [
            0.470298,
            0.251168
          ],
          [
            0.428448,
            0.239585
          ],
          [
            0.425986,
            0.260545
          ],
          [
            0.308748,
            0.230538
          ],
          [
            0.307693,
            0.240467
          ]
        ]
      },
      "geometry": {
        "type": "Polygon",
        "coordinates": [
          [
            [
              -123.00282350624127,
              49.249795456106426
            ],
            [
              -123.00282268789083,
              49.24973277794791
            ],
            [
              -123.00278668046698,
              49.24972512123557
            ],
            [
              -123.00275967489888,
              49.249778896259556
            ],
            [
              -123.00263310334816,
              49.24976518541496
            ],
            [
              -123.0025059753271,
              49.249779074379234
            ],
            [
              -123.00247842419216,
              49.24972547741831
            ],
            [
              -123.00244380258364,
              49.249732519703144
            ],
            [
              -123.00244325701684,
              49.24979484173616
            ],
            [
              -123.00246180629554,
              49.24979484173616
            ],
            [
              -123.00246344299688,
              49.24979875911839
            ],
            [
              -123.00255264320606,
              49.249788965662276
            ],
            [
              -123.00255564382465,
              49.249796088175685
            ],
            [
              -123.00258755949585,
              49.24979252691912
            ],
            [
              -123.00258592279496,
              49.24978593859319
            ],
            [
              -123.00263350421,
              49.24978049600486
            ],
            [
              -123.00268084197806,
              49.24978548176438
            ],
            [
              -123.00267865970993,
              49.24979189202716
            ],
            [
              -123.00271112094836,
              49.249795631346984
            ],
            [
              -123.00271303043289,
              49.24978886495879
            ],
            [
              -123.00280396689263,
              49.24979855180271
            ],
            [
              -123.00280478524307,
              49.24979534667213
            ],
            [
              -123.00282350624127,
              49.249795456106426
            ]
          ]
        ]
      }
    },
    {
      "type": "Feature",
      "properties": {
        "room": "2895",
        "building": "SW5",
        "floor": "2",
        "type": "room",
        "source": "traced",
        "uv": [
          [
            0.308748,
            0.230538
          ],
          [
            0.425986,
            0.260545
          ],
          [
            0.428448,
            0.239585
          ],
          [
            0.448089,
            0.244119
          ],
          [
            0.453729,
            0.035914
          ],
          [
            0.278032,
            0.080821
          ],
          [
            0.276731,
            0.238676
          ],
          [
            0.283557,
            0.240128
          ],
          [
            0.307693,
            0.240467
          ]
        ],
        "name": "Classroom"
      },
      "geometry": {
        "type": "Polygon",
        "coordinates": [
          [
            [
              -123.00280396689263,
              49.24979855180271
            ],
            [
              -123.00271303043289,
              49.24978886495879
            ],
            [
              -123.00271112094836,
              49.249795631346984
            ],
            [
              -123.00269588587324,
              49.249794167633524
            ],
            [
              -123.00269151145116,
              49.249861380691186
            ],
            [
              -123.00282779152622,
              49.249846883764974
            ],
            [
              -123.0028288010084,
              49.24979592483882
            ],
            [
              -123.00282350624127,
              49.249795456106426
            ],
            [
              -123.00280478524307,
              49.24979534667213
            ],
            [
              -123.00280396689263,
              49.24979855180271
            ]
          ]
        ]
      }
    },
    {
      "type": "Feature",
      "properties": {
        "room": "2875",
        "building": "SW5",
        "floor": "2",
        "type": "room",
        "source": "traced",
        "uv": [
          [
            0.453729,
            0.035914
          ],
          [
            0.602963,
            0.035914
          ],
          [
            0.608169,
            0.244119
          ],
          [
            0.587747,
            0.249202
          ],
          [
            0.589858,
            0.26961
          ],
          [
            0.528514,
            0.28647
          ],
          [
            0.467484,
            0.271025
          ],
          [
            0.470298,
            0.251168
          ],
          [
            0.448089,
            0.244119
          ]
        ],
        "name": "Classroom"
      },
      "geometry": {
        "type": "Polygon",
        "coordinates": [
          [
            [
              -123.00269151145116,
              49.249861380691186
            ],
            [
              -123.0025757575107,
              49.249861380691186
            ],
            [
              -123.0025717195825,
              49.249794167633524
            ],
            [
              -123.00258755949585,
              49.24979252691912
            ],
            [
              -123.00258592279496,
              49.24978593859319
            ],
            [
              -123.00263350421,
              49.24978049600486
            ],
            [
              -123.00268084197806,
              49.24978548176438
            ],
            [
              -123.00267865970993,
              49.24979189202716
            ],
            [
              -123.00269588587324,
              49.249794167633524
            ],
            [
              -123.00269151145116,
              49.249861380691186
            ]
          ]
        ]
      }
    },
    {
      "type": "Feature",
      "properties": {
        "room": "2825",
        "building": "SW5",
        "floor": "2",
        "type": "room",
        "source": "traced",
        "uv": [
          [
            0.602963,
            0.035914
          ],
          [
            0.780466,
            0.081755
          ],
          [
            0.780899,
            0.23961
          ],
          [
            0.749873,
            0.242031
          ],
          [
            0.747763,
            0.229896
          ],
          [
            0.632763,
            0.260233
          ],
          [
            0.628894,
            0.23817
          ],
          [
            0.608169,
            0.244119
          ]
        ],
        "name": "Classroom"
      },
      "geometry": {
        "type": "Polygon",
        "coordinates": [
          [
            [
              -123.0025757575107,
              49.249861380691186
            ],
            [
              -123.00243807675045,
              49.249846582115964
            ],
            [
              -123.00243774025657,
              49.24979562318953
            ],
            [
              -123.00246180629554,
              49.24979484173616
            ],
            [
              -123.00246344299688,
              49.24979875911839
            ],
            [
              -123.00255264320606,
              49.249788965662276
            ],
            [
              -123.00255564382465,
              49.249796088175685
            ],
            [
              -123.0025717195825,
              49.249794167633524
            ],
            [
              -123.0025757575107,
              49.249861380691186
            ]
          ]
        ]
      }
    }
  ]
}